id,name,lat,lon,A1,A2,A3,A4,phone,email,url,address,postal_code,locality,parish_id,parish_name,municipality_id,municipality_name,district_id,district_name,region_id,region_name,stops
HC0001,UCC Integrar na Saúde,38.733471,-9.204799,1,0,0,0,217623020|217628080,ucc.benfica@arslvt.min-saude.pt,,"Rua Rainha Dona Brites, s/n - Bairro Boavista",1500-534,Lisboa,110608,Benfica,1106,Lisboa,11,Lisboa,PT170,AML,
HC0002,UCC Sete Rios,38.748030,-9.179760,1,0,0,0,210536899,ucc.seterios@arslvt.min-saude.pt,,"Rua Cidade de Rabat, 39",1500-672,Lisboa,110639,São Domingos de Benfica,1106,Lisboa,11,Lisboa,PT170,AML,
HC0003,USP Lisboa Norte,38.739567,-9.168651,1,0,0,0,217211862,usp.lxnorte@arslvt.min-saude.pt,,Largo Professor Arnaldo Sampaio,1549-010,Lisboa,110639,São Domingos de Benfica,1106,Lisboa,11,Lisboa,PT170,AML,060453|060454|060459|060013|060456|060457|060458
HC0004,UCC Lumiar Mais,38.776643,-9.145713,1,0,0,0,210519799,ucclumiar.mais@arslvt.min-saude.pt,,"Av. Nuno Krus Abecassis, 19, Piso 0, Alta de Lisboa",1750-456,Lisboa,110664,Santa Clara,1106,Lisboa,11,Lisboa,PT170,AML,060235|060236|060237|060238
HC0005,USF D. João V - Polo Encarnação,39.027818,-9.369372,0,1,0,0,261818120|261855473,usf.djoaov@arslvt.min-saude.pt,,Rua do Novo Mercado,2640-232,Encarnação,110904,Encarnação,1109,Mafra,11,Lisboa,PT170,AML,080487|080525|080633
HC0006,URAP Oeste Sul - Polo Mafra Norte,38.937040,-9.336359,0,1,0,0,261818100,urap.oestesul@arslvt.min-saude.pt|balcoes.urapoestesul@arslvt.min-saude.pt,,Largo Coronel Brito Gorjão,2640-465,Mafra,110909,Mafra,1109,Mafra,11,Lisboa,PT170,AML,080204|080205|080206|080959|080961|080973|080975|080979
HC0007,UCC Loures,38.828328,-9.167982,0,1,0,0,219847080,ucc.loures@arslvt.min-saude.pt,,"Rua da Brasília, nº13",2670-423,Loures,110707,Loures,1107,Loures,11,Lisboa,PT170,AML,070029|070032|070037|070250|070361|070362|070453|070477|070478|070479|070527
HC0008,UCC Amadora Mais,38.745867,-9.220493,1,0,0,0,214906217,ucc.amadoram@arslvt.min-saude.pt,,Praça Conde da Lousã - Damaia,2720-120,Amadora,111513,Águas Livres,1115,Amadora,11,Lisboa,PT170,AML,030505|030507|030509|030511|030531|030567|030677|030678|030679|030681|030682|030741|030743|030745
HC0009,URAP Cascais - Polo Cascais,38.702700,-9.421110,1,0,0,0,214824610,urap.cascais@arslvt.min-saude.pt,,Rua Padre Moisés da Silva,2754-528,Cascais,110508,União das freguesias de Cascais e Estoril,1105,Cascais,11,Lisboa,PT170,AML,050205|050207|050247|050249|050319|050419|050424
HC0010,URAP Cascais - Carcavelos (Sede),38.696536,-9.334634,1,0,0,0,214824610,urap.cascais@arslvt.min-saude.pt,,"Rua Jacinto Isidoro de Sousa, Quinta do Barão",2775-713,Carcavelos,110507,União das freguesias de Carcavelos e Parede,1105,Cascais,11,Lisboa,PT170,AML,
HC0011,URAP Almada-Seixal - Amora (Sede),38.627604,-9.113684,0,0,1,0,212274200,urap.almadaseixal@arslvt.min-saude.pt,,"Rua Dona Branca Saraiva de Carvalho, 9C",2845-452,Amora,151002,Amora,1510,Seixal,15,Setúbal,PT170,AML,140145|140147|140148|140311|140345
HC0012,UCC Saúde à Beira Tejo,38.648361,-8.992523,0,0,0,1,212806460,ucc.sbeiratejo@arslvt.min-saude.pt|ucc.sbeiratejo.ecci@arslvt.min-saude.pt,,"Largo Dr. Joaquim Marques Elias, 5",2860-418,Moita,150603,Moita,1506,Moita,15,Setúbal,PT170,AML,090055|090056|090097|090207|090307|090308
HC0013,UCC Montijo / Alcochete,38.748800,-8.965420,0,0,0,1,212349330|963748709,ucc.alcochete@arslvt.min-saude.pt,,Rua Capitão Salgueiro Maia,2890-041,Alcochete,150201,Alcochete,1502,Alcochete,15,Setúbal,PT170,AML,010009|010011|010012|010013|010014|010015|010016|010017|010018|010043|010045|010069|010071|010081|010082
HC0014,UCSP Montijo Rural - Cruzamento de Pegões (Sede),38.681699,-8.607031,0,0,0,1,265898730,ucsp.pegoes@arslvt.min-saude.pt,,Rua Humberto Delgado,2895-212,Pegões,150711,União das freguesias de Pegões,1507,Montijo,15,Setúbal,PT170,AML,100237|100238
HC0015,JMAI Arrábida,38.525770,-8.896580,0,0,0,1,265708000,jmsetubal.arrabida@arslvt.min-saude.pt,,Passeio da Misericórdia,2900-096,Setúbal,151210,"União das freguesias de Setúbal (São Julião, Nossa Senhora da Anunciada e Santa Maria da Graça)",1512,Setúbal,15,Setúbal,PT170,AML,160099|160105|160157|160158|160251|160433|160434|160507|160508|160521|160522|160531
HC0016,Órgãos de Administração e Fiscalização do ACES Arrábida,38.531000,-8.887400,0,0,0,1,265420290,aces.arrabida@arslvt.min-saude.pt,,"Rua de Damão, 2, 2º dto",2900-340,Setúbal,151210,"União das freguesias de Setúbal (São Julião, Nossa Senhora da Anunciada e Santa Maria da Graça)",1512,Setúbal,15,Setúbal,PT170,AML,160067|160068|160093|160095|160111|160117|160118|160119|160513|162001|162002|162003|162004|162005|162006|162007|162008|162011
HC0017,UCC Península Azul,38.530800,-8.887520,0,0,0,1,265531200,ucc.pazul@arslvt.min-saude.pt,,"Rua de Damão, 1, piso 2",2900-340,Setúbal,151210,"União das freguesias de Setúbal (São Julião, Nossa Senhora da Anunciada e Santa Maria da Graça)",1512,Setúbal,15,Setúbal,PT170,AML,160067|160068|160093|160095|160111|160117|160118|160119|160513|162001|162002|162003|162004|162005|162006|162007|162008|162011
HC0018,UCC Palmela,38.570854,-8.897321,0,0,0,1,212339821|212339829,ucc.palmela@arslvt.min-saude.pt,,Rua de São Filipe,2950-483,Palmela,150802,Palmela,1508,Palmela,15,Setúbal,PT170,AML,130043
HC0019,UCC Sesimbra,38.444430,-9.100410,0,0,1,0,212289630,ucc.sesimbra@arslvt.min-saude.pt,,"Av. Liberdade, 42, 1º andar",2970-635,Sesimbra,151102,Sesimbra (Santiago),1511,Sesimbra,15,Setúbal,PT170,AML,150051|150052|150423|150425|150451|150453|150455|150461|150463|150477|150479|150481|150594|150610
HC0020,UCSP Montijo Rural - Polo Canha,38.765500,-8.626860,0,0,0,1,265897940|265898730,ucsp.canha@arslvt.min-saude.pt,,Largo Professor Dr. Manuel Maurício,2985-004,Canha,150701,Canha,1507,Montijo,15,Setúbal,PT170,AML,100201|100202|100203|100204|100205|100206
HC0021,URAP Lisboa Ocidental e Oeiras - Polo Restelo,38.709711,-9.211400,1,0,0,0,210549980,urap.lxocidoeiras@arslvt.min-saude.pt,,Praça de São Francisco Xavier - Restelo,1400-015,Lisboa,110658,Belém,1106,Lisboa,11,Lisboa,PT170,AML,060089|060091|060092|060105
HC0022,UCC Nostra Pontinha,38.764805,-9.201363,0,1,0,0,210126665|964640834,ucc.npontinha@arslvt.min-saude.pt,,"Av. São Pedro, Lote R5 - c/v",1675-171,Pontinha,111608,União das freguesias de Pontinha e Famões,1116,Odivelas,11,Lisboa,PT170,AML,110041|110043|110045|110047|110695|110697|110859
HC0023,USF Jardins da Encarnação,38.772882,-9.118560,1,0,0,0,218507023,usf.jencarnacao@arslvt.min-saude.pt,,"Alameda da Encarnação, Olivais",1800-192,Lisboa,110633,Olivais,1106,Lisboa,11,Lisboa,PT170,AML,
HC0024,USP Lisboa Central - Polo Beato,38.731759,-9.111045,1,0,0,0,213911030,usp.lxcentral@arslvt.min-saude.pt,,Rua Marquês de Olhão,1900-329,Beato,110607,Beato,1106,Lisboa,11,Lisboa,PT170,AML,
HC0025,Gabinete do Cidadão Estuário do Tejo,38.891077,-9.039536,0,1,0,0,219579775,estuariotejo.gc@arslvt.min-saude.pt,,"Praça Sociedade Filarmónica Recreio Alverquense, nº 22 - Edifício do Centro de Saúde",2615-042,Alverca do Ribatejo,111413,União das freguesias de Alverca do Ribatejo e Sobralinho,1114,Vila Franca de Xira,11,Lisboa,PT170,AML,180197|180200|180201|180203|180204|180207
HC0026,UCC Saúde a Seu Lado,38.806037,-9.163545,0,1,0,0,219380223,ucc.odivelas@arslvt.min-saude.pt,,"Rua Henrique dos Santos, s/n",2620-183,Póvoa de Santo Adrião,111609,União das freguesias de Póvoa de Santo Adrião e Olival Basto,1116,Odivelas,11,Lisboa,PT170,AML,071593|071594|110539|110541|110542|110569|110571
HC0027,USF Ouriceira - Polo Santo Isidoro,38.993952,-9.395195,0,1,0,0,261862785,usf.ouriceira@arslvt.min-saude.pt,,Rua Emília Pisani,2640-058,Santo Isidoro,110913,Santo Isidoro,1109,Mafra,11,Lisboa,PT170,AML,080135|080136|080647
HC0028,USP Loures-Odivelas - Santo António dos Cavaleiros (Sede),38.813500,-9.161130,0,1,0,0,219897825,usp.louresodivelas@arslvt.min-saude.pt,,"Av. Manuel Carlos Andrade, s/n",2660-243,Santo António dos Cavaleiros,110730,União das freguesias de Santo António dos Cavaleiros e Frielas,1107,Loures,11,Lisboa,PT170,AML,070307|070309|070310|070311|070312|070315|070559|070565|071267|071421|072216
HC0029,URAP Oeste Sul - Polo Mafra Leste,38.928498,-9.244676,0,1,0,0,219862397|961102158,urap.oestesul@arslvt.min-saude.pt|balcoes.urapoestesul@arslvt.min-saude.pt,,"Rua José Poman, nº 7",2665-293,Malveira,110921,União das freguesias de Malveira e São Miguel de Alcainça,1109,Mafra,11,Lisboa,PT170,AML,080273|080274|080275|080276|080277|080278|080317|082200|082201
HC0030,Consulta de Doenças Respiratórias Crónicas Sintra,38.752326,-9.274986,1,0,0,0,214398530,sintra.cdrcronicas@arslvt.min-saude.pt,,Rua Teixeira Pascoais,2745-852,Massamá,111125,União das freguesias de Massamá e Monte Abraão,1111,Sintra,11,Lisboa,PT170,AML,170857|170859|170860|170937|170939|172553
HC0031,USF Mãe D Água,38.752326,-9.274986,1,0,0,0,214398568,usf.maedagua@arslvt.min-saude.pt,,Rua Teixeira Pascoais,2745-852,Massamá,111125,União das freguesias de Massamá e Monte Abraão,1111,Sintra,11,Lisboa,PT170,AML,170857|170859|170860|170937|170939|172553
HC0032,UCC Cuidar Mais,38.719648,-9.258926,1,0,0,0,214188697,ucc.cuidarmais@arslvt.min-saude.pt,,"Rua Augusto Fraga, Loja 3 ABC",2790-411,Queijas - Carnaxide,111013,União das freguesias de Carnaxide e Queijas,1110,Oeiras,11,Lisboa,PT170,AML,120297|120491|120492|120493|120494|120495|120497|120499|120500|120501|120502|120515|120545|120546
HC0033,UCC Barreiro,38.644072,-9.052800,0,0,0,1,212059399,ucc.barreiro@arslvt.min-saude.pt,,"Rua Jornal Heraldo, s/n - Quinta da Lomba",2830-195,Barreiro,150409,"União das freguesias de Alto do Seixalinho, Santo André e Verderena",1504,Barreiro,15,Setúbal,PT170,AML,
HC0034,URAP Arrábida - Polo Sesimbra,38.444370,-9.100890,0,0,1,0,212289630,urap.sesimbra@arslvt.min-saude.pt,,"Largo 5 Outubro, 16",2970-652,Sesimbra,151102,Sesimbra (Santiago),1511,Sesimbra,15,Setúbal,PT170,AML,150051|150052|150423|150425|150427|150451|150453|150455|150457|150461|150463|150477|150479|150481|150593|150594|150610
HC0035,UCC Consigo,38.709711,-9.211400,1,0,0,0,210549980,ucc.consigo@arslvt.min-saude.pt,,Praça de São Francisco Xavier - Restelo,1400-015,Lisboa,110658,Belém,1106,Lisboa,11,Lisboa,PT170,AML,060089|060091|060092|060105
HC0036,URAP Lisboa Ocidental e Oeiras - Polo Dafundo,38.700036,-9.242234,1,0,0,0,214209940,urap.lxocidoeiras@arslvt.min-saude.pt,,"Praceta dos Bombeiros Voluntários, 7",1495-713,Dafundo,111012,"União das freguesias de Algés, Linda-a-Velha e Cruz Quebrada-Dafundo",1110,Oeiras,11,Lisboa,PT170,AML,120073|120075|120085|120133|120135|120136|120329
HC0037,USF Professor Guilherme Jordão,38.748030,-9.179760,1,0,0,0,210536880,usf.guilhermejordao@arslvt.min-saude.pt,,"Rua Cidade de Rabat, 39",1500-672,Lisboa,110639,São Domingos de Benfica,1106,Lisboa,11,Lisboa,PT170,AML,
HC0038,USF Ramada,38.802200,-9.183150,0,1,0,0,219346183,usf.ramada@arslvt.min-saude.pt,,Rua 25 de Agosto,2620-488,Ramada,111610,União das freguesias de Ramada e Caneças,1116,Odivelas,11,Lisboa,PT170,AML,110323|110324|110325|110326|110327|110359|110360|110397|110497|110593|110645|110646|111006|111007
HC0039,USF Ouriceira,38.969223,-9.414448,0,1,0,0,261860650,usf.ouriceira@arslvt.min-saude.pt,,Rua Frei Fernão Rodrigues Monteiro,2655-354,Ericeira,110906,Ericeira,1109,Mafra,11,Lisboa,PT170,AML,080763|080764|080765|080766
HC0040,UCSP Mafra Norte - Polo Enxara do Bispo,38.939456,-9.334357,0,1,0,0,261786893,enxarabispo.balcao@arslvt.min-saude.pt,,"Rua Nova, nº 12",2665-053,Enxara do Bispo,110919,"União das freguesias de Enxara do Bispo, Gradil e Vila Franca do Rosário",1109,Mafra,11,Lisboa,PT170,AML,080204|080207|080208|080965|082320|082321|082322
HC0041,UCC Mafra - Polo Enxara do Bispo,38.939456,-9.334357,0,1,0,0,261786893,ucc.mafra@arslvt.min-saude.pt,,"Rua Nova, nº 12",2665-053,Enxara do Bispo,110919,"União das freguesias de Enxara do Bispo, Gradil e Vila Franca do Rosário",1109,Mafra,11,Lisboa,PT170,AML,080204|080207|080208|080965|082320|082321|082322
HC0042,Gabinete do Cidadão Loures / Odivelas,38.797701,-9.115877,0,1,0,0,219492412,louresodivelas.gc@arslvt.min-saude.pt,,Alameda das Comunidades - Urbanização Terraços da Ponte,2685-040,Sacavém,110727,União das freguesias de Sacavém e Prior Velho,1107,Loures,11,Lisboa,PT170,AML,070613|070661|070662|070663|070664|070665|070667|070673|070674|070675|070676|070705|071355|071419|071420|071456|072400
HC0043,URAP Lisboa Ocidental e Oeiras - Polo Barcarena,38.746466,-9.283300,1,0,0,0,214216929,urap.lxocidoeiras@arslvt.min-saude.pt,,"Av. Santo António de Tercena, Quinta das Lindas",2730-165,Barcarena,111002,Barcarena,1110,Oeiras,11,Lisboa,PT170,AML,120523|120524|120525|120526|120528|120530|121143|121144|121145|121146|121147|121148|121167|121168|121251|121252|121253
HC0044,Centro de Vacinação internacional | Lisboa Ocidental e Oeiras,38.693291,-9.317839,1,0,0,0,214400100|966505822,vacint11@arslvt.min-saude.pt,,Av. Salvador Allende,2780-163,Oeiras,111014,"União das freguesias de Oeiras e São Julião da Barra, Paço de Arcos e Caxias",1110,Oeiras,11,Lisboa,PT170,AML,120819|120829|120830|121203
HC0045,UCSP Barreiro,38.644072,-9.052800,0,0,0,1,212170859,ucsp.qlomba@arslvt.min-saude.pt,,"Rua Jornal Heraldo, s/n - Quinta da Lomba",2830-195,Barreiro,150409,"União das freguesias de Alto do Seixalinho, Santo André e Verderena",1504,Barreiro,15,Setúbal,PT170,AML,
HC0046,USF São Filipe,38.525280,-8.905460,0,0,0,1,265536570,usf.sfilipe@arslvt.min-saude.pt,,"Rua Batalha do Viso, 46",2900-264,Setúbal,151210,"União das freguesias de Setúbal (São Julião, Nossa Senhora da Anunciada e Santa Maria da Graça)",1512,Setúbal,15,Setúbal,PT170,AML,160257|160259|160260|160261|160262|160263|160264|160269|160461|160462
HC0047,USF Rio de Mouro,38.786181,-9.326693,1,0,0,0,219178110,usf.rmouro@arslvt.min-saude.pt,,"Av. Infante Dom Henrique, 39/41",2635-367,Rio de Mouro,111108,Rio de Mouro,1111,Sintra,11,Lisboa,PT170,AML,170065|170066|170067|170068|170075|170077
HC0048,UCC Mafra,38.937040,-9.336359,0,1,0,0,261818100,ucc.mafra@arslvt.min-saude.pt,,Largo Coronel Brito Gorjão,2640-465,Mafra,110909,Mafra,1109,Mafra,11,Lisboa,PT170,AML,080204|080205|080206|080959|080961|080973|080975|080979
HC0049,UCC Girassol - Parede,38.697500,-9.357200,1,0,0,0,214547040,ucc.parede@arslvt.min-saude.pt,,"Rua José Elias Garcia, 1057",2775-218,Parede,110507,União das freguesias de Carcavelos e Parede,1105,Cascais,11,Lisboa,PT170,AML,050471|050481|050482|050483|050484|050491|050492
HC0050,UCC Vila Franca de Xira,38.925833,-9.009032,0,1,0,0,219518328,ucc.vfxira@arslvt.min-saude.pt|eccivfx@arslvt.min-saude.pt,,"Rua 5 de Outubro de 1910, 40",2600-425,Alhandra,111412,"União das freguesias de Alhandra, São João dos Montes e Calhandriz",1114,Vila Franca de Xira,11,Lisboa,PT170,AML,180228|180230|180231
HC0051,URAP Loures-Odivelas - Polo Ramada,38.802200,-9.183150,0,1,0,0,219809570,urap.louresodivelas@arslvt.min-saude.pt,,Rua 25 de Agosto,2620-488,Ramada,111610,União das freguesias de Ramada e Caneças,1116,Odivelas,11,Lisboa,PT170,AML,110323|110324|110325|110326|110327|110359|110360|110397|110497|110593|110645|110646|111006|111007
HC0052,USF Colina de Odivelas,38.802200,-9.183150,0,1,0,0,219346186,usf.colina@arslvt.min-saude.pt,,Rua 25 de Agosto,2620-488,Ramada,111610,União das freguesias de Ramada e Caneças,1116,Odivelas,11,Lisboa,PT170,AML,110323|110324|110325|110326|110327|110359|110360|110397|110497|110593|110645|110646|111006|111007
HC0053,UCSP Mafra Norte (Sede),38.937040,-9.336359,0,1,0,0,261818100,mafra.balcao@arslvt.min-saude.pt,,Largo Coronel Brito Gorjão,2640-465,Mafra,110909,Mafra,1109,Mafra,11,Lisboa,PT170,AML,080204|080205|080206|080959|080961|080973|080975|080979
HC0054,UCC Mafra - Polo Malveira,38.928498,-9.244676,0,1,0,0,219862397,ucc.mafra@arslvt.min-saude.pt,,"Rua José Poman, nº 7",2665-293,Malveira,110921,União das freguesias de Malveira e São Miguel de Alcainça,1109,Mafra,11,Lisboa,PT170,AML,080273|080274|080275|080276|080277|080278|080317|082200|082201
HC0055,Gabinete do Cidadão Amadora,38.757170,-9.234010,1,0,0,0,214988375,amadora.gc@arslvt.min-saude.pt,,"Rua Capitão Plácido Abreu, nº 2",2700-156,Amadora,111517,Venteira,1115,Amadora,11,Lisboa,PT170,AML,030317|030319|030465|030467|030469|030477|030479|030481|030539|030541|030601|030685|030821|030845|030869|030880
HC0056,URAP Sintra - Polo Massamá,38.752326,-9.274986,1,0,0,0,219222130,urap.sintra@arslvt.min-saude.pt,,Rua Teixeira Pascoais,2745-852,Massamá,111125,União das freguesias de Massamá e Monte Abraão,1111,Sintra,11,Lisboa,PT170,AML,170857|170859|170860|170937|170939|172553
HC0057,UCSP Moita,38.648361,-8.992523,0,0,0,1,212806460,ucsp.moita@arslvt.min-saude.pt,,"Largo Dr. Joaquim Marques Elias, 5",2860-418,Moita,150603,Moita,1506,Moita,15,Setúbal,PT170,AML,090055|090056|090097|090207|090307|090308
HC0058,URAP Arco Ribeirinho - Polo Afonsoeiro,38.702891,-8.955001,0,0,0,1,212349320,urap.geral.brr@arslvt.min-saude.pt,,"Rua D. Francisco Manuel de Melo, 71 - Afonsoeiro",2870-422,Montijo,150710,União das freguesias de Montijo e Afonsoeiro,1507,Montijo,15,Setúbal,PT170,AML,100001|100002|100037|100038|100115|100331|100332|100449
HC0059,USF Afonsoeiro,38.702891,-8.955001,0,0,0,1,212309870|212309871,usf.afonsoeiro@arslvt.min-saude.pt,,"Rua D. Francisco Manuel de Melo, 71 - Afonsoeiro",2870-422,Montijo,150710,União das freguesias de Montijo e Afonsoeiro,1507,Montijo,15,Setúbal,PT170,AML,100001|100002|100037|100038|100115|100331|100332|100449
HC0060,URAP Arrábida - Palmela (Sede),38.570854,-8.897321,0,0,0,1,212339808,urap.arrabida@arslvt.min-saude.pt,,Rua de São Filipe,2950-483,Palmela,150802,Palmela,1508,Palmela,15,Setúbal,PT170,AML,130043|130057
HC0061,URAP Arrábida - Polo Quinta do Conde,38.557762,-9.047007,0,0,1,0,212138205,urap.setubal@arslvt.min-saude.pt,,"Rua Latino Coelho, lote 1664-1668",2975-326,Quinta do Conde,151103,Quinta do Conde,1511,Sesimbra,15,Setúbal,PT170,AML,150483|150484|150523|150524|150577|150578|150611|150612
HC0062,URAP Lisboa Ocidental e Oeiras - Polo Santo Condestável,38.714290,-9.164450,1,0,0,0,213913220,urap.lxocidoeiras@arslvt.min-saude.pt,,"Rua do Patrocínio, 60",1350-230,Lisboa,110660,Estrela,1106,Lisboa,11,Lisboa,PT170,AML,
HC0063,URAP Loures-Odivelas - Polo Santa Iria da Azóia,38.842898,-9.091977,0,1,0,0,210442854,urap.louresodivelas@arslvt.min-saude.pt,,Rua Alto da Cruzinha - Bairro Terra dos Frades,2690-454,Santa Iria da Azóia,110728,"União das freguesias de Santa Iria de Azoia, São João da Talha e Bobadela",1107,Loures,11,Lisboa,PT170,AML,070719|070720|071235|071236|071237|071238
HC0064,UCC Sintra Salutem,38.873841,-9.399720,1,0,0,0,219605276,ucc.sintrasalutem@arslvt.min-saude.pt,,"Rua do Fontanário, nº 13, 1º",2705-737,São João das Lampas,111127,União das freguesias de São João das Lampas e Terrugem,1111,Sintra,11,Lisboa,PT170,AML,171661|171662|171663|171664|171665|171666|171667|171668|172660
HC0065,URAP Sintra - Polo Sintra,38.802400,-9.381410,1,0,0,0,219247770,urap.sintra@arslvt.min-saude.pt,,"Av. Doutor Desidério Cambournac, nº 4",2710-553,Sintra,111128,"União das freguesias de Sintra (Santa Maria e São Miguel, São Martinho e São Pedro de Penaferrim)",1111,Sintra,11,Lisboa,PT170,AML,171311|171313|171314|171381|171382|171383|171384|171917|171953|172481|172482
HC0066,URAP Arrábida - Polo Pinhal Novo,38.626001,-8.910546,0,0,0,1,212389920,urap.setubal@arslvt.min-saude.pt,,Rua Manuel Veríssimo da Silva,2955-050,Pinhal Novo,150803,Pinhal Novo,1508,Palmela,15,Setúbal,PT170,AML,130369|130371|130373
HC0067,URAP Lisboa Ocidental e Oeiras - Polo Ajuda,38.703563,-9.194173,1,0,0,0,213600261,urap.lxocidoeiras@arslvt.min-saude.pt,,"Calçada da Boa Hora, nº 155",1300-094,Lisboa,110601,Ajuda,1106,Lisboa,11,Lisboa,PT170,AML,
HC0068,URAP Almada-Seixal - Polo Almada I,38.677705,-9.153872,0,0,1,0,212274200,urap.almadaseixal@arslvt.min-saude.pt,,"Av. Rainha D. Leonor, nº 2 - 4º",2809-010,Almada,150312,"União das freguesias de Almada, Cova da Piedade, Pragal e Cacilhas",1503,Almada,15,Setúbal,PT170,AML,020057|020058|020059|020109|020110|020111|020112|021065|021066
HC0069,UCSP Barreiro - Polo Coina,38.592700,-9.041070,0,0,0,1,212170859,ucsp.qlomba@arslvt.min-saude.pt,,Rua Real Fábrica do Vidro,2830-516,Coina,150411,União das freguesias de Palhais e Coina,1504,Barreiro,15,Setúbal,PT170,AML,
HC0070,Centro de Vacinação Internacional | Arco Ribeirinho,38.669539,-9.053028,0,0,0,1,969346919,consulta.viajante.arcoribeirinho@arslvt.min-saude.pt,,Rua D. José Cárcomo Lobo,2835-423,Lavradio,150410,União das freguesias de Barreiro e Lavradio,1504,Barreiro,15,Setúbal,PT170,AML,
HC0071,UCSP Quinta do Anjo,38.565800,-8.950578,0,0,0,1,212888430,ucsp.qanjo@arslvt.min-saude.pt,,"Rua João Vaz Corte Real, lote 160, lojas A e B",2950-752,Quinta do Anjo,150804,Quinta do Anjo,1508,Palmela,15,Setúbal,PT170,AML,130407
HC0072,Posto de Colheita Germano de Sousa - Lisboa - Rato,38.712300,-9.141210,1,0,0,0,213860564,jv.cmlgs@germanodesousa.com,,"Rua D. João V, 4 - r/c dto.",1200-090,LIsboa,110659,Campo de Ourique,1106,Lisboa,11,Lisboa,PT170,AML,
HC0073,JMAI Lisboa Norte,38.748524,-9.200325,1,0,0,0,217628080,jmedicas.lxnorte@arslvt.min-saude.pt,,"Rua General Morais Sarmento, s/n, r/c",1500-310,Lisboa,110608,Benfica,1106,Lisboa,11,Lisboa,PT170,AML,060041|060051
HC0074,URAP Loures-Odivelas - Polo Caneças,38.814722,-9.226315,0,1,0,0,219809570,urap.louresodivelas@arslvt.min-saude.pt,,Rua Júlia Escrivaniz,1675-580,Caneças,111610,União das freguesias de Ramada e Caneças,1116,Odivelas,11,Lisboa,PT170,AML,110015|110017|110024|110025|110027|110055|110057|110059|110167|110169|110170|110235
HC0075,URAP Lisboa Central - Polo Beato,38.731759,-9.111045,1,0,0,0,218101010,urap.lxcentral@arslvt.min-saude.pt,,Rua Marquês de Olhão,1900-329,Beato,110607,Beato,1106,Lisboa,11,Lisboa,PT170,AML,
HC0076,URAP Lisboa Central - Polo Marvila,38.742235,-9.110134,1,0,0,0,218620750,urap.lxcentral@arslvt.min-saude.pt,,Azinhaga dos Alfinetes,1950-438,Marvila,110621,Marvila,1106,Lisboa,11,Lisboa,PT170,AML,
HC0077,URAP Lisboa Central - Polo Mónicas,38.715050,-9.130520,1,0,0,0,218806000,urap.lxcentral@arslvt.min-saude.pt,,"Travessa das Mónicas, nº 57 D",1100-359,Lisboa,110667,São Vicente,1106,Lisboa,11,Lisboa,PT170,AML,
HC0078,URAP Lisboa Central - Polo Sétima Colina,38.723559,-9.131875,1,0,0,0,218108010,urap.lxcentral@arslvt.min-saude.pt,,"Rua Angelina Vidal, 73",1170-018,Lisboa,110656,Arroios,1106,Lisboa,11,Lisboa,PT170,AML,
HC0079,USF Descobertas,38.695325,-9.220593,1,0,0,0,213039090,usf.descobertas@arslvt.min-saude.pt,,"Rua Fernão Mendes Pinto, nº 19",1400-145,Lisboa,110658,Belém,1106,Lisboa,11,Lisboa,PT170,AML,
HC0080,Gabinete do Cidadão Lisboa Central,38.736502,-9.131358,1,0,0,0,213105310,aces.lxcentral@arslvt.min-saude.pt,,"Rua Carvalho Araújo, 103, piso 7",1900-181,Lisboa,110656,Arroios,1106,Lisboa,11,Lisboa,PT170,AML,
HC0081,UCC Oriente,38.758846,-9.122319,1,0,0,0,218366072,ucc.oriente@arslvt.min-saude.pt,,"Rua Luis Cristino da Silva, 73",1950-239,Lisboa,110621,Marvila,1106,Lisboa,11,Lisboa,PT170,AML,
HC0082,URAP Estuário do Tejo - Polo Vila Franca de Xira,38.959052,-8.987900,0,1,0,0,263279650,urap.estuariotejo@arslvt.min-saude.pt,,"Rua António Lúcio Batista, nº 6",2600-102,Vila Franca de Xira,111409,Vila Franca de Xira,1114,Vila Franca de Xira,11,Lisboa,PT170,AML,180293|180357|180597|180598|180599|180600
HC0083,URAP Estuário do Tejo - Polo Castanheira do Ribatejo,39.006364,-8.977539,0,1,0,0,263286100,urap.estuariotejo@arslvt.min-saude.pt,,Rua Dr. José Azeredo Perdigão - Edifício do Centro de Saúde,2600-645,Castanheira do Ribatejo,111414,União das freguesias de Castanheira do Ribatejo e Cachoeiras,1114,Vila Franca de Xira,11,Lisboa,PT170,AML,180989|180990|180991|180992|180993|180994
HC0084,USF ARS Médica,38.813500,-9.161130,0,1,0,0,219897831/219897841,usf.arsmedica@arslvt.min-saude.pt,,"Av. Manuel Carlos Andrade, s/n",2660-243,Santo António dos Cavaleiros,110730,União das freguesias de Santo António dos Cavaleiros e Frielas,1107,Loures,11,Lisboa,PT170,AML,070307|070309|070310|070311|070312|070315|070559|070565|071267|071421|072216
HC0085,Centro de Vacinação Internacional | Loures-Odivelas,38.813500,-9.161130,0,1,0,0,219897825,usp.louresodivelas@arslvt.min-saude.pt,,"Av. Manuel Carlos Andrade, s/n",2660-243,Santo António dos Cavaleiros,110730,União das freguesias de Santo António dos Cavaleiros e Frielas,1107,Loures,11,Lisboa,PT170,AML,070307|070309|070310|070311|070312|070315|070559|070565|071267|071421|072216
HC0086,URAP Loures-Odivelas - Polo Loures,38.825179,-9.163212,0,1,0,0,219825113,urap.louresodivelas@arslvt.min-saude.pt,,"Rua Professor Egas Moniz, s/n",2670-487,Loures,110707,Loures,1107,Loures,11,Lisboa,PT170,AML,070035|070043|070283|070355|070356|070357|070358|070389|070390|070481|070525|071658
HC0087,USF Cynthia,38.802400,-9.381410,1,0,0,0,219247770,usf.cynthia@arslvt.min-saude.pt,,"Av. Doutor Desidério Cambournac, nº 4",2710-553,Sintra,111128,"União das freguesias de Sintra (Santa Maria e São Miguel, São Martinho e São Pedro de Penaferrim)",1111,Sintra,11,Lisboa,PT170,AML,171311|171313|171314|171381|171382|171383|171384|171917|171953|172481|172482
HC0088,USF Delta,38.700407,-9.295015,1,0,0,0,214540811|214540812,usf.delta@arslvt.min-saude.pt,,Av. António Bernardo Cabral Macedo,2770-219,Paço de Arcos,111014,"União das freguesias de Oeiras e São Julião da Barra, Paço de Arcos e Caxias",1110,Oeiras,11,Lisboa,PT170,AML,120607|120608|120687|120765|120767|120768|120891|120894|121243|121310|121311
HC0089,USF Artemisa,38.697500,-9.357200,1,0,0,0,214547071/214547072,usf.artemisa@arslvt.min-saude.pt,,"Rua José Elias Garcia, 1057",2775-218,Parede,110507,União das freguesias de Carcavelos e Parede,1105,Cascais,11,Lisboa,PT170,AML,050471|050481|050482|050483|050484|050491|050492
HC0090,URAP Arco Ribeirinho - Polo Vale da Amoreira,38.650161,-9.038274,0,0,0,1,212349320,dentista.barreiro@arslvt.min-saude.pt,,Rua João Villaret,2835-254,Vale da Amoreira,150607,União das freguesias de Baixa da Banheira e Vale da Amoreira,1506,Moita,15,Setúbal,PT170,AML,090219|090220|090221|090223|090224|090231|090249|090255|090261|090262|090273
HC0091,URAP Arco Ribeirinho - Polo Santo António da Charneca,38.632515,-9.033452,0,0,0,1,212349320,urap.geral.brr@arslvt.min-saude.pt,,"Rua 6, s/n - Cidade do Sol - Santo António da Charneca",2835-511,Barreiro,150407,Santo António da Charneca,1504,Barreiro,15,Setúbal,PT170,AML,
HC0092,UCC Seixal,38.640600,-9.100990,0,0,1,0,212274819,ucc.seixal@arslvt.min-saude.pt,,Largo da Mundet - Bairro Novo,2840-481,Seixal,151007,"União das freguesias do Seixal, Arrentela e Aldeia de Paio Pires",1510,Seixal,15,Setúbal,PT170,AML,140065|140066|140067|140068|140069|140070|140579|140580|140671|140679
HC0093,USF Amora Saudável,38.627604,-9.113684,0,0,1,0,212274230|212274231,usf.amorasaudavel@arslvt.min-saude.pt,,"Rua Dona Branca Saraiva de Carvalho, 9C",2845-452,Amora,151002,Amora,1510,Seixal,15,Setúbal,PT170,AML,140145|140147|140148|140311|140345
HC0094,UCSP Alcochete - Unidade Móvel do Passil,38.710100,-8.897770,0,0,0,1,212319134,ucsp.alcochete@arslvt.min-saude.pt,,Passil,2890-001,Alcochete,150201,Alcochete,1502,Alcochete,15,Setúbal,PT170,AML,010121|010122|010123|010124|010133|010134
HC0095,URAP Arrábida - Polo Setúbal São Sebastião,38.530800,-8.887520,0,0,0,1,265531215,urap.setubal@arslvt.min-saude.pt,,"Rua de Damão, 1, 4º e 5º pisos",2900-340,Setúbal,151210,"União das freguesias de Setúbal (São Julião, Nossa Senhora da Anunciada e Santa Maria da Graça)",1512,Setúbal,15,Setúbal,PT170,AML,160067|160068|160093|160095|160111|160117|160118|160119|160513|162001|162002|162003|162004|162005|162006|162007|162008|162011
HC0096,URAP Lisboa Ocidental e Oeiras - Polo Descobertas,38.695325,-9.220593,1,0,0,0,213039090,urap.lxocidoeiras@arslvt.min-saude.pt,,"Rua Fernão Mendes Pinto, nº 19",1400-145,Lisboa,110658,Belém,1106,Lisboa,11,Lisboa,PT170,AML,
HC0097,URAP Loures-Odivelas - Polo Moscavide,38.782099,-9.101415,0,1,0,0,219809570,urap.louresodivelas@arslvt.min-saude.pt,,Rua Adão Manuel Ramos Barata,1885-100,Moscavide,110726,União das freguesias de Moscavide e Portela,1107,Loures,11,Lisboa,PT170,AML,070585|070587|071331|071332|071501|071502
HC0098,USF Ribeiro Sanches,38.768150,-9.233010,1,0,0,0,214929120,usf.ribsanches@arslvt.min-saude.pt,,"Rua Francisco Bugalho, nº 5B",2700-400,Amadora,111516,Mina de Água,1115,Amadora,11,Lisboa,PT170,AML,030131|030132|030133|030134|030135|030136|030165|030167|030168|030175|030185|030187|030188|030245|030247|030248|030331|030333|030335|030337|030885|030886
HC0099,CDP Sintra,38.795493,-9.343671,1,0,0,0,960480920,cdp.sintra@arslvt.min-saude.pt,,"Estrada de Mem Martins, 247",2725-391,Mem Martins,111102,Algueirão-Mem Martins,1111,Sintra,11,Lisboa,PT170,AML,170095|170097|170099|170101|170103|170317|171125|171871|171872|171873|172628
HC0100,UCC Saúde na Rua,38.650161,-9.038274,0,0,0,1,212029069,ucc.sauderua@arslvt.min-saude.pt,,Rua João Villaret,2835-254,Vale da Amoreira,150607,União das freguesias de Baixa da Banheira e Vale da Amoreira,1506,Moita,15,Setúbal,PT170,AML,090219|090220|090221|090223|090224|090231|090249|090255|090261|090262|090273
HC0101,URAP Lisboa Ocidental e Oeiras - Polo Alcântara,38.705828,-9.185004,1,0,0,0,213630130,urap.lxocidoeiras@arslvt.min-saude.pt,,"Calçada da Tapada, 126",1349-049,Lisboa,110602,Alcântara,1106,Lisboa,11,Lisboa,PT170,AML,
HC0102,URAP Lisboa Central - Polo Monte Pedral,38.725358,-9.120375,1,0,0,0,218115090,urap.lxcentral@arslvt.min-saude.pt,,"Rua Adolfo Coelho, 9",1900-028,Lisboa,110663,Penha de França,1106,Lisboa,11,Lisboa,PT170,AML,
HC0103,USP Lisboa Central - Polo Marvila,38.742235,-9.110134,1,0,0,0,213911030,usp.lxcentral@arslvt.min-saude.pt,,Azinhaga dos Alfinetes,1950-438,Marvila,110621,Marvila,1106,Lisboa,11,Lisboa,PT170,AML,
HC0104,UCC Cascais Care,38.730100,-9.407200,1,0,0,0,214604522,ucc.cascais@arslvt.min-saude.pt,,"Rua Rio das Grades, 19A",2645-559,Alcabideche,110501,Alcabideche,1105,Cascais,11,Lisboa,PT170,AML,050185|050186|050239
HC0105,UCC Sacavém,38.818500,-9.096400,0,1,0,0,219959963,ucc.sacavem@arslvt.min-saude.pt,,Rua Maria da Conceição Costa - Bairro do Operário,2695-845,São João da Talha,110728,"União das freguesias de Santa Iria de Azoia, São João da Talha e Bobadela",1107,Loures,11,Lisboa,PT170,AML,070742|070763|070799|070801
HC0106,Posto de Colheita Affidea - Amadora,38.759300,-9.229200,1,0,0,0,210079600,hormofuncional@affidea.pt,,"Av. Comandante Luís António da Silva, nº 21 A e 21 B",2700-201,Amadora,111515,Falagueira-Venda Nova,1115,Amadora,11,Lisboa,PT170,AML,030091|030093|030105|030139|030141|030142|030163|030603|030604|030605|030606|030727|030876
HC0107,Centro de Vacinação Internacional | Amadora,38.745867,-9.220493,1,0,0,0,214906230,vacint12@arslvt.min-saude.pt,,Praça Conde da Lousã - Damaia,2720-120,Amadora,111513,Águas Livres,1115,Amadora,11,Lisboa,PT170,AML,030505|030507|030509|030511|030531|030567|030677|030678|030679|030681|030682|030741|030743|030745
HC0108,USF Queluz,38.755600,-9.252610,1,0,0,0,214352831,usf.queluz@arslvt.min-saude.pt,,Rua Dom Fernando II,2745-107,Queluz,111126,União das freguesias de Queluz e Belas,1111,Sintra,11,Lisboa,PT170,AML,170927|170928|172063|172065|172066|172071|172073|172476|172495|172499
HC0109,URAP Lisboa Ocidental e Oeiras - Oeiras (Sede),38.693291,-9.317839,1,0,0,0,214400167,urap.lxocidoeiras@arslvt.min-saude.pt,,Av. Salvador Allende,2780-163,Oeiras,111014,"União das freguesias de Oeiras e São Julião da Barra, Paço de Arcos e Caxias",1110,Oeiras,11,Lisboa,PT170,AML,120819|120829|120830|121203
HC0110,Posto de Colheita Germano de Sousa - Trafaria,38.672600,-9.233170,0,0,1,0,212951330,of.cmlgs@germanodesousa.com,,"Rua Tenente Maia, nº 55",2825-863,Trafaria,150313,União das freguesias de Caparica e Trafaria,1503,Almada,15,Setúbal,PT170,AML,020381|020383|020385|020387|020389|020539|020551|020557|020558
HC0111,Gabinete do Cidadão Almada / Seixal,38.645431,-9.147424,0,0,1,0,212556443|966521651,almadaseixal.gc@arslvt.min-saude.pt,,Rua dos Catos - Quinta do Brasileiro,2855-207,Corroios,151005,Corroios,1510,Seixal,15,Setúbal,PT170,AML,140721|140722|140723|140724|140725|140726|140755
HC0112,Posto de Colheita Affidea - Setúbal Viso,38.525200,-8.906300,0,0,0,1,265417949|926465682,hormofuncional@affidea.pt,,"Rua Batalha do Viso, nº 111 A",2900-270,Setubal,151210,"União das freguesias de Setúbal (São Julião, Nossa Senhora da Anunciada e Santa Maria da Graça)",1512,Setúbal,15,Setúbal,PT170,AML,160257|160259|160260|160261|160262|160263|160264|160269|160459|160460|160461|160462|160835|160836
HC0113,URAP Sintra - Polo Olival,38.769586,-9.308549,1,0,0,0,219222130,urap.sintra@arslvt.min-saude.pt,,"Rua do Olival, 13-15",2735-304,Cacém,111124,União das freguesias do Cacém e São Marcos,1111,Sintra,11,Lisboa,PT170,AML,170441|170442|170447|170449|170450|170451|170452|170495|170657|170677|170679|172522|172558|172578|172610
HC0114,UCSP Baixa da Banheira,38.665690,-9.048971,0,0,0,1,0,ucsp.bxbanheira@arslvt.min-saude.pt,,"Estrada Nacional, 246",2835-175,Baixa da Banheira,150607,União das freguesias de Baixa da Banheira e Vale da Amoreira,1506,Moita,15,Setúbal,PT170,AML,
HC0115,USF Boa Viagem,38.648361,-8.992523,0,0,0,1,212806472,usf.boaviagem@arslvt.min-saude.pt,,"Largo Dr. Joaquim Marques Elias, 5",2860-418,Moita,150603,Moita,1506,Moita,15,Setúbal,PT170,AML,090055|090056|090097|090207|090307|090308
HC0116,USF Aldegalega,38.707380,-8.970920,0,0,0,1,212841180,usf.aldegalega@arslvt.min-saude.pt,,"Rua Machado Santos, 54",2870-351,Montijo,150710,União das freguesias de Montijo e Afonsoeiro,1507,Montijo,15,Setúbal,PT170,AML,100015|100016|100017
HC0117,UCSP Venda do Alcaide,38.610344,-8.886416,0,0,0,1,212389890,ucsp.valcaide@arslvt.min-saude.pt,,Rua José Nabo,2950-438,Venda do Alcaide,150802,Palmela,1508,Palmela,15,Setúbal,PT170,AML,130419|130420
HC0118,URAP Arco Ribeirinho - Polo Montijo,38.708458,-8.978953,0,0,0,1,212307920,urap.geral.brr@arslvt.min-saude.pt,,Av. Luís de Camões nº 21,2870-161,Montijo,150710,União das freguesias de Montijo e Afonsoeiro,1507,Montijo,15,Setúbal,PT170,AML,100081|100083|100085|100091|100093|100094|100095|100119|100120|100141|100143
HC0119,URAP Estuário do Tejo - Polo Alhandra,38.925833,-9.009032,0,1,0,0,219518320,urap.estuariotejo@arslvt.min-saude.pt,,"Rua 5 de Outubro de 1910, 40",2600-425,Alhandra,111412,"União das freguesias de Alhandra, São João dos Montes e Calhandriz",1114,Vila Franca de Xira,11,Lisboa,PT170,AML,180228|180230|180231
HC0120,URAP Lisboa Central - Polo Olivais,38.772882,-9.118560,1,0,0,0,218507023,urap.lxcentral@arslvt.min-saude.pt,,"Alameda da Encarnação, Olivais",1800-192,Lisboa,110633,Olivais,1106,Lisboa,11,Lisboa,PT170,AML,
HC0121,URAP Loures-Odivelas - São João da Talha (Sede),38.818500,-9.096400,0,1,0,0,219959969,urap.louresodivelas@arslvt.min-saude.pt,,Rua Maria da Conceição Costa - Bairro do Operário,2695-845,São João da Talha,110728,"União das freguesias de Santa Iria de Azoia, São João da Talha e Bobadela",1107,Loures,11,Lisboa,PT170,AML,070742|070763|070799|070801
HC0122,UCSP Amadora,38.758320,-9.234586,1,0,0,0,214930290,ucsp.amadora@arslvt.min-saude.pt,,"Largo Dr. Dário Granda Nunes, nº 1",2704-511,Amadora,111517,Venteira,1115,Amadora,11,Lisboa,PT170,AML,030317|030319|030467|030469|030475|030477|030479|030539|030601|030685|030821|030845|030869|030880
HC0123,JMAI Arco Ribeirinho,38.648361,-8.992523,0,0,0,1,212806460,juntasmedicas.arcoribeirinho@arslvt.min-saude.pt,,"Largo Dr. Joaquim Marques Elias, 5",2860-418,Moita,150603,Moita,1506,Moita,15,Setúbal,PT170,AML,090055|090056|090097|090207|090307|090308
HC0124,URAP Lisboa Central - Polo da Baixa,38.714767,-9.138485,1,0,0,0,218843000,urap.lxcentral@arslvt.min-saude.pt,,"Rua da Palma, 43 A",1100-390,Lisboa,110665,Santa Maria Maior,1106,Lisboa,11,Lisboa,PT170,AML,
HC0125,USF Santo Condestável,38.714290,-9.164450,1,0,0,0,213913220,condestavel.sec@arslvt.min-saude.pt,,"Rua do Patrocínio, 60",1350-230,Lisboa,110660,Estrela,1106,Lisboa,11,Lisboa,PT170,AML,
HC0126,USP Lisboa Central - Polo Alameda,38.736502,-9.131358,1,0,0,0,213911030,usp.lxcentral@arslvt.min-saude.pt,,"Rua Carvalho Araújo, 103",1900-181,Lisboa,110656,Arroios,1106,Lisboa,11,Lisboa,PT170,AML,
HC0127,URAP Estuário do Tejo - Polo Póvoa de Santa Iria,38.862446,-9.067648,0,1,0,0,219540114,urap.estuariotejo@arslvt.min-saude.pt,,"Av. D. Vicente Afonso Valente, r/c - Edifício do Centro de Saúde",2625-215,Póvoa de Santa Iria,111415,União das freguesias de Póvoa de Santa Iria e Forte da Casa,1114,Vila Franca de Xira,11,Lisboa,PT170,AML,180567|180568|180569|180570|180571|180583|180584|180617|180619|180620|180621|180637|180638|180665|180679|180753
HC0128,USF Andreas - Polo Azueira,39.009600,-9.285320,0,1,0,0,261961368,usf.andreas@arslvt.min-saude.pt,,"Rua das Figueiras, nº 4 - Livramento",2665-015,Azueira,110918,União das freguesias de Azueira e Sobral da Abelheira,1109,Mafra,11,Lisboa,PT170,AML,080695|080696
HC0129,URAP Sintra - Algueirão (Sede),38.795493,-9.343671,1,0,0,0,219222130,urap.sintra@arslvt.min-saude.pt,,"Estrada de Mem Martins, 247",2725-391,Mem Martins,111102,Algueirão-Mem Martins,1111,Sintra,11,Lisboa,PT170,AML,170095|170097|170099|170101|170103|170317|171125|171871|171872|171873|172628
HC0130,UCC Cruzeiro de Algueirão e Rio de Mouro,38.795493,-9.343671,1,0,0,0,219269420,ucc.calgueirao@arslvt.min-saude.pt,,"Estrada de Mem Martins, 247",2725-391,Mem Martins,111102,Algueirão-Mem Martins,1111,Sintra,11,Lisboa,PT170,AML,170095|170097|170099|170101|170103|170317|171125|171871|171872|171873|172628
HC0131,USF Quinta das Lindas,38.746466,-9.283300,1,0,0,0,214216929,usf.quintadaslindas@arslvt.min-saude.pt,,"Av. Santo António de Tercena, Quinta das Lindas",2730-165,Barcarena,111002,Barcarena,1110,Oeiras,11,Lisboa,PT170,AML,120523|120524|120525|120526|120528|120530|121143|121144|121145|121146|121147|121148|121167|121168|121251|121252|121253
HC0132,Posto de Colheita Synlab - Parede,38.701200,-9.357880,1,0,0,0,214565603|300023061,posto.parede@synlab.pt,,"Prolongamento da Rua Capitão Leitão, Lote A, r/c Esq",2775-226,Parede,110507,União das freguesias de Carcavelos e Parede,1105,Cascais,11,Lisboa,PT170,AML,050472|050481|050482|050492|050515|050519|050520|050521|050522
HC0133,URAP Lisboa Ocidental e Oeiras - Polo Linda-a-Velha,38.715334,-9.234747,1,0,0,0,214153920,urap.lxocidoeiras@arslvt.min-saude.pt,,"Largo Prof. Fernando da Fonseca, nº 10",2799-534,Linda-a-Velha,111012,"União das freguesias de Algés, Linda-a-Velha e Cruz Quebrada-Dafundo",1110,Oeiras,11,Lisboa,PT170,AML,120176|120177|120178|120235|120237|120238|120239|120240|120359|120397|121065|121066|121067|121069|121081|121093|121257|121278
HC0134,USF Alburrica,38.644072,-9.052800,0,0,0,1,212170840,usf.alburrica@arslvt.min-saude.pt,,"Rua Jornal Heraldo, s/n - Quinta da Lomba",2830-195,Barreiro,150409,"União das freguesias de Alto do Seixalinho, Santo André e Verderena",1504,Barreiro,15,Setúbal,PT170,AML,
HC0135,Posto de Colheita Dr. Joaquim Chaves - Rio de Mouro - Alegro Sintra,38.775400,-9.335160,1,0,0,0,214124300,geral@jcs.pt,,"Alegro Sintra - IC19, Alto do Forte, Loja 0,62",2635-018,Rio de Mouro,111108,Rio de Mouro,1111,Sintra,11,Lisboa,PT170,AML,170055|170161|172273|172279
HC0136,UCC Albus Petra,38.858222,-9.324267,1,0,0,0,219678310,ucc.albuspetra@arslvt.min-saude.pt,,Rua Alto Pina,2715-069,Pêro Pinheiro,111123,"União das freguesias de Almargem do Bispo, Pêro Pinheiro e Montelavar",1111,Sintra,11,Lisboa,PT170,AML,171269|171270|171271|172019|172099|172100|172423|172559|172560
HC0137,URAP Almada-Seixal - Polo Torre da Marinha,38.618548,-9.097560,0,0,1,0,212274330,urap.almadaseixal@arslvt.min-saude.pt,,Rua Distrito Lobato - Quinta de Cima,2840-378,Seixal,151007,"União das freguesias do Seixal, Arrentela e Aldeia de Paio Pires",1510,Seixal,15,Setúbal,PT170,AML,140319|140320|140321|140322
HC0138,UCSP Alcochete - Polo Samouco,38.721200,-9.005810,0,0,0,1,212329600,ucsp.alcochete@arslvt.min-saude.pt,,"Rua ""O Seculo""",2890-232,Samouco,150202,Samouco,1502,Alcochete,15,Setúbal,PT170,AML,010099|010180
HC0139,URAP Arrábida - Polo Azeitão,38.524326,-9.021565,0,0,0,1,212199500,urap.setubal@arslvt.min-saude.pt,,"Rua Artur Horta, 18",2925-510,Azeitão,151209,União das freguesias de Azeitão (São Lourenço e São Simão),1512,Setúbal,15,Setúbal,PT170,AML,160925|160926|160927|160935|160936|160965|160981|160982
HC0140,UCSP Pontinha e Urmeira,38.778229,-9.194582,0,1,0,0,214787810,ucsp.urmeira@arslvt.min-saude.pt,,"Bairro de Santa Maria, nº 35",1675-003,Urmeira,111608,União das freguesias de Pontinha e Famões,1116,Odivelas,11,Lisboa,PT170,AML,
HC0141,URAP Lisboa Norte - Polo Lumiar,38.772200,-9.161130,1,0,0,0,217211800,urapc.lxnorte@arslvt.min-saude.pt,,"Alameda das Linhas de Torres, nº 243",1750-144,Lisboa,110618,Lumiar,1106,Lisboa,11,Lisboa,PT170,AML,060159|060167|060241|060243|060345
HC0142,UCC Abraçar Queluz,38.752326,-9.274986,1,0,0,0,214398582,ucc.abrqueluz@arslvt.min-saude.pt,,Rua Teixeira Pascoais,2745-852,Massamá,111125,União das freguesias de Massamá e Monte Abraão,1111,Sintra,11,Lisboa,PT170,AML,170857|170859|170860|170937|170939|172553
HC0143,UCSP Parede,38.697500,-9.357200,1,0,0,0,214547012,ucsp.parede@arslvt.min-saude.pt,,"Rua José Elias Garcia, 1057",2775-218,Parede,110507,União das freguesias de Carcavelos e Parede,1105,Cascais,11,Lisboa,PT170,AML,050471|050481|050482|050483|050484|050491|050492
HC0144,Gabinete do Cidadão Arrábida,38.531000,-8.887400,0,0,0,1,265420298,arrabida.gc@arslvt.min-saude.pt,,"Rua de Damão, 2, 2º dto",2900-340,Setúbal,151210,"União das freguesias de Setúbal (São Julião, Nossa Senhora da Anunciada e Santa Maria da Graça)",1512,Setúbal,15,Setúbal,PT170,AML,160067|160068|160093|160095|160111|160117|160118|160119|160513|162001|162002|162003|162004|162005|162006|162007|162008|162011
HC0145,URAP Lisboa Central - Polo Almirante,38.724100,-9.134470,1,0,0,0,218164100,urap.lxcentral@arslvt.min-saude.pt,,"Rua Luís Pinto Moitinho, 5",1170-201,Lisboa,110656,Arroios,1106,Lisboa,11,Lisboa,PT170,AML,
HC0146,URAP Sintra - Polo Pêro Pinheiro,38.858222,-9.324267,1,0,0,0,219678310,urap.sintra@arslvt.min-saude.pt,,Rua Alto Pina,2715-069,Pêro Pinheiro,111123,"União das freguesias de Almargem do Bispo, Pêro Pinheiro e Montelavar",1111,Sintra,11,Lisboa,PT170,AML,171269|171270|171271|172019|172099|172100|172423|172559|172560
HC0147,URAP Almada-Seixal - Polo Moinho da Maré,38.645431,-9.147424,0,0,1,0,212556400,urap.almadaseixal@arslvt.min-saude.pt,,Rua dos Catos - Quinta do Brasileiro,2855-207,Corroios,151005,Corroios,1510,Seixal,15,Setúbal,PT170,AML,140721|140722|140723|140724|140725|140726|140755
HC0148,URAP Arco Ribeirinho - Moita,38.648361,-8.992523,0,0,0,1,212349320,urap.geral.brr@arslvt.min-saude.pt,,"Largo Dr. Joaquim Marques Elias, 5",2860-418,Moita,150603,Moita,1506,Moita,15,Setúbal,PT170,AML,090055|090056|090097|090207|090307|090308
HC0149,URAP Arco Ribeirinho - Polo Alcochete,38.748800,-8.965420,0,0,0,1,212349320,urap.geral.brr@arslvt.min-saude.pt,,Rua Capitão Salgueiro Maia,2890-041,Alcochete,150201,Alcochete,1502,Alcochete,15,Setúbal,PT170,AML,010009|010011|010012|010013|010014|010015|010016|010017|010018|010043|010045|010069|010071|010081|010082
HC0150,UCSP Casal de Cambra,38.800400,-9.227910,1,0,0,0,219814800,ucsp.ccambra@arslvt.min-saude.pt,,Rua Inês de Castro,2605-073,Casal de Cambra,111115,Casal de Cambra,1111,Sintra,11,Lisboa,PT170,AML,171553|171555|171617|171619|172125|172173|172579|172581|172593|172595|172596|172599|174002
HC0151,URAP Loures-Odivelas - Polo Odivelas,38.806037,-9.163545,0,1,0,0,219809570,urap.louresodivelas@arslvt.min-saude.pt,,"Rua Henrique dos Santos, s/n",2620-183,Póvoa de Santo Adrião,111609,União das freguesias de Póvoa de Santo Adrião e Olival Basto,1116,Odivelas,11,Lisboa,PT170,AML,071593|071594|110539|110541|110542|110569|110571
HC0152,UCSP Mafra Leste,38.928498,-9.244676,0,1,0,0,216023877,mafraleste.balcao@arslvt.min-saude.pt,,"Rua José Poman, nº 7",2665-293,Malveira,110921,União das freguesias de Malveira e São Miguel de Alcainça,1109,Mafra,11,Lisboa,PT170,AML,080273|080274|080275|080276|080277|080278|080317|082200|082201
HC0153,URAP Lisboa Central - Polo Lapa,38.711546,-9.162191,1,0,0,0,213931250,urap.lxcentral@arslvt.min-saude.pt,,"Rua de São Ciro, 36",1200-831,Lisboa,110660,Estrela,1106,Lisboa,11,Lisboa,PT170,AML,
HC0154,Posto de Colheita Germano de Sousa - Caneças,38.815200,-9.226150,0,1,0,0,219809660,tk.cmlgs@germanodesousa.com,,"Rua Armando Catita Bernardino, nº 3",1685-566,Caneças,111610,União das freguesias de Ramada e Caneças,1116,Odivelas,11,Lisboa,PT170,AML,110015|110017|110027|110055|110057|110059|110169|110170|110235|110237|110238
HC0155,URAP Lisboa Central - Alameda (Sede),38.736502,-9.131358,1,0,0,0,213105310,urap.lxcentral@arslvt.min-saude.pt,,"Rua Carvalho Araújo, 103, pisos 7 e 9",1900-181,Lisboa,110656,Arroios,1106,Lisboa,11,Lisboa,PT170,AML,
HC0156,SAC Loures,38.825179,-9.163212,0,1,0,0,219825100,ac.loures@arslvt.min-saude.pt,,"Rua Professor Egas Moniz, s/n",2670-487,Loures,110707,Loures,1107,Loures,11,Lisboa,PT170,AML,070035|070043|070283|070355|070356|070357|070358|070389|070390|070481|070525|071658
HC0157,Centro de Vacinação Internacional | Cascais,38.698819,-9.381513,1,0,0,0,214643722,consultadoviajante.cascais@arslvt.min-saude.pt,,"Rua Egas Moniz, 9010",2765-618,São João do Estoril,110508,União das freguesias de Cascais e Estoril,1105,Cascais,11,Lisboa,PT170,AML,
HC0158,Posto de Colheita Dr. Joaquim Chaves - Carcavelos - Clínica Europa,38.682400,-9.341180,1,0,0,0,214124300,geral@jcs.pt,,"Rua de Catembe, 165",2775-561,Carcavelos,110507,União das freguesias de Carcavelos e Parede,1105,Cascais,11,Lisboa,PT170,AML,
HC0159,Posto de Colheita Affidea - Baixa da Banheira,38.657800,-9.040910,0,0,0,1,210079600,hormofuncional@affidea.pt,,"Rua das Beiras, nº 2, r/c",2835-085,Baixa da Banheira,150607,União das freguesias de Baixa da Banheira e Vale da Amoreira,1506,Moita,15,Setúbal,PT170,AML,090193|090194|090195|090209
HC0160,URAP Estuário do Tejo - Alverca do Ribatejo (Sede),38.891077,-9.039536,0,1,0,0,219759766,urap.estuariotejo@arslvt.min-saude.pt,,"Praça Sociedade Filarmónica Recreio Alverquense, nº 22 - Edifício do Centro de Saúde",2615-042,Alverca do Ribatejo,111413,União das freguesias de Alverca do Ribatejo e Sobralinho,1114,Vila Franca de Xira,11,Lisboa,PT170,AML,180197|180200|180201|180203|180204|180207
HC0161,URAP Sintra - Polo São João das Lampas,38.873841,-9.399720,1,0,0,0,219605276,urap.sintra@arslvt.min-saude.pt,,"Rua do Fontanário, nº 13, 1º",2705-737,São João das Lampas,111127,União das freguesias de São João das Lampas e Terrugem,1111,Sintra,11,Lisboa,PT170,AML,171661|171662|171663|171664|171665|171666|171667|171668|172660
HC0162,UCSP Bairro dos Marinheiros,38.598511,-9.008576,0,0,0,1,212139370,ucsp.bmarinheiros@arslvt.min-saude.pt,,Rua Força do Povo,2950-553,Quinta do Anjo,150804,Quinta do Anjo,1508,Palmela,15,Setúbal,PT170,AML,130679|130680|130682|130715
HC0163,Posto de Colheita Dr. Joaquim Chaves - Alcabideche - Cascaishopping,38.743200,-9.393540,1,0,0,0,214124300,geral@jcs.pt,,"Estrada Nacional, 9, Cascaishopping, loja 0.075 A",2645-543,Alcabideche,110501,Alcabideche,1105,Cascais,11,Lisboa,PT170,AML,050201|050202
HC0164,UCSP Alcochete,38.748800,-8.965420,0,0,0,1,212349320,ucsp.alcochete@arslvt.min-saude.pt,,Rua Capitão Salgueiro Maia,2890-041,Alcochete,150201,Alcochete,1502,Alcochete,15,Setúbal,PT170,AML,010009|010011|010012|010013|010014|010015|010016|010017|010018|010043|010045|010069|010071|010081|010082
HC0165,UCSP Águas de Moura,38.587779,-8.691910,0,0,0,1,265938260,ucsp.amoura@arslvt.min-saude.pt,,Rua do Centro de Saúde - Urbanização do Sobreiro Grande,2965-572,Águas de Moura,150806,União das freguesias de Poceirão e Marateca,1508,Palmela,15,Setúbal,PT170,AML,130237|130238
HC0166,UCSP Rainha Dona Leonor,38.677705,-9.153872,0,0,1,0,212728800,ucsp.rd.leonor@arslvt.min-saude.pt,,"Av. Rainha D. Leonor, nº 2 - 4º",2809-010,Almada,150312,"União das freguesias de Almada, Cova da Piedade, Pragal e Cacilhas",1503,Almada,15,Setúbal,PT170,AML,020057|020058|020059|020109|020110|020111|020112|021065|021066
HC0167,URAP Arco Ribeirinho - Polo Lavradio,38.669539,-9.053028,0,0,0,1,212349320,urap.geral.brr@arslvt.min-saude.pt,,Rua D. José Cárcomo Lobo,2835-423,Lavradio,150410,União das freguesias de Barreiro e Lavradio,1504,Barreiro,15,Setúbal,PT170,AML,
HC0168,URAP Lisboa Ocidental e Oeiras - Polo Paço de Arcos,38.700407,-9.295015,1,0,0,0,214540800,urap.lxocidoeiras@arslvt.min-saude.pt,,Av. António Bernardo Cabral Macedo,2770-219,Paço de Arcos,111014,"União das freguesias de Oeiras e São Julião da Barra, Paço de Arcos e Caxias",1110,Oeiras,11,Lisboa,PT170,AML,120607|120608|120687|120765|120767|120768|120891|120894|121243|121310|121311
HC0169,Posto de Colheita Hospital Cruz Vermelha - Lisboa,38.745900,-9.174890,1,0,0,0,217714000,callcenter@hcvp.com.pt,,"Rua Duarte Galvão, 54",1549-008,Lisboa,110639,São Domingos de Benfica,1106,Lisboa,11,Lisboa,PT170,AML,
HC0170,URAP Lisboa Norte - Sete Rios (Sede),38.739567,-9.168651,1,0,0,0,217211800,urapc.lxnorte@arslvt.min-saude.pt,,Largo Professor Arnaldo Sampaio,1549-010,Lisboa,110639,São Domingos de Benfica,1106,Lisboa,11,Lisboa,PT170,AML,060453|060454|060459
HC0171,UCSP Brandoa,38.763700,-9.208929,1,0,0,0,214766907,ucsp.brandoa@arslvt.min-saude.pt,,"Rua Joaquim Barradas de Carvalho, 2",2650-225,Brandoa,111514,Encosta do Sol,1115,Amadora,11,Lisboa,PT170,AML,030389|030390|030391|030393|030400|030411|030413|030421|030422
HC0172,UCC Cacém Care,38.769586,-9.308549,1,0,0,0,219138901|219138903,ucc.cacemcare@arslvt.min-saude.pt,,"Rua do Olival, 13-15 - 1º andar",2735-304,Cacém,111124,União das freguesias do Cacém e São Marcos,1111,Sintra,11,Lisboa,PT170,AML,170441|170442|170447|170449|170450|170451|170452|170495|170657|170677|170679|172522|172558|172578|172610
HC0173,Posto de Colheita Affidea - Lisboa - Estefânia,38.729900,-9.140510,1,0,0,0,213530531,hormofuncional@affidea.pt,,"Rua D. Estefânia, nº 85 A",1000-128,Lisboa,110656,Arroios,1106,Lisboa,11,Lisboa,PT170,AML,
HC0174,Posto de Colheita Dr. Joaquim Chaves - Lisboa - Pascoal de Melo,38.731300,-9.135060,1,0,0,0,214124300,geral@jcs.pt,,"Rua Pascoal de Melo, 48",1000-233,Lisboa,110656,Arroios,1106,Lisboa,11,Lisboa,PT170,AML,
HC0175,USF Mónicas,38.715050,-9.130520,1,0,0,0,218806000,usf.monicas@arslvt.min-saude.pt,,"Travessa das Mónicas, nº 57 D",1100-359,Lisboa,110667,São Vicente,1106,Lisboa,11,Lisboa,PT170,AML,
HC0176,USF da Baixa,38.714767,-9.138485,1,0,0,0,218843000,usf.baixa@arslvt.min-saude.pt,,"Rua da Palma, 43 A",1100-390,Lisboa,110665,Santa Maria Maior,1106,Lisboa,11,Lisboa,PT170,AML,
HC0177,USF Sétima Colina,38.723559,-9.131875,1,0,0,0,218108010,usf.7colina@arslvt.min-saude.pt,,"Rua Angelina Vidal, 73",1170-018,Lisboa,110656,Arroios,1106,Lisboa,11,Lisboa,PT170,AML,
HC0178,Posto de Colheita Synlab - Penha de França,38.723300,-9.131560,1,0,0,0,218143229|300023061,posto.angelina-vidal@synlab.pt,,"Rua Angelina Vidal, nº 86 B, r/c",1170-020,Lisboa,110656,Arroios,1106,Lisboa,11,Lisboa,PT170,AML,
HC0179,USF Almirante,38.724100,-9.134470,1,0,0,0,218164100,usf.almirante@arslvt.min-saude.pt,,"Rua Luís Pinto Moitinho, 5",1170-201,Lisboa,110656,Arroios,1106,Lisboa,11,Lisboa,PT170,AML,
HC0180,USF Ribeira Nova,38.707472,-9.145410,1,0,0,0,213405550,usf.ribeiranova@arslvt.min-saude.pt,,"Rua da Ribeira Nova, 1",1200-375,Lisboa,110661,Misericórdia,1106,Lisboa,11,Lisboa,PT170,AML,060419|060451|060452|062000
HC0181,Posto de Colheita Germano de Sousa - Lisboa - São Bento,38.712700,-9.157500,1,0,0,0,218230324,aces.lxcentral@arslvt.min-saude.pt,,"Calçada da Estrela, 147, r/c",1200-662,Lisboa,110660,Estrela,1106,Lisboa,11,Lisboa,PT170,AML,
HC0182,UCSP Lapa,38.711546,-9.162191,1,0,0,0,213931250,ucsp.lapa@arslvt.min-saude.pt,,"Rua de São Ciro, 36",1200-831,Lisboa,110660,Estrela,1106,Lisboa,11,Lisboa,PT170,AML,
HC0183,USP Lisboa Central (Sede),38.711546,-9.162191,1,0,0,0,213911030,usp.lxcentral@arslvt.min-saude.pt,,"Rua de São Ciro, 36",1200-831,Lisboa,110660,Estrela,1106,Lisboa,11,Lisboa,PT170,AML,
HC0184,USF do Arco,38.717273,-9.153456,1,0,0,0,213947310,usf.arco@arslvt.min-saude.pt,,"Travessa do Noronha, 5 A",1250-169,Lisboa,110666,Santo António,1106,Lisboa,11,Lisboa,PT170,AML,
HC0185,USF Sofia Abecassis,38.717303,-9.156264,1,0,0,0,213963287,usf.sfabec@arslvt.min-saude.pt,,"Travessa Santa Quitéria, 37",1250-210,Lisboa,110659,Campo de Ourique,1106,Lisboa,11,Lisboa,PT170,AML,
HC0186,Posto de Colheita Synlab - Amoreiras,38.716400,-9.161730,1,0,0,0,213874337|300023061,posto.silva-carvalho@synlab.pt,,"Rua Silva Carvalho, nº 265, 265 C e 265 D - r/c dto - piso 1",1250-251,Lisboa,110659,Campo de Ourique,1106,Lisboa,11,Lisboa,PT170,AML,
HC0187,USF Ajuda,38.703563,-9.194173,1,0,0,0,213600261,usf.ajuda@arslvt.min-saude.pt,,"Calçada da Boa Hora, nº 155",1300-094,Lisboa,110601,Ajuda,1106,Lisboa,11,Lisboa,PT170,AML,
HC0188,UCSP Alcântara,38.705828,-9.185004,1,0,0,0,213630130,ucsp.alcantara@arslvt.min-saude.pt,,"Calçada da Tapada, 126",1349-049,Lisboa,110602,Alcântara,1106,Lisboa,11,Lisboa,PT170,AML,
HC0189,USF Restelo,38.709711,-9.211400,1,0,0,0,210549980,usf.restelo@arslvt.min-saude.pt,,Praça de São Francisco Xavier - Restelo,1400-015,Lisboa,110658,Belém,1106,Lisboa,11,Lisboa,PT170,AML,060089|060091|060092|060105
HC0190,Posto de Colheita Germano de Sousa - Oeiras,38.706000,-9.226530,1,0,0,0,212490170|934843062,vu.cmlgs@germanodesousa.com,,"Av. dos Bombeiros Voluntários de Algés, 35",1495-025,Oeiras,111012,"União das freguesias de Algés, Linda-a-Velha e Cruz Quebrada-Dafundo",1110,Oeiras,11,Lisboa,PT170,AML,120185|120186|120187|120188|120189|120190|120191|120231|120343|120344
HC0191,Posto de Colheita Germano de Sousa - Algés,41.395100,-8.766730,1,0,0,0,218030922,ay.cmlgs@germanodesousa.com,,"Rua Damião de Góis, 34 C",1495-043,Algés,111012,"União das freguesias de Algés, Linda-a-Velha e Cruz Quebrada-Dafundo",1110,Oeiras,11,Lisboa,PT170,AML,
HC0192,USF Linha de Algés,38.709711,-9.211400,1,0,0,0,210736930,usf.lalges@arslvt.min-saude.pt,,Praça de São Francisco Xavier - Restelo,1495-087,Lisboa,110658,Belém,1106,Lisboa,11,Lisboa,PT170,AML,060089|060091|060092|060105
HC0193,USF Damião de Góis,38.703400,-9.227910,1,0,0,0,210736920,usf.damiaodegois@arslvt.min-saude.pt,,"Rua Dr. Manuel de Arriaga, 32-40",1495-087,Algés,111012,"União das freguesias de Algés, Linda-a-Velha e Cruz Quebrada-Dafundo",1110,Oeiras,11,Lisboa,PT170,AML,120187|120188|120189|120190|120191|120193|120195|120209|120227|120229|120231|120341|120343|120344|120401|121059
HC0194,ECL Lisboa Ocidental e Oeiras,38.703400,-9.227910,1,0,0,0,210736920,ecl.lxocidoeiras@arslvt.min-saude.pt,,"Rua Dr. Manuel de Arriaga, 32-40",1495-087,Algés,111012,"União das freguesias de Algés, Linda-a-Velha e Cruz Quebrada-Dafundo",1110,Oeiras,11,Lisboa,PT170,AML,120187|120188|120189|120190|120191|120193|120195|120209|120227|120229|120231|120341|120343|120344|120401|121059
HC0195,URAP Lisboa Ocidental e Oeiras - Polo Algés,38.703400,-9.227910,1,0,0,0,210736920,urap.lxocidoeiras@arslvt.min-saude.pt,,"Rua Dr. Manuel de Arriaga, 32-40",1495-087,Algés,111012,"União das freguesias de Algés, Linda-a-Velha e Cruz Quebrada-Dafundo",1110,Oeiras,11,Lisboa,PT170,AML,120187|120188|120189|120190|120191|120193|120195|120209|120227|120229|120231|120341|120343|120344|120401|121059
HC0196,USF Dafundo,38.700036,-9.242234,1,0,0,0,214209940,usf.dafundo@arslvt.min-saude.pt,,"Praceta dos Bombeiros Voluntários, 7",1495-713,Dafundo,111012,"União das freguesias de Algés, Linda-a-Velha e Cruz Quebrada-Dafundo",1110,Oeiras,11,Lisboa,PT170,AML,120073|120075|120085|120133|120135|120136|120329
HC0197,Posto de Colheita Synlabhealth II - Lisboa Quinta da Luz,38.757800,-9.186680,1,0,0,0,217963650|300023061,posto.quintadaluz@synlab.pt,,"Rua Adelaide Cabete, 10 e 10F",1500-024,Lisboa,110611,Carnide,1106,Lisboa,11,Lisboa,PT170,AML,
HC0198,Posto de Colheita Germano de Sousa - Lisboa - Benfica,38.747200,-9.181000,1,0,0,0,217152881,bf.cmlgs@germanodesousa.com,,"Estrada de Benfica, nº 593",1500-086,Lisboa,110608,Benfica,1106,Lisboa,11,Lisboa,PT170,AML,
HC0199,Posto de Colheita Dr. Joaquim Chaves - Befica - Fonte Nova,38.749700,-9.192990,1,0,0,0,214124300,geral@jcs.pt,,"Estrada de Benfica, 466A",1500-104,Lisboa,110608,Benfica,1106,Lisboa,11,Lisboa,PT170,AML,060047|060049|060053|060055
HC0200,USF Carnide Quer,38.760802,-9.193439,1,0,0,0,217112310,usf.carnideq@arslvt.min-saude.pt,,"Estrada da Correia, s/n",1500-210,Lisboa,110611,Carnide,1106,Lisboa,11,Lisboa,PT170,AML,060057|060063|060065|060069|060372
HC0201,USF Novo Mirante,38.760802,-9.193439,1,0,0,0,210735800,usf.nvmirante@arslvt.min-saude.pt,,"Estrada da Correia, s/n",1500-210,Lisboa,110611,Carnide,1106,Lisboa,11,Lisboa,PT170,AML,060057|060063|060065|060069|060372
HC0202,USF da Luz,38.750546,-9.194681,1,0,0,0,217125191|217211894,usf.luz@arslvt.min-saude.pt,,"Rua Dr. José Batista de Sousa, nº 15, r/c",1500-244,Lisboa,110608,Benfica,1106,Lisboa,11,Lisboa,PT170,AML,060047|060053
HC0203,URAP Lisboa Norte - Polo Benfica,38.748524,-9.200325,1,0,0,0,217211800,urapc.lxnorte@arslvt.min-saude.pt,,"Rua General Morais Sarmento, s/n, r/c",1500-310,Lisboa,110608,Benfica,1106,Lisboa,11,Lisboa,PT170,AML,060041|060051
HC0204,USF Benfica Jardim,38.748524,-9.200325,1,0,0,0,217628101|217628119,usf.benficajardim@arslvt.min-saude.pt,,"Rua General Morais Sarmento, s/n, r/c",1500-310,Lisboa,110608,Benfica,1106,Lisboa,11,Lisboa,PT170,AML,060041|060051
HC0205,Posto de Colheita Dr. Joaquim Chaves - Benfica II,38.749500,-9.202520,1,0,0,0,214124300,geral@jcs.pt,,"Alameda Padre Álvaro Proença, 10, Loja D",1500-475,Lisboa,110608,Benfica,1106,Lisboa,11,Lisboa,PT170,AML,060041|060051
HC0206,Posto de Colheita Dr. Joaquim Chaves - Benfica,38.752700,-9.205980,1,0,0,0,214124300,geral@jcs.pt,,"Rua Paz dos Reis, 4",1500-486,Lisboa,110608,Benfica,1106,Lisboa,11,Lisboa,PT170,AML,060043|060044
HC0207,USF Monsanto - Polo da Boavista,38.733471,-9.204799,1,0,0,0,217623020,usf.monsanto@arslvt.min-saude.pt,,"Rua Rainha Dona Brites, s/n - Bairro Boavista",1500-534,Lisboa,110608,Benfica,1106,Lisboa,11,Lisboa,PT170,AML,
HC0208,USF Rodrigues Miguéis,38.746389,-9.189896,1,0,0,0,217107200,usf.rmigueis@arslvt.min-saude.pt,,Rua Tenente Coronel Ribeiro dos Reis,1500-588,Lisboa,110639,São Domingos de Benfica,1106,Lisboa,11,Lisboa,PT170,AML,60055
HC0209,USF Monsanto,38.746389,-9.189896,1,0,0,0,210546580|217125194,usf.monsanto@arslvt.min-saude.pt,,Rua Tenente Coronel Ribeiro dos Reis,1500-588,Lisboa,110639,São Domingos de Benfica,1106,Lisboa,11,Lisboa,PT170,AML,60055
HC0210,USF Tílias,38.740441,-9.173058,1,0,0,0,217220090,usf.tilias@arslvt.min-saude.pt,,"Rua Padre Carlos dos Santos, Bloco B, 1º - Bairro Novo das Furnas",1500-901,Lisboa,110639,São Domingos de Benfica,1106,Lisboa,11,Lisboa,PT170,AML,
HC0211,ACES Lisboa Norte | Atendimento a Utentes sem Médico,38.745900,-9.174890,1,0,0,0,217211800,aces.lxnorte@arslvt.min-saude.pt,,"Rua Duarte Galvão, 54",1549-008,Lisboa,110639,São Domingos de Benfica,1106,Lisboa,11,Lisboa,PT170,AML,
HC0212,Órgãos de Administração e Fiscalização do ACES Lisboa Norte,38.739567,-9.168651,1,0,0,0,217211800,aces.lxnorte@arslvt.min-saude.pt,,Largo Professor Arnaldo Sampaio,1549-010,Lisboa,110639,São Domingos de Benfica,1106,Lisboa,11,Lisboa,PT170,AML,060453|060454|060459
HC0213,Gabinete do Cidadão Lisboa Norte,38.739567,-9.168651,1,0,0,0,217211800,aces.lxnorte@arslvt.min-saude.pt,,Largo Professor Arnaldo Sampaio,1549-010,Lisboa,110639,São Domingos de Benfica,1106,Lisboa,11,Lisboa,PT170,AML,060453|060454|060459
HC0214,UAG do ACES Lisboa Norte,38.739567,-9.168651,1,0,0,0,217211800,aces.lxnorte@arslvt.min-saude.pt,,Largo Professor Arnaldo Sampaio,1549-010,Lisboa,110639,São Domingos de Benfica,1106,Lisboa,11,Lisboa,PT170,AML,060453|060454|060459
HC0215,ECL Lisboa Norte,38.739567,-9.168651,1,0,0,0,217211838,ecl.lxnorte@arslvt.min-saude.pt,,Largo Professor Arnaldo Sampaio,1549-010,Lisboa,110639,São Domingos de Benfica,1106,Lisboa,11,Lisboa,PT170,AML,060453|060454|060459
HC0216,UCSP Sete Rios,38.739567,-9.168651,1,0,0,0,210423260,ucsp.seterios@arslvt.min-saude.pt,,Largo Professor Arnaldo Sampaio,1549-010,Lisboa,110639,São Domingos de Benfica,1106,Lisboa,11,Lisboa,PT170,AML,060453|060454|060459
HC0217,Centro de Vacinação Internacional | ARSLVT - Lisboa Norte,38.739567,-9.168651,1,0,0,0,217211800,aces.lxnorte@arslvt.min-saude.pt,,Largo Professor Arnaldo Sampaio,1549-010,Lisboa,110639,São Domingos de Benfica,1106,Lisboa,11,Lisboa,PT170,AML,060453|060454|060459
HC0218,CAJ Lisboa Norte,38.739567,-9.168651,1,0,0,0,217211883,geral.aparece@arslvt.min-saude.pt,,Largo Professor Arnaldo Sampaio,1549-010,Lisboa,110639,São Domingos de Benfica,1106,Lisboa,11,Lisboa,PT170,AML,060453|060454|060459
HC0219,Posto de Colheita Synlabhealth II - Lisboa Rego,38.742700,-9.157770,1,0,0,0,217939053|300023061,posto.rego@synlab.pt,,"Rua Cardeal Mercier, 4 B",1600-027,Lisboa,110657,Avenidas Novas,1106,Lisboa,11,Lisboa,PT170,AML,
HC0220,Posto de Colheita Cintramédica II - Lisboa,38.752300,-9.173430,1,0,0,0,217223494,analises@cintramedica.pt,,"Rua São Tomás de Aquino, nº 4, A",1600-203,Lisboa,110639,São Domingos de Benfica,1106,Lisboa,11,Lisboa,PT170,AML,
HC0221,US de Telheiras - SCML,38.764074,-9.181608,1,0,0,0,217124170,aces.lxnorte@arslvt.min-saude.pt,,"Praça São Francisco de Assis, nº 3 C",1600-305,Lisboa,110611,Carnide,1106,Lisboa,11,Lisboa,PT170,AML,
HC0222,UCSP Caneças e Famões,38.814722,-9.226315,0,1,0,0,219809570|219809628,ucsp.canecas@arslvt.min-saude.pt,,Rua Júlia Escrivaniz,1675-580,Caneças,111610,União das freguesias de Ramada e Caneças,1116,Odivelas,11,Lisboa,PT170,AML,110015|110017|110024|110025|110027|110055|110057|110059|110167|110169|110170|110235
HC0223,Posto de Colheita Synlab - Caneças,38.813100,-9.226400,0,1,0,0,219813692|808303203,posto.canecas@synlab.pt,,Praça Dr. Manuel Arriaga nº 13,1685-585,Caneças,111610,União das freguesias de Ramada e Caneças,1116,Odivelas,11,Lisboa,PT170,AML,110007|110017|110023|110024|110025|110027|110055|110059|110165|110167|110169|110172|110233|110255|111008
HC0224,UCSP Caneças e Famões - Polo Famões,38.788733,-9.216197,0,1,0,0,219809620,ucsp.famoes@arslvt.min-saude.pt,,"Alameda Silva Porto, 3",1687-636,Famões,111608,União das freguesias de Pontinha e Famões,1116,Odivelas,11,Lisboa,PT170,AML,110157|110158|110159|110160|111009|111010
HC0225,Posto de Colheita Germano de Sousa - Alvalade,38.752700,-9.143310,1,0,0,0,214077943,covid19.alvalade@mimed.pt,,"Praçeta de Alvalade, nº 16 A",1700-038,Lisboa,110654,Alvalade,1106,Lisboa,11,Lisboa,PT170,AML,
HC0226,Posto de Colheita Omnialab - Alvalade,38.754600,-9.143970,1,0,0,0,926984644,geral@omnialab.pt,,"Rua Luis Augusto Palmeirim, 15B - r/c",1700-273,Alvalade,110654,Alvalade,1106,Lisboa,11,Lisboa,PT170,AML,
HC0227,URAP Lisboa Norte - Polo Alvalade,38.759756,-9.148969,1,0,0,0,217211800,urapc.lxnorte@arslvt.min-saude.pt,,"Av. do Brasil, nº 53 - Pavilhão 33 - Parque de Saúde de Lisboa",1749-080,Lisboa,110654,Alvalade,1106,Lisboa,11,Lisboa,PT170,AML,
HC0228,USF do Parque,38.759756,-9.148969,1,0,0,0,217816474,usf.parque@arslvt.min-saude.pt,,"Av. do Brasil, nº 53 - Pavilhão 33 - Parque de Saúde de Lisboa",1749-080,Lisboa,110654,Alvalade,1106,Lisboa,11,Lisboa,PT170,AML,
HC0229,USF Alvalade,38.759756,-9.148969,1,0,0,0,217816440,usf.alvalade@arslvt.min-saude.pt,,"Av. do Brasil, nº 53 - Pavilhão 33 - Parque de Saúde de Lisboa",1749-080,Lisboa,110654,Alvalade,1106,Lisboa,11,Lisboa,PT170,AML,
HC0230,CDP Dr. Ribeiro Sanches - Unidade Móvel de Rastreio Pneumológico,38.748900,-9.139600,1,0,0,0,---,alicep@arslvt.min-saude.pt,,"Av. Estados Unidos da América, nº 77",1749-096,Lisboa,110654,Alvalade,1106,Lisboa,11,Lisboa,PT170,AML,
HC0231,Posto de Colheita Germano de Sousa - Lisboa - Quinta do Lambert,38.763900,-9.153340,1,0,0,0,217571150,il.cmlgs@germanodesousa.com,,"Rua Agostinho Neto, nº 28 C/D",1750-006,Lisboa,110618,Lumiar,1106,Lisboa,11,Lisboa,PT170,AML,
HC0232,Posto de Colheita Synlabhealth II - Lumiar,38.772500,-9.160100,1,0,0,0,217581871,posto.lumiar@synlab.pt,,R. Cordeiro Ferreira 19 F,1750-071,Lisboa,110618,Lumiar,1106,Lisboa,11,Lisboa,PT170,AML,060159|060167|060241|060243|060345
HC0233,CDP Dr. Ribeiro Sanches,38.766971,-9.157948,1,0,0,0,217211800,alicep@arslvt.min-saude.pt,,"Alameda das Linhas de Torres, 115",1750-147,Lisboa,110618,Lumiar,1106,Lisboa,11,Lisboa,PT170,AML,060157|060169|060343
HC0234,Posto de Colheita Fernanda Galo - Lumiar,38.771800,-9.153360,1,0,0,0,214744372|913404937,covid19@fernandagalo.com,,"Av. Alvaro Cunhal, Loja 1-A - Alta de Lisboa",1750-316,Lumiar,110618,Lumiar,1106,Lisboa,11,Lisboa,PT170,AML,060239|060240
HC0235,UCSP Santa Clara e Lumiar,38.776643,-9.145713,1,0,0,0,210519790,ucsp.santaclaralumiar@arslvt.min-saude.pt,,"Av. Nuno Krus Abecassis, 19",1750-456,Lisboa,110664,Santa Clara,1106,Lisboa,11,Lisboa,PT170,AML,060235|060236|060237|060238
HC0236,USF das Conchas,38.766077,-9.158544,1,0,0,0,212449810,usf.conchas@arslvt.min-saude.pt,,"Alameda das Linhas de Torres, nº 117 - Parque da Saúde Pulido Valente",1769-001,Lisboa,110618,Lumiar,1106,Lisboa,11,Lisboa,PT170,AML,060157|060169|060343
HC0237,USF Dona Amélia de Portugal,38.766077,-9.158544,1,0,0,0,210513940,usf.ameliaportugal@arslvt.min-saude.pt,,"Alameda das Linhas de Torres, nº 117 - Parque da Saúde Pulido Valente",1769-001,Lisboa,110618,Lumiar,1106,Lisboa,11,Lisboa,PT170,AML,060157|060169|060343
HC0238,UCSP Olivais,38.772882,-9.118560,1,0,0,0,218507001,ucsp.olivais@arslvt.min-saude.pt,,"Alameda da Encarnação, Olivais",1800-192,Lisboa,110633,Olivais,1106,Lisboa,11,Lisboa,PT170,AML,
HC0239,USF Vasco da Gama,38.772882,-9.118560,1,0,0,0,218507044|218507048,usf.vgama@arslvt.min-saude.pt,,"Alameda da Encarnação, Olivais",1800-192,Lisboa,110633,Olivais,1106,Lisboa,11,Lisboa,PT170,AML,
HC0240,Posto de Colheita Germano de Sousa - Lisboa - Olivais,38.764900,-9.119440,1,0,0,0,218531900,ob.cmlgs@germanodesousa.com,,"Av. de Pádua, Loja 10 L",1800-297,Olivais,110633,Olivais,1106,Lisboa,11,Lisboa,PT170,AML,
HC0241,UCSP Moscavide,38.782099,-9.101415,0,1,0,0,219449217,ucsp.moscavide@arslvt.min-saude.pt,,Rua Adão Manuel Ramos Barata,1885-100,Moscavide,110726,União das freguesias de Moscavide e Portela,1107,Loures,11,Lisboa,PT170,AML,070585|070587|071331|071332|071501|071502
HC0242,USF Tejo,38.782099,-9.101415,0,1,0,0,219449210|219449211,usf.tejo@arslvt.min-saude.pt,,Rua Adão Manuel Ramos Barata,1885-100,Moscavide,110726,União das freguesias de Moscavide e Portela,1107,Loures,11,Lisboa,PT170,AML,070585|070587|071331|071332|071501|071502
HC0243,USF Moscavide,38.782099,-9.101415,0,1,0,0,219449211,usf.moscavide@arslvt.min-saude.pt,,Rua Adão Manuel Ramos Barata,1885-100,Moscavide,110726,União das freguesias de Moscavide e Portela,1107,Loures,11,Lisboa,PT170,AML,070585|070587|071331|071332|071501|071502
HC0244,USP Lisboa Central - Polo Monte Pedral,38.725358,-9.120375,1,0,0,0,213911030,usp.lxcentral@arslvt.min-saude.pt,,"Rua Adolfo Coelho, 9",1900-028,Lisboa,110663,Penha de França,1106,Lisboa,11,Lisboa,PT170,AML,
HC0245,USF Monte Pedral,38.725358,-9.120375,1,0,0,0,218115090,usf.mpedral@arslvt.min-saude.pt,,"Rua Adolfo Coelho, 9",1900-028,Lisboa,110663,Penha de França,1106,Lisboa,11,Lisboa,PT170,AML,
HC0246,USF Areeiro,38.739965,-9.126640,1,0,0,0,218471406,usf.areeiro@arslvt.min-saude.pt,,"Av. Afonso Costa, 41, 3º piso",1900-032,Lisboa,110655,Areeiro,1106,Lisboa,11,Lisboa,PT170,AML,
HC0247,Posto de Colheita Germano de Sousa - Lisboa - Penha de França,38.724600,-9.117390,1,0,0,0,218143777|912675868,cliladi.pt@gmail.com,,"Av. Afonso III, 38 A",1900-047,Lisboa,110663,Penha de França,1106,Lisboa,11,Lisboa,PT170,AML,
HC0248,Órgãos de Administração e Fiscalização do ACES Lisboa Central,38.736502,-9.131358,1,0,0,0,213105310,aces.lxcentral@arslvt.min-saude.pt,,"Rua Carvalho Araújo, 103, piso 7",1900-181,Lisboa,110656,Arroios,1106,Lisboa,11,Lisboa,PT170,AML,
HC0249,UAG do ACES Lisboa Central,38.736502,-9.131358,1,0,0,0,213105310,aces.lxcentral@arslvt.min-saude.pt,,"Rua Carvalho Araújo, 103, piso 7",1900-181,Lisboa,110656,Arroios,1106,Lisboa,11,Lisboa,PT170,AML,
HC0250,UCSP Alameda,38.736502,-9.131358,1,0,0,0,218105000,ucsp.alameda@arslvt.min-saude.pt,,"Rua Carvalho Araújo, 103, pisos 0, 1, 2 e 3",1900-181,Lisboa,110656,Arroios,1106,Lisboa,11,Lisboa,PT170,AML,
HC0251,USF Fonte Luminosa,38.736502,-9.131358,1,0,0,0,218105024,usf.fluminosa@arslvt.min-saude.pt,,"Rua Carvalho Araújo, 103, pisos 4, 5 e 6",1900-181,Lisboa,110656,Arroios,1106,Lisboa,11,Lisboa,PT170,AML,
HC0252,Posto de Colheita REDELAB Saúde - Areeiro,38.739700,-9.130120,1,0,0,0,210100347|962553861,geral@labformosinho.pt,,"Rua Egas Moniz, 2A",1900-218,Olaias,110655,Areeiro,1106,Lisboa,11,Lisboa,PT170,AML,
HC0253,Posto de Colheita Labocentro - Areeiro,38.742900,-9.129540,1,0,0,0,210129276|961773477,covid19@clarasaude.pt|geral@labocentro.pt,,"Rua Sarmento de Beires, 45C",1900-221,Lisboa,110655,Areeiro,1106,Lisboa,11,Lisboa,PT170,AML,
HC0254,USF Oriente,38.731759,-9.111045,1,0,0,0,218101010,usf.oriente@arslvt.min-saude.pt,,Rua Marquês de Olhão,1900-329,Beato,110607,Beato,1106,Lisboa,11,Lisboa,PT170,AML,
HC0255,Posto de Colheita Germano de Sousa - Lisboa - Arroios,38.733400,-9.133500,1,0,0,0,215878027,ik.cmlgs@germanodesousa.com,,"Rua Morais Soares, nº 159",1900-350,Lisboa,110656,Arroios,1106,Lisboa,11,Lisboa,PT170,AML,
HC0256,USF São João Evangelista dos Lóios,38.759607,-9.122662,1,0,0,0,218366070,usf.loios@arslvt.min-saude.pt,,"Rua Pedro José Pezerat, 11",1950-239,Lisboa,110621,Marvila,1106,Lisboa,11,Lisboa,PT170,AML,
HC0257,ECL Lisboa Central,38.758846,-9.122319,1,0,0,0,218507000,ecl.lxcentral@arslvt.min-saude.pt,,"Rua Luis Cristino da Silva, 73",1950-239,Lisboa,110621,Marvila,1106,Lisboa,11,Lisboa,PT170,AML,
HC0258,UCSP Marvila,38.742235,-9.110134,1,0,0,0,218620750,ucsp.marvila@arslvt.min-saude.pt,,Azinhaga dos Alfinetes,1950-438,Marvila,110621,Marvila,1106,Lisboa,11,Lisboa,PT170,AML,
HC0259,ECSCP Lisboa Central,38.742235,-9.110134,1,0,0,0,---,lxcentral.paliativos@arslvt.min-saude.pt,,Azinhaga dos Alfinetes,1950-438,Marvila,110621,Marvila,1106,Lisboa,11,Lisboa,PT170,AML,
HC0260,USP Estuário do Tejo - Polo Vila Franca de Xira,38.959052,-8.987900,0,1,0,0,263279650,usp.estuariotejo@arslvt.min-saude.pt,,"Rua António Lúcio Batista, nº 6",2600-102,Vila Franca de Xira,111409,Vila Franca de Xira,1114,Vila Franca de Xira,11,Lisboa,PT170,AML,180293|180357|180597|180598|180599|180600
HC0261,ECSCP Estuário do Tejo,38.959052,-8.987900,0,1,0,0,219500168,ecscp.estuario@arslvt.min-saude.pt,,"Rua António Lúcio Batista, nº 6",2600-102,Vila Franca de Xira,111409,Vila Franca de Xira,1114,Vila Franca de Xira,11,Lisboa,PT170,AML,180293|180357|180597|180598|180599|180600
HC0262,CDP Vila Franca de Xira,38.959052,-8.987900,0,1,0,0,263279650,cdp.vfxira@arslvt.min-saude.pt,,"Rua António Lúcio Batista, nº 6",2600-102,Vila Franca de Xira,111409,Vila Franca de Xira,1114,Vila Franca de Xira,11,Lisboa,PT170,AML,180293|180357|180597|180598|180599|180600
HC0263,USF Terras de Cira,38.959052,-8.987900,0,1,0,0,263279650,usf.terrascira@arslvt.min-saude.pt,,"Rua António Lúcio Batista, nº 6",2600-102,Vila Franca de Xira,111409,Vila Franca de Xira,1114,Vila Franca de Xira,11,Lisboa,PT170,AML,180293|180357|180597|180598|180599|180600
HC0264,Posto de Colheita Labocentro - Vila Franca de Xira,38.954500,-8.989680,0,1,0,0,210129276|961773477,covid19@clarasaude.pt|geral@labocentro.pt,,"Rua José Dias da Silva, 3",2600-170,Vila Franca de Xira,111409,Vila Franca de Xira,1114,Vila Franca de Xira,11,Lisboa,PT170,AML,180077|180079|180081|180239|180240|180359|180765
HC0265,Posto de Colheita Laboratório J. Leitão Santos - Vila Franca de Xira,38.955900,-8.989580,0,1,0,0,263273668|925772077,marcacoes@leitaosantos.pt|lab.leitaosantos@leitaosantos.pt,,"Rua Dr. Miguel Bombarda, 117, r/c",2600-195,Vila Franca de Xira,111409,Vila Franca de Xira,1114,Vila Franca de Xira,11,Lisboa,PT170,AML,180079|180081|180239|180240|180291|180357|180359|180595|180600|180765
HC0266,UCSP Alhandra,38.925833,-9.009032,0,1,0,0,219500168,usf.alhandra@arslvt.min-saude.pt,,"Rua 5 de Outubro de 1910, 40",2600-425,Alhandra,111412,"União das freguesias de Alhandra, São João dos Montes e Calhandriz",1114,Vila Franca de Xira,11,Lisboa,PT170,AML,180228|180230|180231
HC0267,USF Castanheira do Ribatejo,39.006364,-8.977539,0,1,0,0,263286100,usf.cribatejo@arslvt.min-saude.pt,,Rua Dr. José Azeredo Perdigão - Edifício do Centro de Saúde,2600-645,Castanheira do Ribatejo,111414,União das freguesias de Castanheira do Ribatejo e Cachoeiras,1114,Vila Franca de Xira,11,Lisboa,PT170,AML,180989|180990|180991|180992|180993|180994
HC0268,Posto de Colheita Germano de Sousa - Castanheira do Ribatejo,38.995300,-8.971620,0,1,0,0,263030978|934005735,kr.cmlgs@germanodesousa.com,,"Rua Palha Blanco, 77",2600-669,Castanheira do Ribatejo,111414,União das freguesias de Castanheira do Ribatejo e Cachoeiras,1114,Vila Franca de Xira,11,Lisboa,PT170,AML,180317|180319|180343|180347|180349|180389|180391|180392|180393|180413|180414|181010|182256|182268|182271
HC0269,UCSP Belas,38.776474,-9.266614,1,0,0,0,210546120,ucsp.belas@arslvt.min-saude.pt,,"Rua Oliveira Gomes, 17",2605-046,Belas,111126,União das freguesias de Queluz e Belas,1111,Sintra,11,Lisboa,PT170,AML,170533|170535|170537|170538|170573|170575
HC0270,Posto de Colheita Germano de Sousa - Casal de Cambra,38.801000,-9.226620,1,0,0,0,219813145,lc.cmlgs@germanodesousa.com,,"Rua Inês de Castro, nº 15, r/c Dto",2605-788,Casal de Cambra,111115,Casal de Cambra,1111,Sintra,11,Lisboa,PT170,AML,171553|171555|171617|171619|172579|172581|172589|172593|172595|172596|172597|172598|172599|174002
HC0271,Posto de Colheita Synlabhealth II - Alfragide,38.742400,-9.230340,1,0,0,0,214329410|214329411,aces.amadora@arslvt.min-saude.pt,,Rua Alfredo da Silva nº 16,2610-001,Amadora,111512,Alfragide,1115,Amadora,11,Lisboa,PT170,AML,030516|030527
HC0272,Posto de Colheita Germano de Sousa - Alfragide,38.738300,-9.222330,1,0,0,0,215837287,lx.cmlgs@germanodesousa.com,,"Praceta do Comércio, 17, loja B",2610-042,Amadora/Alfragide,111512,Alfragide,1115,Amadora,11,Lisboa,PT170,AML,030067|030068|030069|030070|030116|030117|030753|030754|030755|030756|030757|030758|030759|030761|030777|030779
HC0273,Posto de Colheita REDELAB Saúde - Alfragide,38.736700,-9.221800,1,0,0,0,214712472|962553861,geral@labformosinho.pt,,"Av. dos Moinhos, 8 B",2610-120,Alfragide,111512,Alfragide,1115,Amadora,11,Lisboa,PT170,AML,030067|030068|030069|030070|030071|030072|030073|030074|030075|030076|030521|030522|030523|030757|030758|030759|030761|030777|030779
HC0274,UCSP António Arnaut - Polo Unidade SCM Amadora,38.736500,-9.220710,1,0,0,0,214725534,ucsp.antonioarnaut@arslvt.min-saude.pt,,"Alameda do Moinhos, nº 1-A",2610-177,Amadora,111512,Alfragide,1115,Amadora,11,Lisboa,PT170,AML,030067|030068|030069|030070|030071|030072|030073|030074|030116|030117|030521|030757|030758|030759|030761|030777|030779
HC0275,URAP Amadora - Polo Reboleira,38.744876,-9.209269,1,0,0,0,214725530,urap.amadora@arslvt.min-saude.pt,,"Rua Óscar Lopes, nº 2",2610-179,Amadora,111513,Águas Livres,1115,Amadora,11,Lisboa,PT170,AML,030035|030037|030038|030039|030051|030052|030053
HC0276,UCSP António Arnaut,38.744876,-9.209269,1,0,0,0,214725530,ucsp.antonioarnaut@arslvt.min-saude.pt,,"Rua Óscar Lopes, nº 2",2610-179,Amadora,111513,Águas Livres,1115,Amadora,11,Lisboa,PT170,AML,030035|030037|030038|030039|030051|030052|030053
HC0277,USF Águas Livres,38.744876,-9.209269,1,0,0,0,214725540,usf.aguaslivres@arslvt.min-saude.pt,,"Rua Óscar Lopes, nº 2",2610-179,Amadora,111513,Águas Livres,1115,Amadora,11,Lisboa,PT170,AML,030035|030037|030038|030039|030051|030052|030053
HC0278,Órgãos de Administração e Fiscalização do ACES Estuário do Tejo,38.891077,-9.039536,0,1,0,0,219579760,aces.estuariotejo@arslvt.min-saude.pt,,"Praça Sociedade Filarmónica Recreio Alverquense, nº 22 - Edifício do Centro de Saúde",2615-042,Alverca do Ribatejo,111413,União das freguesias de Alverca do Ribatejo e Sobralinho,1114,Vila Franca de Xira,11,Lisboa,PT170,AML,180197|180200|180201|180203|180204|180207
HC0279,UAG do ACES Estuário do Tejo,38.891077,-9.039536,0,1,0,0,219579760,aces.estuariotejo@arslvt.min-saude.pt,,"Praça Sociedade Filarmónica Recreio Alverquense, nº 22 - Edifício do Centro de Saúde",2615-042,Alverca do Ribatejo,111413,União das freguesias de Alverca do Ribatejo e Sobralinho,1114,Vila Franca de Xira,11,Lisboa,PT170,AML,180197|180200|180201|180203|180204|180207
HC0280,JMAI Estuário do Tejo,38.891077,-9.039536,0,1,0,0,219579760,aces.estuariotejo@arslvt.min-saude.pt,,"Praça Sociedade Filarmónica Recreio Alverquense, nº 22 - Edifício do Centro de Saúde",2615-042,Alverca do Ribatejo,111413,União das freguesias de Alverca do Ribatejo e Sobralinho,1114,Vila Franca de Xira,11,Lisboa,PT170,AML,180197|180200|180201|180203|180204|180207
HC0281,USF Gago Coutinho,38.891077,-9.039536,0,1,0,0,219579773,usf.gagocoutinho@arslvt.min-saude.pt,,"Praça Sociedade Filarmónica Recreio Alverquense, nº 22 - Edifício do Centro de Saúde",2615-042,Alverca do Ribatejo,111413,União das freguesias de Alverca do Ribatejo e Sobralinho,1114,Vila Franca de Xira,11,Lisboa,PT170,AML,180197|180200|180201|180203|180204|180207
HC0282,USF Albirka Tejo,38.891077,-9.039536,0,1,0,0,219579769|219579771,usf.albirkatejo@arslvt.min-saude.pt,,"Praça Sociedade Filarmónica Recreio Alverquense, nº 22 - Edifício do Centro de Saúde",2615-042,Alverca do Ribatejo,111413,União das freguesias de Alverca do Ribatejo e Sobralinho,1114,Vila Franca de Xira,11,Lisboa,PT170,AML,180197|180200|180201|180203|180204|180207
HC0283,Posto de Colheita Laboratório J. Leitão Santos - Alverca do Ribatejo - Sede,38.894600,-9.039960,0,1,0,0,219587630|925772077,marcacoes@leitaosantos.pt|lab.leitaosantos@leitaosantos.pt,,"Praça Cova do Bicho, nº9, r/c",2615-065,Alverca do Ribatejo,111413,União das freguesias de Alverca do Ribatejo e Sobralinho,1114,Vila Franca de Xira,11,Lisboa,PT170,AML,180104|180193|180195|180197|180209|180211|180213|180721|180722|180723|182252
HC0284,Posto de Colheita Laboratório J. Leitão Santos - Alverca do Ribatejo,38.891800,-9.040280,0,1,0,0,219577457|925772074,marcacoes@leitaosantos.pt|lab.leitaosantos@leitaosantos.pt,,"Rua do Trabalhador, nº 8, r/c Fr",2615-213,Alverca do Ribatejo,111413,União das freguesias de Alverca do Ribatejo e Sobralinho,1114,Vila Franca de Xira,11,Lisboa,PT170,AML,180197|180200|180201|180207|180209|180211|182252
HC0285,USF Bom Sucesso,38.907447,-9.043491,0,1,0,0,219936220,usf.bomsucesso@arslvt.min-saude.pt,,"Rua dos Cravos, nº 1 - Bom Sucesso",2615-300,Arcena,111413,União das freguesias de Alverca do Ribatejo e Sobralinho,1114,Vila Franca de Xira,11,Lisboa,PT170,AML,180117|180119|180121|182269
HC0286,Posto de Colheita Omnialab - Alverca do Ribatejo,38.901000,-9.041360,0,1,0,0,219574455|219574457|967921027,geral@omnialab.pt,,Rua da Formigueira Loja 1C - Quinta da Omnia II,2615-389,Alverca do Ribatejo,111413,União das freguesias de Alverca do Ribatejo e Sobralinho,1114,Vila Franca de Xira,11,Lisboa,PT170,AML,180105|180107|180108|180109|180140|180141|180142|180245|180246
HC0287,USF Génesis,38.806037,-9.163545,0,1,0,0,219380231|219380232,usf.genesis@arslvt.min-saude.pt,,"Rua Henrique dos Santos, s/n",2620-183,Póvoa de Santo Adrião,111609,União das freguesias de Póvoa de Santo Adrião e Olival Basto,1116,Odivelas,11,Lisboa,PT170,AML,071593|071594|110539|110541|110542|110569|110571
HC0288,USF 7 Castelos,38.806037,-9.163545,0,1,0,0,219380220|219380221,usf.7castelos@arslvt.min-saude.pt,,"Rua Henrique dos Santos, s/n, piso 0",2620-183,Póvoa de Santo Adrião,111609,União das freguesias de Póvoa de Santo Adrião e Olival Basto,1116,Odivelas,11,Lisboa,PT170,AML,071593|071594|110539|110541|110542|110569|110571
HC0289,Posto de Colheita Germano de Sousa - Ramada,38.807900,-9.185600,0,1,0,0,210927705|925925770,y9.cmlgs@germanodesousa.com,,"Rua João Villaret, 24 A - Bons dias loja",2620-280,Ramada,111610,União das freguesias de Ramada e Caneças,1116,Odivelas,11,Lisboa,PT170,AML,110317|110318|110319|110320|110321|110361|110362|110371|110372|110373|110374|110487|110603|110604
HC0290,Posto de Colheita Laboratório J. Leitão Santos - Póvoa de Santa Iria,38.847500,-9.086650,0,1,0,0,219590114|925772077,marcacoes@leitaosantos.pt|lab.leitaosantos@leitaosantos.pt,,"Caminho do Marquês, nº8, r/c",2625-177,Póvoa de Santa Iria,111415,União das freguesias de Póvoa de Santa Iria e Forte da Casa,1114,Vila Franca de Xira,11,Lisboa,PT170,AML,070715|070771
HC0291,Posto de Colheita Laboratório J. Leitão Santos - Póvoa de Santa Iria - Clínica Central,38.861700,-9.067630,0,1,0,0,219535480|925772077,marcacoes@leitaosantos.pt|lab.leitaosantos@leitaosantos.pt,,"Avenida D. Vicente Afonso Valente, nº5",2625-215,Póvoa de Santa Iria,111415,União das freguesias de Póvoa de Santa Iria e Forte da Casa,1114,Vila Franca de Xira,11,Lisboa,PT170,AML,180567|180568|180569|180570|180571|180583|180584|180619|180620|180637|180638|180665|180753
HC0292,UCSP Póvoa de Santa Iria,38.862446,-9.067648,0,1,0,0,219540121,ucsp.pstiria@arslvt.min-saude.pt,,"Av. D. Vicente Afonso Valente, 1º andar - Edifício do Centro de Saúde",2625-215,Póvoa de Santa Iria,111415,União das freguesias de Póvoa de Santa Iria e Forte da Casa,1114,Vila Franca de Xira,11,Lisboa,PT170,AML,180567|180568|180569|180570|180571|180583|180584|180617|180619|180620|180621|180637|180638|180665|180679|180753
HC0293,USF Reynaldo dos Santos,38.862446,-9.067648,0,1,0,0,219540114,usfreynaldodossantos@arslvt.min-saude.pt,,"Av. D. Vicente Afonso Valente, r/c - Edifício do Centro de Saúde",2625-215,Póvoa de Santa Iria,111415,União das freguesias de Póvoa de Santa Iria e Forte da Casa,1114,Vila Franca de Xira,11,Lisboa,PT170,AML,180567|180568|180569|180570|180571|180583|180584|180617|180619|180620|180621|180637|180638|180665|180679|180753
HC0294,Posto de Colheita Omnialab - Póvoa de Santa Iria,38.860500,-9.074310,0,1,0,0,219560498|967920976,geral@omnialab.pt,,"AV. D. Vicente Afonso Valente, nº 33, r/c esq.",2625-217,Póvoa de Santa Iria,111415,União das freguesias de Póvoa de Santa Iria e Forte da Casa,1114,Vila Franca de Xira,11,Lisboa,PT170,AML,180577|180579|180580|180581|180582|180613|180615|180616|180631|180639|180641|180642|180651|180652|180653|180655|180657|180663|180685|180897|182260
HC0295,Posto de Colheita Omnialab - Forte da Casa,38.872700,-9.055760,0,1,0,0,926984644,geral@omnialab.pt,,"Rua 25 de Abril, 6, r/c esq.",2625-467,Forte da Casa,111415,União das freguesias de Póvoa de Santa Iria e Forte da Casa,1114,Vila Franca de Xira,11,Lisboa,PT170,AML,180539|180541|180543|180545|180548|180557|180587|180589|180705|180707|180709|180710
HC0296,USP Estuário do Tejo - Forte da Casa (Sede),38.872801,-9.056659,0,1,0,0,219535204|219535205,usp.estuariotejo@arslvt.min-saude.pt,,Rua 25 de Abril - Edifício do Centro de Saúde,2625-468,Forte da Casa,111415,União das freguesias de Póvoa de Santa Iria e Forte da Casa,1114,Vila Franca de Xira,11,Lisboa,PT170,AML,180537|180539|180541|180543|180545|180547|180548|180549|180550|180557|180585|180587|180589|180705|180707|180709|180710
HC0297,UCSP Forte da Casa,38.872801,-9.056659,0,1,0,0,219535200,ucsp.forte@arslvt.min-saude.pt,,Rua 25 de Abril - Edifício do Centro de Saúde,2625-468,Forte da Casa,111415,União das freguesias de Póvoa de Santa Iria e Forte da Casa,1114,Vila Franca de Xira,11,Lisboa,PT170,AML,180537|180539|180541|180543|180545|180547|180548|180549|180550|180557|180585|180587|180589|180705|180707|180709|180710
HC0298,Posto de Colheita Dr. Joaquim Chaves - Vialonga,38.872900,-9.079050,0,1,0,0,214124300,geral@jcs.pt,,"Rua Maria Helena Nunes Moreira, 7B, Loja Esquerda - Quinta D. Cândida",2625-631,Vialonga,111408,Vialonga,1114,Vila Franca de Xira,11,Lisboa,PT170,AML,180477|180478|180479|180480|180481|180482|180507|180508|180509|180845|180846
HC0299,USF Villa Longa,38.876570,-9.087850,0,1,0,0,219527520,usf.villalonga@arslvt.min-saude.pt,,"Rua Antero de Quental, s/n",2625-642,Vialonga,111408,Vialonga,1114,Vila Franca de Xira,11,Lisboa,PT170,AML,180517|180518|180519|180520|180521|180522|180745|180747|180811|180867|180868
HC0300,Posto de Colheita Laboratório J. Leitão Santos - Vialonga,38.873700,-9.078330,0,1,0,0,219522263|925772077,marcacoes@leitaosantos.pt|lab.leitaosantos@leitaosantos.pt,,"Rua José Saramago, n.º4 – R/C",2625-684,Vialonga,111408,Vialonga,1114,Vila Franca de Xira,11,Lisboa,PT170,AML,180477|180478|180479|180480|180481|180482|180507|180508|180509|180845|180846
HC0301,Posto de Colheita Germano de Sousa - Vialonga,38.873000,-9.079690,0,1,0,0,216004436,qp.cmlgs@germanodesousa.com,,"Rua 28 de Setembro, 5 r/c loja",2625-703,Vialonga,111408,Vialonga,1114,Vila Franca de Xira,11,Lisboa,PT170,AML,180477|180478|180479|180480|180481|180482|180507|180508|180509|180511|180525|180845|180846
HC0302,USF AlbaSaúde,38.751634,-9.347293,1,0,0,0,219156323,usf.albasaude@arslvt.min-saude.pt,,Bairro da Tabaqueira. Albarraque,2635-101,Rio de Mouro,111108,Rio de Mouro,1111,Sintra,11,Lisboa,PT170,AML,170403|170405|170406|170503|172235|172237|172238|172265
HC0303,URAP Sintra - Polo Rio de Mouro,38.786181,-9.326693,1,0,0,0,219178110,urap.sintra@arslvt.min-saude.pt,,"Av. Infante Dom Henrique, 39/41",2635-367,Rio de Mouro,111108,Rio de Mouro,1111,Sintra,11,Lisboa,PT170,AML,170065|170066|170067|170068|170075|170077
HC0304,USF Alphamouro,38.786181,-9.326693,1,0,0,0,219178139,usf.alphamouro@arslvt.min-saude.pt,,"Av. Infante Dom Henrique, 39/41",2635-367,Rio de Mouro,111108,Rio de Mouro,1111,Sintra,11,Lisboa,PT170,AML,170065|170066|170067|170068|170075|170077
HC0305,Posto de Colheita Affidea - Mafra - Encarnação,39.027500,-9.367590,0,1,0,0,261850070,clinica@asfe.pt,,Rua da Bela Vista nº 30,2640-224,Encarnação,110904,Encarnação,1109,Mafra,11,Lisboa,PT170,AML,080487|080525|080633|082302
HC0306,Posto de Colheita Cintramédica II - Mafra,38.938600,-9.332360,0,1,0,0,219100080,analises@cintramedica.pt,,"Av. 1º de Maio, 12",2640-437,Mafra,110909,Mafra,1109,Mafra,11,Lisboa,PT170,AML,080202|080204|080205|080206|080965|080979|082307|082322
HC0307,USP Oeste Sul - Polo Mafra,38.937040,-9.336359,0,1,0,0,261818110,uspmafra.oestesul@arslvt.min-saude.pt;,,Largo Coronel Brito Gorjão,2640-465,Mafra,110909,Mafra,1109,Mafra,11,Lisboa,PT170,AML,080204|080205|080206|080959|080961|080973|080975|080979
HC0308,USF Andreas,38.937040,-9.336359,0,1,0,0,261818130,usf.andreas@arslvt.min-saude.pt,,Largo Coronel Brito Gorjão,2640-465,Mafra,110909,Mafra,1109,Mafra,11,Lisboa,PT170,AML,080204|080205|080206|080959|080961|080973|080975|080979
HC0309,USF D. João V,38.937040,-9.336359,0,1,0,0,261818120,usf.djoaov@arslvt.min-saude.pt,,Largo Coronel Brito Gorjão,2640-465,Mafra,110909,Mafra,1109,Mafra,11,Lisboa,PT170,AML,080204|080205|080206|080959|080961|080973|080975|080979
HC0310,ECL Cascais,38.730100,-9.407200,1,0,0,0,214604522,ecl.parede@arslvt.min-saude.pt,,"Rua Rio das Grades, 19A",2645-559,Alcabideche,110501,Alcabideche,1105,Cascais,11,Lisboa,PT170,AML,050185|050186|050239
HC0311,USF Alcais,38.730100,-9.407200,1,0,0,0,214604530,usf.alcais@arslvt.min-saude.pt,,"Rua Rio das Grades, 19A",2645-559,Alcabideche,110501,Alcabideche,1105,Cascais,11,Lisboa,PT170,AML,050185|050186|050239
HC0312,USF São Martinho de Alcabideche,38.730100,-9.407200,1,0,0,0,214604520,usf.smalcabideche@arslvt.min-saude.pt,,"Rua Rio das Grades, 19A",2645-559,Alcabideche,110501,Alcabideche,1105,Cascais,11,Lisboa,PT170,AML,050185|050186|050239
HC0313,USF Fonte de Água,38.730100,-9.407200,1,0,0,0,214604521,usf.fontedeagua@arslvt.min-saude.pt,,"Rua Rio das Grades, 19A",2645-559,Alcabideche,110501,Alcabideche,1105,Cascais,11,Lisboa,PT170,AML,050185|050186|050239
HC0314,Posto de Colheita Fernanda Galo - Amadora-Encosta do Sol,38.767300,-9.214650,1,0,0,0,249311013|913404937,covid19@fernandagalo.com,,"Rua Padre Manuel Gomes Himalaia, 64B, Loja A",2650-156,Encosta do Sol,111514,Encosta do Sol,1115,Amadora,11,Lisboa,PT170,AML,030355|030357|030373|030377|030379|030387|030427|030433|030695|030701|030737|030852
HC0315,URAP Amadora - Polo Brandoa,38.763700,-9.208929,1,0,0,0,214766907,urap.amadora@arslvt.min-saude.pt,,"Rua Joaquim Barradas de Carvalho, 2",2650-225,Brandoa,111514,Encosta do Sol,1115,Amadora,11,Lisboa,PT170,AML,030389|030390|030391|030393|030400|030411|030413|030421|030422
HC0316,Posto de Colheita Dr. Joaquim Chaves - Ericeira,37.027000,-7.926300,0,1,0,0,214124300,geral@jcs.pt,,"Av. São Sebastião, 14, Fórum São Sebastião, Loja J",2655-333,Ericeira,110906,Ericeira,1109,Mafra,#N/A,#N/A,PT170,AML,
HC0317,URAP Oeste Sul - Polo Ericeira,38.969223,-9.414448,0,1,0,0,261860651,urap.oestesul@arslvt.min-saude.pt|balcoes.urapoestesul@arslvt.min-saude.pt,,Rua Frei Fernão Rodrigues Monteiro,2655-354,Ericeira,110906,Ericeira,1109,Mafra,11,Lisboa,PT170,AML,080763|080764|080765|080766
HC0318,UCSP Mafra Norte - Polo Ericeira,38.969223,-9.414448,0,1,0,0,261860651,ericeira.balcao@arslvt.min-saude.pt,,Rua Frei Fernão Rodrigues Monteiro,2655-354,Ericeira,110906,Ericeira,1109,Mafra,11,Lisboa,PT170,AML,080763|080764|080765|080766
HC0319,UCSP Loures - Polo São Antão do Tojal,38.855138,-9.142257,0,1,0,0,963909529,ucsp.tojal@arslvt.min-saude.pt,,Alameda Arquiteto António Canevari,2660-176,Santo Antão do Tojal,110729,União das freguesias de Santo Antão e São Julião do Tojal,1107,Loures,11,Lisboa,PT170,AML,070835|070837|070838|070872|070959|070960|070963|070964
HC0320,USF Magnólia,38.813500,-9.161130,0,1,0,0,219897840,usf.magnolia@arslvt.min-saude.pt,,"Av. Manuel Carlos Andrade, s/n",2660-243,Santo António dos Cavaleiros,110730,União das freguesias de Santo António dos Cavaleiros e Frielas,1107,Loures,11,Lisboa,PT170,AML,070307|070309|070310|070311|070312|070315|070559|070565|071267|071421|072216
HC0321,Posto de Colheita Lumilabo - Santo António dos Cavaleiros,38.801400,-9.159510,0,1,0,0,217210480|800200978|918613588,mail@lumilabo.pt|marcacoes@lumilabo.pt,,"Praça Dom Miguel I, nº 2 Loja",2670-105,Santo António dos Cavaleiros,110730,União das freguesias de Santo António dos Cavaleiros e Frielas,1107,Loures,11,Lisboa,PT170,AML,071137|071139|071141|110461|110467|110565|110567|110619|110631|110663|110664
HC0322,Posto de Colheita Germano de Sousa - Loures - Quinta do Infantado,38.841600,-9.161520,0,1,0,0,216097379,vy.cmlgs@germanodesousa.com,,"Av. das Descobertas, Edificio Avenida, nº15 B, Loja 3",2670-383,Infantado - Loures,110707,Loures,1107,Loures,11,Lisboa,PT170,AML,070377|070379|070381|070439|070441|070443|070537|070538|071425
HC0323,Posto de Colheita Germano de Sousa - Loures,38.839600,-9.199690,0,1,0,0,213157701|932004011,gr.cmlgs@germanodesousa.com,,"Rua do Sol Nascente, 15 e 15 A",2670-398,Flamenga,110730,União das freguesias de Santo António dos Cavaleiros e Frielas,1107,Loures,11,Lisboa,PT170,AML,070015|070016|070017|070018
HC0324,UCSP Loures,38.825179,-9.163212,0,1,0,0,219825100,ucsp.loures@arslvt.min-saude.pt,,"Rua Professor Egas Moniz, s/n",2670-487,Loures,110707,Loures,1107,Loures,11,Lisboa,PT170,AML,070035|070043|070283|070355|070356|070357|070358|070389|070390|070481|070525|071658
HC0325,USF Parque da Cidade,38.825179,-9.163212,0,1,0,0,219825125,usf.prqcidade@arslvt.min-saude.pt,,"Rua Professor Egas Moniz, s/n",2670-487,Loures,110707,Loures,1107,Loures,11,Lisboa,PT170,AML,070035|070043|070283|070355|070356|070357|070358|070389|070390|070481|070525|071658
HC0326,Posto de Colheita Synlab - Loures,38.842000,-9.192230,0,1,0,0,219833523|300023061,posto.loures@synlab.pt,,"Rua da República, nº 27 loja A",2670-536,Loures,110707,Loures,1107,Loures,11,Lisboa,PT170,AML,070353|070354
HC0327,Posto de Colheita Lumilabo - Bucelas,38.900400,-9.118360,0,1,0,0,217210480|800200978|914501213,marcacoes@lumilabo.pt|mail@lumilabo.pt,,Rua Augusto Freire nº 6,2670-644,Bucelas,110702,Bucelas,1107,Loures,11,Lisboa,PT170,AML,070135|070136|070175|070176|070177|070178|071147|071148|071273|071341|072214
HC0328,UCSP Loures - Polo Bucelas,38.901400,-9.115230,0,1,0,0,219694394,ucsp.bucelas@arslvt.min-saude.pt,,Rua Prof. Egas Moniz,2670-653,Bucelas,110702,Bucelas,1107,Loures,11,Lisboa,PT170,AML,070135|070136|070175|070176|070177|070178|070179|070180|071273|071341|072214
HC0329,UCSP Loures - Polo Lousa,38.889598,-9.207547,0,1,0,0,219855181,ucsp.lousa@arslvt.min-saude.pt,,"Rua Heróis do Ultramar, nº 39F",2670-756,Lousa,110708,Lousa,1107,Loures,11,Lisboa,PT170,AML,071091|071092|071093|071094|071117|071118
HC0330,UCSP Odivelas,38.793600,-9.177698,0,1,0,0,219346163|219347470,ucsp.odivelas@arslvt.min-saude.pt,,"Av. Prof. Dr. Augusto Abreu Lopes, nº 36",2675-297,Odivelas,111603,Odivelas,1116,Odivelas,11,Lisboa,PT170,AML,110093|110094|110127|110128|110129|110130|110131|110132|110333|110334|110387|110405|110407|110408|110515|110627|110628|110813|110814|111016|111017
HC0331,USF Cruzeiro,38.793900,-9.178930,0,1,0,0,210529500,usf.cruzeiro@arslvt.min-saude.pt,,"Av. Prof. Dr. Augusto Abreu Lopes, nº 31",2675-300,Odivelas,111603,Odivelas,1116,Odivelas,11,Lisboa,PT170,AML,110125|110126|110127|110128|110129|110130|110131|110132|110333|110334|110353|110407|110408|110489|110490|110515|110813|110814|111016|111017|111018
HC0332,USF do Mosteiro,38.793900,-9.178930,0,1,0,0,210529480,usf.mosteiro@arslvt.min-saude.pt,,"Av. Prof. Dr. Augusto Abreu Lopes, nº 31",2675-300,Odivelas,111603,Odivelas,1116,Odivelas,11,Lisboa,PT170,AML,110125|110126|110127|110128|110129|110130|110131|110132|110333|110334|110353|110407|110408|110489|110490|110515|110813|110814|111016|111017|111018
HC0333,Convenção - Odivelas,38.786254,-9.178936,0,1,0,0,219337362,convencao.aceslo@arslvt.min-saude.pt,,"Rua Dário Canas, nº 6, r/c",2675-325,Odivelas,111603,Odivelas,1116,Odivelas,11,Lisboa,PT170,AML,110087|110088|110089|110102|110199|110200|110201|110207|110295|111001|111002|111003
HC0334,Posto de Colheita Germano de Sousa - Odivelas,38.787300,-9.179490,0,1,0,0,210130727,gz.cmlgs@germanodesousa.com,,"Av. Dom Dinis, 47-A",2675-333,Odivelas,111603,Odivelas,1116,Odivelas,11,Lisboa,PT170,AML,110085|110087|110088|110089|110099|110100|110102|110201|110207|110295|110411|110713|111001|111002
HC0335,Posto de Colheita Cintramédica II - São João do Estoril,38.650600,-8.212360,1,0,0,0,214661041,analises@cintramedica.pt,,"Rua Egas Moniz, 262, Loja B",2675-477,S. João do Estoril,110508,União das freguesias de Cascais e Estoril,1105,Cascais,11,Lisboa,PT170,AML,
HC0336,Posto de Colheita Germano de Sousa - Camarate,38.801300,-9.130990,0,1,0,0,212445422,ct.cmlgs@germanodesousa.com,,"Rua Avelino Salgado de Oliveira,10-A",2680-104,Camarate,110731,"União das freguesias de Camarate, Unhos e Apelação",1107,Loures,11,Lisboa,PT170,AML,070623|070624|070625|070626|070627|070645|070885|070886
HC0337,Órgãos de Administração e Fiscalização do ACES Loures / Odivelas,38.797701,-9.115877,0,1,0,0,219492400,aces.louresodivelas@arslvt.min-saude.pt,,Alameda das Comunidades - Urbanização Terraços da Ponte,2685-040,Sacavém,110727,União das freguesias de Sacavém e Prior Velho,1107,Loures,11,Lisboa,PT170,AML,070613|070661|070662|070663|070664|070665|070667|070673|070674|070675|070676|070705|071355|071419|071420|071456|072400
HC0338,UAG do ACES Loures / Odivelas,38.797701,-9.115877,0,1,0,0,219492400,louresodivelas.uag@arslvt.min-saude.pt,,Alameda das Comunidades - Urbanização Terraços da Ponte,2685-040,Sacavém,110727,União das freguesias de Sacavém e Prior Velho,1107,Loures,11,Lisboa,PT170,AML,070613|070661|070662|070663|070664|070665|070667|070673|070674|070675|070676|070705|071355|071419|071420|071456|072400
HC0339,USF Travessa da Saúde,38.797701,-9.115877,0,1,0,0,219492440,usf.travsaude@arslvt.min-saude.pt,,Alameda das Comunidades - Urbanização Terraços da Ponte,2685-040,Sacavém,110727,União das freguesias de Sacavém e Prior Velho,1107,Loures,11,Lisboa,PT170,AML,070613|070661|070662|070663|070664|070665|070667|070673|070674|070675|070676|070705|071355|071419|071420|071456|072400
HC0340,USF Sacavém,38.797701,-9.115877,0,1,0,0,219492430,usf.sacavem@arslvt.min-saude.pt,,Alameda das Comunidades - Urbanização Terraços da Ponte,2685-040,Sacavém,110727,União das freguesias de Sacavém e Prior Velho,1107,Loures,11,Lisboa,PT170,AML,070613|070661|070662|070663|070664|070665|070667|070673|070674|070675|070676|070705|071355|071419|071420|071456|072400
HC0341,Posto de Colheita Germano de Sousa - Sacavém,38.794800,-9.112490,0,1,0,0,214018655,uq.cmlgs@germanodesousa.com,,"Rua Salvador Allende, 29 A",2685-114,Sacavém,110727,União das freguesias de Sacavém e Prior Velho,1107,Loures,11,Lisboa,PT170,AML,070662|070671|070672|070675|070676|070677|070678|070679|070681|070682|070683|070684|070699|070700|070701|070703|071395|071396
HC0342,Posto de Colheita Dr. Joaquim Chaves - Sacavém,38.794600,-9.102510,0,1,0,0,214124300,geral@jcs.pt,,"Rua Álvaro Pedro Gomes, Bloco 2, 15 C",2685-142,Sacavém,110727,União das freguesias de Sacavém e Prior Velho,1107,Loures,11,Lisboa,PT170,AML,070125|070126|070513|070514|070533|070695|072416|072417
HC0343,USF Prior Velho,38.789961,-9.121463,0,1,0,0,219428018,usf.pvelho@arslvt.min-saude.pt,,Rua de Moçambique - Edifício da Junta de Freguesia,2685-356,Prior Velho,110727,União das freguesias de Sacavém e Prior Velho,1107,Loures,11,Lisboa,PT170,AML,071511|071512|071525|071531|071537|071539|071545|071547|071549|072409
HC0344,UCSP Apelação e Unhos - Polo Apelação,38.814764,-9.131101,0,1,0,0,219484360,ucsp.apelacao@arslvt.min-saude.pt,,Largo 25 Abril - Edifício da Junta de Freguesia,2685-707,Apelação,110731,"União das freguesias de Camarate, Unhos e Apelação",1107,Loures,11,Lisboa,PT170,AML,070501|070502|070503|070504|070505|070519|071381|071382|071405|071406
HC0345,UCSP Apelação e Unhos - Polo Unhos,38.826700,-9.124620,0,1,0,0,219405690,ucsp.unhos@arslvt.min-saude.pt,,Rua São Silvestre,2685-856,Unhos,110731,"União das freguesias de Camarate, Unhos e Apelação",1107,Loures,11,Lisboa,PT170,AML,070083|070084|070085|070086
HC0346,USF Valflores,38.842898,-9.091977,0,1,0,0,219591927,usf.valflores@arslvt.min-saude.pt,,Rua Alto da Cruzinha - Bairro Terra dos Frades,2690-454,Santa Iria da Azóia,110728,"União das freguesias de Santa Iria de Azoia, São João da Talha e Bobadela",1107,Loures,11,Lisboa,PT170,AML,070719|070720|071235|071236|071237|071238
HC0347,Posto de Colheita Germano de Sousa - Bobadela,38.807400,-9.098410,0,1,0,0,211583837,na.cmlgs@germanodesousa.com,,"Rua Jorge Alexandre Batalha Ferreira, 11 B",2695-049,Bobadela,110728,"União das freguesias de Santa Iria de Azoia, São João da Talha e Bobadela",1107,Loures,11,Lisboa,PT170,AML,070749|070751|070753|070754|070795|071279|071293|071639|071641|072407|072408
HC0348,Posto de Colheita Laboratório J. Leitão Santos - Bobadela,38.806100,-9.096310,0,1,0,0,219552039|925772077,marcacoes@leitaosantos.pt|lab.leitaosantos@leitaosantos.pt,,"Rua Luís de Camões, nº 5 A, R/C",2695-053,Bobadela,110728,"União das freguesias de Santa Iria de Azoia, São João da Talha e Bobadela",1107,Loures,11,Lisboa,PT170,AML,070753|070754|071639|071641
HC0349,ECL Loures / Odivelas,38.818500,-9.096400,0,1,0,0,219959964,ecl.louresodivelas@arslvt.min-saude.pt,,Rua Maria da Conceição Costa - Bairro do Operário,2695-845,São João da Talha,110728,"União das freguesias de Santa Iria de Azoia, São João da Talha e Bobadela",1107,Loures,11,Lisboa,PT170,AML,070742|070763|070799|070801
HC0350,USF São João da Talha,38.818500,-9.096400,0,1,0,0,219959947|219959949,usf.sjtalha@arslvt.min-saude.pt,,Rua Maria da Conceição Costa - Bairro do Operário,2695-845,São João da Talha,110728,"União das freguesias de Santa Iria de Azoia, São João da Talha e Bobadela",1107,Loures,11,Lisboa,PT170,AML,070742|070763|070799|070801
HC0351,USF Extramuros,38.818500,-9.096400,0,1,0,0,219959930,usf.extramuros@arslvt.min-saude.pt,,Rua Maria da Conceição Costa - Bairro do Operário,2695-845,São João da Talha,110728,"União das freguesias de Santa Iria de Azoia, São João da Talha e Bobadela",1107,Loures,11,Lisboa,PT170,AML,070742|070763|070799|070801
HC0352,Órgãos de Administração e Fiscalização do ACES Amadora,38.757170,-9.234010,1,0,0,0,214988370,aces.amadora@arslvt.min-saude.pt,,"Rua Capitão Plácido Abreu, nº 2",2700-156,Amadora,111517,Venteira,1115,Amadora,11,Lisboa,PT170,AML,030317|030319|030465|030467|030469|030477|030479|030481|030539|030541|030601|030685|030821|030845|030869|030880
HC0353,UAG do ACES Amadora,38.757170,-9.234010,1,0,0,0,214988370,aces.amadora@arslvt.min-saude.pt,,"Rua Capitão Plácido Abreu, nº 2",2700-156,Amadora,111517,Venteira,1115,Amadora,11,Lisboa,PT170,AML,030317|030319|030465|030467|030469|030477|030479|030481|030539|030541|030601|030685|030821|030845|030869|030880
HC0354,Posto de Colheita Cintramédica - Venteira,38.757500,-9.234630,1,0,0,0,214987591,postoamadora@cintramedica.pt|analises@cintramedica.pt,,"Rua 5 de Outubro, nº 4, Loja Dta",2700-197,Amadora,111517,Venteira,1115,Amadora,11,Lisboa,PT170,AML,030317|030319|030467|030469|030475|030477|030479|030539|030601|030685|030821|030845|030869|030880
HC0355,Posto de Colheita Germano de Sousa - Amadora Centro,38.774600,-9.236940,1,0,0,0,218045522,ao.cmlgs@germanodesousa.com,,"Rua 5 de Outubro, 8-B",2700-197,Amadora,111517,Venteira,1115,Amadora,11,Lisboa,PT170,AML,030195|030196|030197|030198|030199|030201|030203|030237|030239|030651|030887
HC0356,Posto de Colheita Labocentro - Amadora - Venda Nova,38.758700,-9.228740,1,0,0,0,210129276|961773477,covid19@clarasaude.pt|geral@labocentro.pt,,"Av. Comandante Luis António Silva, 11-B",2700-201,Amadora,111515,Falagueira-Venda Nova,1115,Amadora,11,Lisboa,PT170,AML,030091|030093|030105|030107|030139|030163|030603|030604|030605|030606|030727|030876|030877
HC0357,CDP Venda Nova,38.753440,-9.213380,1,0,0,0,214758700,cdp.vnova@arslvt.min-saude.pt,,Av. Câmara Pestana - Bairro Girassol,2700-220,Venda Nova,111515,Falagueira-Venda Nova,1115,Amadora,11,Lisboa,PT170,AML,030289|030290|030291|030292|030299|030300|030301|030302|030797
HC0358,Posto de Colheita Dr. Joaquim Chaves - Amadora - Venteira,38.758300,-9.234590,1,0,0,0,211398463,geral@jcs.pt,,"Largo Doutor Dário Gandra Nunes, 2 B - Venteira",2700-279,Amadora,111517,Venteira,1115,Amadora,11,Lisboa,PT170,AML,030317|030319|030467|030469|030475|030477|030479|030539|030601|030685|030821|030845|030869|030880
HC0359,Posto de Colheita Germano de Sousa - Amadora,38.757600,-9.222680,1,0,0,0,214998156|930517241,covid19.amadora@germanodesousa.com,,"Av. Eduardo Jorge, nº 43",2700-307,Amadora,111515,Falagueira-Venda Nova,1115,Amadora,11,Lisboa,PT170,AML,030151|030152|030153|030154|030155|030605|030606|030607|030609|030613|030723|030724
HC0360,Posto de Colheita Synlab - Amadora - Venteira,38.787700,-27.330500,1,0,0,0,210541160,posto.venteira@synlab.pt,,"Praça da Igreja, nº 11 B",2700-458,Amadora,111517,Venteira,1115,Amadora,11,Lisboa,PT170,AML,
HC0361,USF Amato Lusitano,38.754924,-9.217554,1,0,0,0,214992313,usf.alusitano@arslvt.min-saude.pt,,"Rua João de Deus, 2, 3º - Venda Nova",2700-488,Amadora,111515,Falagueira-Venda Nova,1115,Amadora,11,Lisboa,PT170,AML,030155|030288|030303|030305|030307|030609|030797|030860|030882
HC0362,USF Venda Nova,38.754924,-9.217554,1,0,0,0,214992110|214992111,usf.vnova@arslvt.min-saude.pt,,"Rua João de Deus, 2 - Venda Nova",2700-488,Amadora,111515,Falagueira-Venda Nova,1115,Amadora,11,Lisboa,PT170,AML,030155|030288|030303|030305|030307|030609|030797|030860|030882
HC0363,Posto de Colheita Germano de Sousa - Venda Nova,38.755200,-9.218030,1,0,0,0,214998156,vv.cmlgs@germanodesousa.com,,"Rua Latino Coelho, 20-A",2700-517,Venda Nova/ Amadora,111515,Falagueira-Venda Nova,1115,Amadora,11,Lisboa,PT170,AML,030155|030303|030305|030307|030609|030797|030853|030860|030882
HC0364,URAP Amadora,38.758320,-9.234586,1,0,0,0,214932233,urap.amadora@arslvt.min-saude.pt,,"Largo Dr. Dário Granda Nunes, nº 1",2704-511,Amadora,111517,Venteira,1115,Amadora,11,Lisboa,PT170,AML,030317|030319|030467|030469|030475|030477|030479|030539|030601|030685|030821|030845|030869|030880
HC0365,USF Arco-Íris,38.758320,-9.234586,1,0,0,0,214930059,usf.arcoiris@arslvt.min-saude.pt,,"Largo Dr. Dário Granda Nunes, nº 1",2704-511,Amadora,111517,Venteira,1115,Amadora,11,Lisboa,PT170,AML,030317|030319|030467|030469|030475|030477|030479|030539|030601|030685|030821|030845|030869|030880
HC0366,USF Colares,38.805385,-9.450388,1,0,0,0,219281073,usf.colares@arslvt.min-saude.pt,,"Al. Coronel Linhares de Lima, 11",2705-351,Colares,111105,Colares,1111,Sintra,11,Lisboa,PT170,AML,171341|171342|171343|171344|171481|171482|171483|171485|171486|171489|171843|171844|171845|171846
HC0367,UCSP São João das Lampas,38.873841,-9.399720,1,0,0,0,219605270,ucsp.sjlampas@arslvt.min-saude.pt,,"Rua do Fontanário, nº 13",2705-737,São João das Lampas,111127,União das freguesias de São João das Lampas e Terrugem,1111,Sintra,11,Lisboa,PT170,AML,171661|171662|171663|171664|171665|171666|171667|171668|172660
HC0368,USF Terra,38.848100,-9.377370,1,0,0,0,219617077,usf.terra@arslvt.min-saude.pt,,Rua do Cruzeiro,2705-854,Terrugem,111127,União das freguesias de São João das Lampas e Terrugem,1111,Sintra,11,Lisboa,PT170,AML,170023|170024|172657|172658
HC0369,Posto de Colheita Cintramédica - Terrugem,38.849700,-9.379720,1,0,0,0,219617584,postoterrugem@cintramedica.pt|analises@cintramedica.pt,,"Av. 29 de Agosto, 247",2705-907,Terrugem,111127,União das freguesias de São João das Lampas e Terrugem,1111,Sintra,11,Lisboa,PT170,AML,170023|170024|170025|170026|172657|172658
HC0370,Posto de Colheita Dr. Joaquim Chaves - Sintra,38.801600,-9.379600,1,0,0,0,214124300,geral@jcs.pt,,"Travessa da Portela, nº 1, Portela de Sintra",2710-437,Sintra,111128,"União das freguesias de Sintra (Santa Maria e São Miguel, São Martinho e São Pedro de Penaferrim)",1111,Sintra,11,Lisboa,PT170,AML,170821|171875|171877|171878|171919|172534
HC0371,Posto de Colheita Cintramédica II - Sintra,38.801700,-9.379880,1,0,0,0,219100080,analises@cintramedica.pt,,"Travessa da Portela, Edifício Cintramédica",2710-437,Sintra,111128,"União das freguesias de Sintra (Santa Maria e São Miguel, São Martinho e São Pedro de Penaferrim)",1111,Sintra,11,Lisboa,PT170,AML,170821|171314|171875|171877|171878|171919|171921|172533|172534
HC0372,USF Monte da Lua,38.814678,-9.397751,1,0,0,0,219100880,usf.montelua@arslvt.min-saude.pt,,Caminho do Murtal - Urbanização Sopé da Serra,2710-663,Sintra,111128,"União das freguesias de Sintra (Santa Maria e São Miguel, São Martinho e São Pedro de Penaferrim)",1111,Sintra,11,Lisboa,PT170,AML,171691|171692|171747|171801|171802
HC0373,USF Lapiás,38.858222,-9.324267,1,0,0,0,219678310,usf.lapias@arslvt.min-saude.pt,,Rua Alto Pina,2715-069,Pêro Pinheiro,111123,"União das freguesias de Almargem do Bispo, Pêro Pinheiro e Montelavar",1111,Sintra,11,Lisboa,PT170,AML,171269|171270|171271|172019|172099|172100|172423|172559|172560
HC0374,Posto de Colheita Dr. Joaquim Chaves - Pêro Pinheiro,38.857400,-9.325100,1,0,0,0,214124300,geral@jcs.pt,,"Rua do Moinho, 9A",2715-101,Pêro Pinheiro,111123,"União das freguesias de Almargem do Bispo, Pêro Pinheiro e Montelavar",1111,Sintra,11,Lisboa,PT170,AML,171269|171270|171271|171319|172019|172099|172100|172423|172559|172560
HC0375,UCSP Almargem do Bispo,38.851397,-9.264496,1,0,0,0,219270731,ucsp.abispo@arslvt.min-saude.pt,,"Rua dos Canais, s/n",2715-425,Almargem do Bispo,111123,"União das freguesias de Almargem do Bispo, Pêro Pinheiro e Montelavar",1111,Sintra,11,Lisboa,PT170,AML,171219|171220|171222|172047|172048
HC0376,Posto de Colheita Fernanda Galo - Amadora-Venteira,38.751300,-9.230230,1,0,0,0,249311013|913404937,covid19@fernandagalo.com,,"Rua Afonso de Noronha, 10",2720-050,Venteira,111517,Venteira,1115,Amadora,11,Lisboa,PT170,AML,030445|030446|030457|030458|030459|030461|030462|030463|030464|030483|030485|030491|030492|030493|030495|030535|030537|030538|030543|030837|030839|030840|030841|030865|030866|030867|030868
HC0377,ECL Amadora,38.745867,-9.220493,1,0,0,0,214906210|214906217|214906217,ecl.amadora@arslvt.min-saude.pt|ucc.amadoram@arslvt.min-saude.pt,,Praça Conde da Lousã - Damaia,2720-120,Amadora,111513,Águas Livres,1115,Amadora,11,Lisboa,PT170,AML,030505|030507|030509|030511|030531|030567|030677|030678|030679|030681|030682|030741|030743|030745
HC0378,USP Amadora,38.745867,-9.220493,1,0,0,0,214906230,usp.amadora@arslvt.min-saude.pt,,Praça Conde da Lousã - Damaia,2720-120,Amadora,111513,Águas Livres,1115,Amadora,11,Lisboa,PT170,AML,030505|030507|030509|030511|030531|030567|030677|030678|030679|030681|030682|030741|030743|030745
HC0379,USF Conde da Lousã,38.745867,-9.220493,1,0,0,0,214906231,usf.clousa@arslvt.min-saude.pt,,Praça Conde da Lousã - Damaia,2720-120,Amadora,111513,Águas Livres,1115,Amadora,11,Lisboa,PT170,AML,030505|030507|030509|030511|030531|030567|030677|030678|030679|030681|030682|030741|030743|030745
HC0380,Posto de Colheita Germano de Sousa - Reboleira,38.749200,-9.233060,1,0,0,0,214961296|930421704,aa.cmlgs@germanodesousa.com,,"Av. Dom José I, nº 77 A",2720-175,Amadora,111515,Falagueira-Venda Nova,1115,Amadora,11,Lisboa,PT170,AML,030445|030446|030451|030453|030454|030457|030458|030485|030487|030491|030492|030493|030495|030535|030543|030697
HC0381,Posto de Colheita Synlabhealth II - Venteira,38.747900,-9.235910,1,0,0,0,218052819,geral@pilaresdasaude.pt,,"Rua Dr. Francisco Sá Carneiro, 5 A",2720-196,Amadora,111517,Venteira,1115,Amadora,11,Lisboa,PT170,AML,030445|030446|030455|030697
HC0382,USF Alma Mater,38.751681,-9.230024,1,0,0,0,214988400,usf.almamater@arslvt.min-saude.pt,,"Largo da Igreja da Reboleira , nº 1",2720-296,Amadora,111517,Venteira,1115,Amadora,11,Lisboa,PT170,AML,030457|030458|030459|030461|030462|030463|030464|030483|030491|030492|030493|030495|030535|030537|030538|030543|030837|030839|030840|030841|030865|030866|030867|030868
HC0383,Posto de Colheita Lumilabo - Damaia,38.745100,-9.219390,1,0,0,0,217210480|800200978|918613588,marcacoes@lumilabo.pt|mail@lumilabo.pt,,"Largo Alexandre Gusmão, 14",2720-728,Damaia,111513,Águas Livres,1115,Amadora,11,Lisboa,PT170,AML,030049|030505|030507|030509|030511|030531|030567|030661|030675|030677|030678|030679|030741|030745|030747|030748
HC0384,Posto de Colheita Synlab - Algueirão-Mem Martins,38.797900,-9.341440,1,0,0,0,219217636|300023061,posto.algueirao@synlab.pt,,"Rua do Moinho, 1 D",2725-096,Algueirão - Mem Martins,111102,Algueirão-Mem Martins,1111,Sintra,11,Lisboa,PT170,AML,170093|170095|170097|170197|170199|171125|171177|171183|171184|171185|171186|172628
HC0385,UCSP Algueirão,38.791021,-9.351882,1,0,0,0,219222146,ucsp.algueirao@arslvt.min-saude.pt,,"Rua das Eiras, 50",2725-297,Algueirão - Mem Martins,111102,Algueirão-Mem Martins,1111,Sintra,11,Lisboa,PT170,AML,170109|170110|170111|170112|170113|170114
HC0386,JMAI Sintra,38.791021,-9.351882,1,0,0,0,966505429,sintra.juntasmedicas@arslvt.min-saude.pt,,"Rua das Eiras, 50",2725-297,Algueirão - Mem Martins,111102,Algueirão-Mem Martins,1111,Sintra,11,Lisboa,PT170,AML,170109|170110|170111|170112|170113|170114
HC0387,USF Natividade,38.791021,-9.351882,1,0,0,0,219226469,usf.natividade@arslvt.min-saude.pt,,"Rua das Eiras, 50",2725-297,Algueirão - Mem Martins,111102,Algueirão-Mem Martins,1111,Sintra,11,Lisboa,PT170,AML,170109|170110|170111|170112|170113|170114
HC0388,USF D. Fernando II,38.791021,-9.351882,1,0,0,0,219222170,usf.dfernandoii@arslvt.min-saude.pt,,"Rua das Eiras, 50",2725-297,Algueirão - Mem Martins,111102,Algueirão-Mem Martins,1111,Sintra,11,Lisboa,PT170,AML,170109|170110|170111|170112|170113|170114
HC0389,UAG do ACES Sintra - Polo Mem Martins (Arquivo),38.795411,-9.343586,1,0,0,0,214398530,aces.sintra@arslvt.min-saude.pt,,"Av. Chaby Pinheiro, nº 9",2725-391,Mem Martins,111102,Algueirão-Mem Martins,1111,Sintra,11,Lisboa,PT170,AML,170095|170097|170099|170101|170103|170317|171125|171871|171872|171873|172628
HC0390,USP Sintra - Algueirão (Sede),38.795493,-9.343671,1,0,0,0,219269421,usp.sintra@arslvt.min-saude.pt,,"Estrada de Mem Martins, 247",2725-391,Mem Martins,111102,Algueirão-Mem Martins,1111,Sintra,11,Lisboa,PT170,AML,170095|170097|170099|170101|170103|170317|171125|171871|171872|171873|172628
HC0391,Posto de Colheita Germano de Sousa - Mem Martins,38.789100,-9.345010,1,0,0,0,212453929,mo.cmlgs@germanodesousa.com,,"Estrada de Mem Martins, 295",2725-392,Mem Martins,111102,Algueirão-Mem Martins,1111,Sintra,11,Lisboa,PT170,AML,170104|170105|170106|170107|170108|171127|171129|171131|171139|171141|171143
HC0392,USF Tapada,38.795704,-9.331002,1,0,0,0,219179020,usf.tapada@arslvt.min-saude.pt,,"Rua Prof. Dr. Rui Luís Gomes, 40",2725-556,Tapada das Mercês,111102,Algueirão-Mem Martins,1111,Sintra,11,Lisboa,PT170,AML,170263|170269|170271|170273|170275
HC0393,Posto de Colheita Cintramédica - Cacém,37.256000,-8.282610,1,0,0,0,219100080,postobdcacem@cintramedica.pt|analises@cintramedica.pt,,"Rua Bartolomeu Dias, nº 10 - lojas B,C,D",2735-068,Cacém,111122,União das freguesias de Agualva e Mira-Sintra,1111,Sintra,#N/A,#N/A,PT170,AML,
HC0394,Posto de Colheita Dr. Joaquim Chaves - Cacém,38.769600,-9.295160,1,0,0,0,214124300,geral@jcs.pt,,"Av. dos Bons Amigos, 2",2735-074,Cacém,111122,União das freguesias de Agualva e Mira-Sintra,1111,Sintra,11,Lisboa,PT170,AML,170459|170460|170461|170462|170561|170562|170642|170643|170644|170645|170647|170649|172500|172535|172551|172556|172557|172611|172621
HC0395,UCSP Agualva,38.774900,-9.294770,1,0,0,0,219140943,ucsp.agualva@arslvt.min-saude.pt,,Rua do Mercado de Agualva,2735-112,Agualva,111122,União das freguesias de Agualva e Mira-Sintra,1111,Sintra,11,Lisboa,PT170,AML,170463|170464|170465|170466|170467|170489|170627|170628|170629|170631|170632|170634|170635|170636|170637|170638|170639|170640
HC0396,UAG do ACES Sintra - Polo Olival (Armazém),38.769586,-9.308549,1,0,0,0,214398530,aces.sintra@arslvt.min-saude.pt,,"Rua do Olival, 13-15",2735-304,Cacém,111124,União das freguesias do Cacém e São Marcos,1111,Sintra,11,Lisboa,PT170,AML,170441|170442|170447|170449|170450|170451|170452|170495|170657|170677|170679|172522|172558|172578|172610
HC0397,UCSP Olival,38.769586,-9.308549,1,0,0,0,219138949|219138951,ucsp.olival@arslvt.min-saude.pt,,"Rua do Olival, 13-15",2735-304,Cacém,111124,União das freguesias do Cacém e São Marcos,1111,Sintra,11,Lisboa,PT170,AML,170441|170442|170447|170449|170450|170451|170452|170495|170657|170677|170679|172522|172558|172578|172610
HC0398,USF Flor de Lótus,38.769586,-9.308549,1,0,0,0,219138907,usf.flotus@arslvt.min-saude.pt,,"Rua do Olival, 13-15",2735-304,Cacém,111124,União das freguesias do Cacém e São Marcos,1111,Sintra,11,Lisboa,PT170,AML,170441|170442|170447|170449|170450|170451|170452|170495|170657|170677|170679|172522|172558|172578|172610
HC0399,USF Mira-Sintra,38.784724,-9.304209,1,0,0,0,219188520,usf.mirasintra@arslvt.min-saude.pt,,"Av. 25 de Abril, Lt. 246-250",2735-417,Mira Sintra,111122,União das freguesias de Agualva e Mira-Sintra,1111,Sintra,11,Lisboa,PT170,AML,170477|170478|170479|170480|170481|170482
HC0400,USF São Marcos,38.748197,-9.296113,1,0,0,0,214272710,usf.smarcos@arslvt.min-saude.pt,,"Rua Cidade Vitória, São Marcos",2735-654,Cacém,111124,União das freguesias do Cacém e São Marcos,1111,Sintra,11,Lisboa,PT170,AML,170721|170723|170725|170733|170735|170737|172475
HC0401,USF D. Maria I,38.755600,-9.252610,1,0,0,0,214350482,usf.dmariai@arslvt.min-saude.pt,,Rua Dom Fernando II,2745-107,Queluz,111126,União das freguesias de Queluz e Belas,1111,Sintra,11,Lisboa,PT170,AML,170927|170928|172063|172065|172066|172071|172073|172476|172495|172499
HC0402,UCSP Monte Abraão,38.763675,-9.259968,1,0,0,0,214309213,ucsp.monteabraao@arslvt.min-saude.pt,,"Av. da Liberdade, 36/37, 1º",2745-298,Queluz,111125,União das freguesias de Massamá e Monte Abraão,1111,Sintra,11,Lisboa,PT170,AML,170879|170881|170889|170891|170896|170897|170898|172528
HC0403,USF Monte da Luz,38.763675,-9.259968,1,0,0,0,214309201|214309209,usf.monteluz@arslvt.min-saude.pt,,"Av. da Liberdade, 36/37, 1º",2745-298,Queluz,111125,União das freguesias de Massamá e Monte Abraão,1111,Sintra,11,Lisboa,PT170,AML,170879|170881|170889|170891|170896|170897|170898|172528
HC0404,Posto de Colheita Germano de Sousa - Massamá,38.752900,-9.284020,1,0,0,0,214305149,fl.cmlgs@germanodesousa.com,,"Av. Américo Ferrer Lopes, nº 1",2745-714,Massamá,111125,União das freguesias de Massamá e Monte Abraão,1111,Sintra,11,Lisboa,PT170,AML,120520|170907|170909|170910|170965|171019|171020|171021|171022|172479|172496|172554
HC0405,ECL Sintra,38.752326,-9.274986,1,0,0,0,214398530,sintra.ecl@arslvt.min-saude.pt,,Rua Teixeira Pascoais,2745-852,Massamá,111125,União das freguesias de Massamá e Monte Abraão,1111,Sintra,11,Lisboa,PT170,AML,170857|170859|170860|170937|170939|172553
HC0406,Órgãos de Administração e Fiscalização do ACES Sintra,38.752326,-9.274986,1,0,0,0,214398530,aces.sintra@arslvt.min-saude.pt,,Rua Teixeira Pascoais,2745-852,Massamá,111125,União das freguesias de Massamá e Monte Abraão,1111,Sintra,11,Lisboa,PT170,AML,170857|170859|170860|170937|170939|172553
HC0407,Gabinete do Cidadão Sintra,38.752326,-9.274986,1,0,0,0,214398530,sintra.gc@arslvt.min-saude.pt,,Rua Teixeira Pascoais,2745-852,Massamá,111125,União das freguesias de Massamá e Monte Abraão,1111,Sintra,11,Lisboa,PT170,AML,170857|170859|170860|170937|170939|172553
HC0408,UAG do ACES Sintra,38.752326,-9.274986,1,0,0,0,214398530,aces.sintra@arslvt.min-saude.pt,,Rua Teixeira Pascoais,2745-852,Massamá,111125,União das freguesias de Massamá e Monte Abraão,1111,Sintra,11,Lisboa,PT170,AML,170857|170859|170860|170937|170939|172553
HC0409,Centro de Feridas Complexas Sintra,38.752326,-9.274986,1,0,0,0,214398530,feridascomplexas.sintra@arslvt.min-saude.pt,,Rua Teixeira Pascoais,2745-852,Massamá,111125,União das freguesias de Massamá e Monte Abraão,1111,Sintra,11,Lisboa,PT170,AML,170857|170859|170860|170937|170939|172553
HC0410,USF Mactamã,38.752326,-9.274986,1,0,0,0,214398531,usf.mactama@arslvt.min-saude.pt,,Rua Teixeira Pascoais,2745-852,Massamá,111125,União das freguesias de Massamá e Monte Abraão,1111,Sintra,11,Lisboa,PT170,AML,170857|170859|170860|170937|170939|172553
HC0411,UCSP Cascais - Polo Unidade de Saúde SCM Cascais,38.697300,-9.431820,1,0,0,0,214009009,usmc.secretariado@scmc.pt,,"Av. Pedro Álvares Cabral, 242 - Bairro do Rosário",2750-642,Cascais,110508,União das freguesias de Cascais e Estoril,1105,Cascais,11,Lisboa,PT170,AML,
HC0412,UCSP Cascais,38.702700,-9.421110,1,0,0,0,214824603|214824604,ucsp.cascais@arslvt.min-saude.pt,,Rua Padre Moisés da Silva,2754-528,Cascais,110508,União das freguesias de Cascais e Estoril,1105,Cascais,11,Lisboa,PT170,AML,050205|050207|050247|050249|050319|050419|050424
HC0413,USF Vila,38.702700,-9.421110,1,0,0,0,214824654,usf.vila@arslvt.min-saude.pt,,Rua Padre Moisés da Silva,2754-528,Cascais,110508,União das freguesias de Cascais e Estoril,1105,Cascais,11,Lisboa,PT170,AML,050205|050207|050247|050249|050319|050419|050424
HC0414,ECSCP Cascais,38.702700,-9.421110,1,0,0,0,214824601,ecscp.cascais@arslvt.min-saude.pt,,Rua Padre Moisés da Silva,2754-528,Cascais,110508,União das freguesias de Cascais e Estoril,1105,Cascais,11,Lisboa,PT170,AML,050205|050207|050247|050249|050319|050419|050424
HC0415,Posto de Colheita Germano de Sousa - São João do Estoril,38.699700,-9.380050,1,0,0,0,214672075|933002503,usf.sjestoril@arslvt.min-saude.pt,,"Rua Egas Moniz, 174-A e 174-B",2765-477,Estoril,110508,União das freguesias de Cascais e Estoril,1105,Cascais,11,Lisboa,PT170,AML,
HC0416,Órgãos de Administração e Fiscalização do ACES Cascais,38.698819,-9.381513,1,0,0,0,214643752,aces.cascais@arslvt.min-saude.pt,,"Rua Egas Moniz, 9010",2765-618,São João do Estoril,110508,União das freguesias de Cascais e Estoril,1105,Cascais,11,Lisboa,PT170,AML,
HC0417,Gabinete do Cidadão Cascais,38.698819,-9.381513,1,0,0,0,214643752,cascais.gc@arslvt.min-saude.pt,,"Rua Egas Moniz, 9010",2765-618,São João do Estoril,110508,União das freguesias de Cascais e Estoril,1105,Cascais,11,Lisboa,PT170,AML,
HC0418,UAG do ACES Cascais,38.698819,-9.381513,1,0,0,0,214643752,aces.cascais@arslvt.min-saude.pt,,"Rua Egas Moniz, 9010",2765-618,São João do Estoril,110508,União das freguesias de Cascais e Estoril,1105,Cascais,11,Lisboa,PT170,AML,
HC0419,CDP Cascais,38.698819,-9.381513,1,0,0,0,214643760,cdp.cascais@arslvt.min-saude.pt,,"Rua Egas Moniz, 9010",2765-618,São João do Estoril,110508,União das freguesias de Cascais e Estoril,1105,Cascais,11,Lisboa,PT170,AML,
HC0420,USF São João do Estoril,38.698819,-9.381513,1,0,0,0,214643738,usf.sjestoril@arslvt.min-saude.pt,,"Rua Egas Moniz, 9010",2765-618,São João do Estoril,110508,União das freguesias de Cascais e Estoril,1105,Cascais,11,Lisboa,PT170,AML,
HC0421,USF Marginal,38.698819,-9.381513,1,0,0,0,214643720,usf.marginal@arslvt.min-saude.pt,,"Rua Egas Moniz, 9010",2765-618,São João do Estoril,110508,União das freguesias de Cascais e Estoril,1105,Cascais,11,Lisboa,PT170,AML,
HC0422,USF Costa do Estoril,38.698819,-9.381513,1,0,0,0,214643713,usf.costadoestoril@arslvt.min-saude.pt,,"Rua Egas Moniz, 9010",2765-618,São João do Estoril,110508,União das freguesias de Cascais e Estoril,1105,Cascais,11,Lisboa,PT170,AML,
HC0423,USP Cascais,38.698819,-9.381513,1,0,0,0,214643722,usp.cascais@arslvt.min-saude.pt,,"Rua Egas Moniz, 9010",2765-618,São João do Estoril,110508,União das freguesias de Cascais e Estoril,1105,Cascais,11,Lisboa,PT170,AML,
HC0424,Posto de Colheita Labocentro - Paço de Arcos,38.693700,-9.297470,1,0,0,0,210129276|961773477,covid19@clarasaude.pt|geral@labocentro.pt,,"Rua Marquês Fronteira, 4 - B",2770-123,Paço de Arcos,111014,"União das freguesias de Oeiras e São Julião da Barra, Paço de Arcos e Caxias",1110,Oeiras,11,Lisboa,PT170,AML,120883|120884|120885|120915
HC0425,UCSP Paço de Arcos,38.700407,-9.295015,1,0,0,0,214540800,ucsp.parcos@arslvt.min-saude.pt,,Av. António Bernardo Cabral Macedo,2770-219,Paço de Arcos,111014,"União das freguesias de Oeiras e São Julião da Barra, Paço de Arcos e Caxias",1110,Oeiras,11,Lisboa,PT170,AML,120607|120608|120687|120765|120767|120768|120891|120894|121243|121310|121311
HC0426,USP Lisboa Ocidental e Oeiras - Paço de Arcos (Sede),38.700407,-9.295015,1,0,0,0,214540814,usp.lxocidoeiras@arslvt.min-saude.pt,,Av. António Bernardo Cabral Macedo,2770-219,Paço de Arcos,111014,"União das freguesias de Oeiras e São Julião da Barra, Paço de Arcos e Caxias",1110,Oeiras,11,Lisboa,PT170,AML,120607|120608|120687|120765|120767|120768|120891|120894|121243|121310|121311
HC0427,USF Kosmus,38.697500,-9.357200,1,0,0,0,214547051|214547052,usf.kosmus@arslvt.min-saude.pt,,"Rua José Elias Garcia, 1057",2775-218,Parede,110507,União das freguesias de Carcavelos e Parede,1105,Cascais,11,Lisboa,PT170,AML,050471|050481|050482|050483|050484|050491|050492
HC0428,USF Mare,38.697500,-9.357200,1,0,0,0,214547008|214547009,usf.mare@arslvt.min-saude.pt,,"Rua José Elias Garcia, 1057",2775-218,Parede,110507,União das freguesias de Carcavelos e Parede,1105,Cascais,11,Lisboa,PT170,AML,050471|050481|050482|050483|050484|050491|050492
HC0429,Posto de Colheita Germano de Sousa - Parede,38.690200,-9.355010,1,0,0,0,211649079,ucsp.parede@arslvt.min-saude.pt,,"Av. da República, 1289, Loja 14",2775-274,Parede,110507,União das freguesias de Carcavelos e Parede,1105,Cascais,11,Lisboa,PT170,AML,050039|050040|050041|050043|050047|050049|050051
HC0430,USF Carcavelos,38.696536,-9.334634,1,0,0,0,212400001,usf.carcavelos@arslvt.min-saude.pt,,"Rua Jacinto Isidoro de Sousa, Quinta do Barão",2775-713,Carcavelos,110507,União das freguesias de Carcavelos e Parede,1105,Cascais,11,Lisboa,PT170,AML,
HC0431,Órgãos de Administração e Fiscalização do ACES Lisboa Ocidental e Oeiras,38.693291,-9.317839,1,0,0,0,214400100,aces.lxocidoeiras@arslvt.min-saude.pt,,Av. Salvador Allende,2780-163,Oeiras,111014,"União das freguesias de Oeiras e São Julião da Barra, Paço de Arcos e Caxias",1110,Oeiras,11,Lisboa,PT170,AML,120819|120829|120830|121203
HC0432,Gabinete do Cidadão Lisboa Ocidental e Oeiras,38.693291,-9.317839,1,0,0,0,214400100,lxocidoeiras.gc@arslvt.min-saude.pt,,Av. Salvador Allende,2780-163,Oeiras,111014,"União das freguesias de Oeiras e São Julião da Barra, Paço de Arcos e Caxias",1110,Oeiras,11,Lisboa,PT170,AML,120819|120829|120830|121203
HC0433,UAG do ACES Lisboa Ocidental e Oeiras,38.693291,-9.317839,1,0,0,0,214400100,aces.lxocidoeiras@arslvt.min-saude.pt,,Av. Salvador Allende,2780-163,Oeiras,111014,"União das freguesias de Oeiras e São Julião da Barra, Paço de Arcos e Caxias",1110,Oeiras,11,Lisboa,PT170,AML,120819|120829|120830|121203
HC0434,UCC Saúdar,38.693291,-9.317839,1,0,0,0,214400103,ucc.saudar@arslvt.min-saude.pt,,Av. Salvador Allende,2780-163,Oeiras,111014,"União das freguesias de Oeiras e São Julião da Barra, Paço de Arcos e Caxias",1110,Oeiras,11,Lisboa,PT170,AML,120819|120829|120830|121203
HC0435,USF Conde de Oeiras,38.693291,-9.317839,1,0,0,0,214410132,usf.coeiras@arslvt.min-saude.pt,,Av. Salvador Allende,2780-163,Oeiras,111014,"União das freguesias de Oeiras e São Julião da Barra, Paço de Arcos e Caxias",1110,Oeiras,11,Lisboa,PT170,AML,120819|120829|120830|121203
HC0436,USF São Julião de Oeiras,38.693291,-9.317839,1,0,0,0,214400160,usf.sjuliao@arslvt.min-saude.pt,,Av. Salvador Allende,2780-163,Oeiras,111014,"União das freguesias de Oeiras e São Julião da Barra, Paço de Arcos e Caxias",1110,Oeiras,11,Lisboa,PT170,AML,120819|120829|120830|121203
HC0437,USF Oeiras,38.693291,-9.317839,1,0,0,0,214410138,usf.oeiras@arslvt.min-saude.pt,,Av. Salvador Allende,2780-163,Oeiras,111014,"União das freguesias de Oeiras e São Julião da Barra, Paço de Arcos e Caxias",1110,Oeiras,11,Lisboa,PT170,AML,120819|120829|120830|121203
HC0438,Posto de Colheita Laboratório Dra. Maria Leonor Barreira - Oeiras II,38.698800,-9.300060,1,0,0,0,211314093,laboratorio@topcare.pt,,"Rua A Gazeta de Oeiras, nº 12 A",2780-171,Oeiras,111014,"União das freguesias de Oeiras e São Julião da Barra, Paço de Arcos e Caxias",1110,Oeiras,11,Lisboa,PT170,AML,120751|120752|120753|120754|120755|120756|120757|120758|120759|120760|120849|120850|121267|121268
HC0439,UCSP São Domingos de Rana,38.713900,-9.336170,1,0,0,0,214489620,ucsp.sdrana@arslvt.min-saude.pt,,Rua Nova Aliança,2785-289,São Domingos de Rana,110506,São Domingos de Rana,1105,Cascais,11,Lisboa,PT170,AML,
HC0440,USF Emergir,38.713900,-9.336170,1,0,0,0,214489630|214489640,usf.emergir@arslvt.min-saude.pt,,Rua Nova Aliança,2785-289,São Domingos de Rana,110506,São Domingos de Rana,1105,Cascais,11,Lisboa,PT170,AML,
HC0441,USF São Domingos de Gusmão,38.713900,-9.336170,1,0,0,0,214489650|214489660,usf.sdgusmao@arslvt.min-saude.pt,,Rua Nova Aliança,2785-289,São Domingos de Rana,110506,São Domingos de Rana,1105,Cascais,11,Lisboa,PT170,AML,
HC0442,USF Ilumina,38.713900,-9.336170,1,0,0,0,214489670,usf.ilumina@arslvt.min-saude.pt,,Rua Nova Aliança,2785-289,São Domingos de Rana,110506,São Domingos de Rana,1105,Cascais,11,Lisboa,PT170,AML,
HC0443,USF Lusa,38.728206,-9.238358,1,0,0,0,210171290,usf.lusa@arslvt.min-saude.pt,,"Rua Manuel Teixeira Gomes, s/n",2790-102,Carnaxide,111013,União das freguesias de Carnaxide e Queijas,1110,Oeiras,11,Lisboa,PT170,AML,120039|120040|120041|120042|120043|120044|120101|120103|120415|120473|120474|120477|120479
HC0444,USF Carnaxide,38.728206,-9.238358,1,0,0,0,210171519,usf.carnaxide@arslvt.min-saude.pt,,"Rua Manuel Teixeira Gomes, s/n",2790-102,Carnaxide,111013,União das freguesias de Carnaxide e Queijas,1110,Oeiras,11,Lisboa,PT170,AML,120039|120040|120041|120042|120043|120044|120101|120103|120415|120473|120474|120477|120479
HC0445,URAP Lisboa Ocidental e Oeiras - Polo Carnaxide,38.728206,-9.238358,1,0,0,0,210171519,urap.lxocidoeiras@arslvt.min-saude.pt,,"Rua Manuel Teixeira Gomes, s/n",2790-102,Carnaxide,111013,União das freguesias de Carnaxide e Queijas,1110,Oeiras,11,Lisboa,PT170,AML,120039|120040|120041|120042|120043|120044|120101|120103|120415|120473|120474|120477|120479
HC0446,Posto de Colheita Synlab - Linda-a-Velha,38.713100,-9.237200,1,0,0,0,214145621|300023061,posto.carolina-michaelis@synlab.pt,,"Av. Carolina Michaelis, 24 B, r/c",2795-049,Linda-a-Velha,111012,"União das freguesias de Algés, Linda-a-Velha e Cruz Quebrada-Dafundo",1110,Oeiras,11,Lisboa,PT170,AML,120176|120237|120238|120239|120240|120353|120354|120355|120356|120357|120358|120397|121051|121057|121257|121259|121261|121278
HC0447,USF Jardim dos Plátanos,38.715334,-9.234747,1,0,0,0,214205110,usf.jplatanos@arslvt.min-saude.pt,,"Largo Prof. Fernando da Fonseca, nº 10, Piso 1",2799-534,Linda-a-Velha,111012,"União das freguesias de Algés, Linda-a-Velha e Cruz Quebrada-Dafundo",1110,Oeiras,11,Lisboa,PT170,AML,120176|120177|120178|120235|120237|120238|120239|120240|120359|120397|121065|121066|121067|121069|121081|121093|121257|121278
HC0448,USF Linda-a-Velha,38.715334,-9.234747,1,0,0,0,214153920,usf.lvelha@arslvt.min-saude.pt,,"Largo Prof. Fernando da Fonseca, nº 10",2799-534,Linda-a-Velha,111012,"União das freguesias de Algés, Linda-a-Velha e Cruz Quebrada-Dafundo",1110,Oeiras,11,Lisboa,PT170,AML,120176|120177|120178|120235|120237|120238|120239|120240|120359|120397|121065|121066|121067|121069|121081|121093|121257|121278
HC0449,URAP Almada-Seixal - Polo Almada II,38.678393,-9.158798,0,0,1,0,212735140|966518390,urap.almadaseixal@arslvt.min-saude.pt,,"Rua Francisco Xavier de Noronha, nº 16 1º e 2º Andar",2800-088,Almada,150312,"União das freguesias de Almada, Cova da Piedade, Pragal e Cacilhas",1503,Almada,15,Setúbal,PT170,AML,020047|020049|020057|020058|020059|020085|020107|020117|020203|020399|021068
HC0450,"UCC de Almada ""A Outra Margem""",38.678393,-9.158798,0,0,1,0,212735148,ucc.almada@arslvt.min-saude.pt,,"Rua Francisco Xavier de Noronha, nº 16 1º e 2º Andar",2800-088,Almada,150312,"União das freguesias de Almada, Cova da Piedade, Pragal e Cacilhas",1503,Almada,15,Setúbal,PT170,AML,020047|020049|020057|020058|020059|020085|020107|020117|020203|020399|021068
HC0451,Posto de Colheita Egas Moniz - Almada,38.678300,-9.153650,0,0,1,0,212946851|212720830|968272626,asclegasmoniz@egasmoniz.edu.pt,,"Rua D. João IV, nº 23 A",2800-114,Almada,150312,"União das freguesias de Almada, Cova da Piedade, Pragal e Cacilhas",1503,Almada,15,Setúbal,PT170,AML,020057|020058|020059|020109|020110|020111|020112|020401|021065|021066
HC0452,Posto de Colheita Germano de Sousa - Almada,38.668600,-9.163620,0,0,1,0,932007691,covid19.almada@germanodesousa.com,,"Rua Capitão Leitão, nº 47 C",2800-136,Almada,150312,"União das freguesias de Almada, Cova da Piedade, Pragal e Cacilhas",1503,Almada,15,Setúbal,PT170,AML,020071|020072|020099|020100|020119|020283|020284|020285|020286|020287|021013|021019
HC0453,Posto de Colheita Germano de Sousa - Almada II,38.674700,-9.162130,0,0,1,0,212729310|212721610,aces.almadaseixal@arslvt.min-saude.pt,,"Rua Nuno Alvares Botelho, n.º 22 C",2800-179,Almada,150312,"União das freguesias de Almada, Cova da Piedade, Pragal e Cacilhas",1503,Almada,15,Setúbal,PT170,AML,020063|020064|020065|020066|020067|020081|020083|020103|020104|020105|020106|020117|020743|020744|020745|020746|020747|020748|020749|020750
HC0454,Posto de Colheita Laboratório Juvenal Sobral - Almada - Pragal,38.672800,-9.174080,0,0,1,0,212729450,laboratorio@juvenalsobral.pt,,"Rua Direita, 10 - Pragal",2800-682,Almada,150312,"União das freguesias de Almada, Cova da Piedade, Pragal e Cacilhas",1503,Almada,15,Setúbal,PT170,AML,020001|020003|020277|020289|020290|020291|020755|020756|020759|020760|020941|021064
HC0455,CDP Almada,38.673800,-9.162290,0,0,1,0,212739210|212739211|966522063,cdp.almada@arslvt.min-saude.pt,,Rua Terras Cortes Reais,2805-021,Almada,150312,"União das freguesias de Almada, Cova da Piedade, Pragal e Cacilhas",1503,Almada,15,Setúbal,PT170,AML,020063|020064|020065|020066|020067|020081|020103|020104|020105|020106|020743|020744|020745|020746|020747|020748|020749|020750
HC0456,Posto de Colheita Germano de Sousa - Almada - Hosp. Particular de Almada,38.675400,-9.154550,0,0,1,0,910221646,marcartestescovid@hpa.pt,,"Rua Manuel Febrero, 85",2805-192,Almada,150312,"União das freguesias de Almada, Cova da Piedade, Pragal e Cacilhas",1503,Almada,15,Setúbal,PT170,AML,020057|020109|020110|020497|020535|020538|021065|021066
HC0457,USF São João do Pragal,38.670300,-9.171030,0,0,1,0,212725530,usf.pragal@arslvt.min-saude.pt,,"Rua Abel Salazar, 11",2805-313,Almada,150312,"União das freguesias de Almada, Cova da Piedade, Pragal e Cacilhas",1503,Almada,15,Setúbal,PT170,AML,020279|020280|020753|029006|029808|029809
HC0458,USP Almada-Seixal - Almada (Sede),38.677705,-9.153872,0,0,1,0,212728820,usp.almadaseixal@arslvt.min-saude.pt,,"Av. Rainha D. Leonor, nº 2 - 5º",2809-010,Almada,150312,"União das freguesias de Almada, Cova da Piedade, Pragal e Cacilhas",1503,Almada,15,Setúbal,PT170,AML,020057|020058|020059|020109|020110|020111|020112|021065|021066
HC0459,Centro de Vacinação Internacional | Almada-Seixal,38.677705,-9.153872,0,0,1,0,212728820,usp.almadaseixal@arslvt.min-saude.pt,,"Av. Rainha D. Leonor, nº 2, 5.º piso",2809-010,Almada,150312,"União das freguesias de Almada, Cova da Piedade, Pragal e Cacilhas",1503,Almada,15,Setúbal,PT170,AML,020057|020058|020059|020109|020110|020111|020112|021065|021066
HC0460,USF Almada,38.677705,-9.153872,0,0,1,0,212728833|212728834,usf.almada@arslvt.min-saude.pt,,"Av. Rainha D. Leonor, nº 2 - 2º",2809-010,Almada,150312,"União das freguesias de Almada, Cova da Piedade, Pragal e Cacilhas",1503,Almada,15,Setúbal,PT170,AML,020057|020058|020059|020109|020110|020111|020112|021065|021066
HC0461,Via Verde Saúde Almada | Atendimento a Utentes sem Equipa de Saúde Familiar,38.677705,-9.153872,0,0,1,0,212728800,vvsaude.almada@arslvt.min-saude.pt,,"Av. Rainha D. Leonor, nº 2",2809-010,Almada,150312,"União das freguesias de Almada, Cova da Piedade, Pragal e Cacilhas",1503,Almada,15,Setúbal,PT170,AML,020057|020058|020059|020109|020110|020111|020112|021065|021066
HC0462,USF Cova da Piedade,38.677705,-9.153872,0,0,1,0,212738410|212738415,usf.cpiedade@arslvt.min-saude.pt,,"Av. Rainha D. Leonor, nº 2 - 7º",2809-010,Almada,150312,"União das freguesias de Almada, Cova da Piedade, Pragal e Cacilhas",1503,Almada,15,Setúbal,PT170,AML,020057|020058|020059|020109|020110|020111|020112|021065|021066
HC0463,USF Feijó,38.653700,-9.155800,0,0,1,0,212586751,usf.feijo@arslvt.min-saude.pt,,"Rua António Gonçalves, 1 - Feijó",2810-186,Laranjeiro,150315,União das freguesias de Laranjeiro e Feijó,1503,Almada,15,Setúbal,PT170,AML,020507|020508|020509|020510|020681|020682|020691|020693|020859|020865
HC0464,USF Saúde Laranjeiro,38.653700,-9.155800,0,0,1,0,212586700,usf.slaranjeiro@arslvt.min-saude.pt,,"Rua António Gonçalves, 1, r/c - Feijó",2810-186,Laranjeiro,150315,União das freguesias de Laranjeiro e Feijó,1503,Almada,15,Setúbal,PT170,AML,020507|020508|020509|020510|020681|020682|020691|020693|020859|020865
HC0465,Via Verde Saúde Laranjeiro | Atendimento a Utentes sem Equipa de Saúde Familiar,38.653700,-9.155800,0,0,1,0,212586701,vvsaude.laranjeiro@arslvt.min-saude.pt,,"Rua António Gonçalves, 1 - Feijó",2810-186,Laranjeiro,150315,União das freguesias de Laranjeiro e Feijó,1503,Almada,15,Setúbal,PT170,AML,020507|020508|020509|020510|020681|020682|020691|020693|020859|020865
HC0466,ECSCP Almada-Seixal,38.655947,-9.152534,0,0,1,0,966517951,ecscp.almadaseixal@arslvt.min-saude.pt,,"Rua Luís de Camões, nº 14",2810-252,Almada,150315,União das freguesias de Laranjeiro e Feijó,1503,Almada,15,Setúbal,PT170,AML,020681|020682|020689|020691|020693|020859
HC0467,USF Sobreda,38.642300,-9.193840,0,0,1,0,212947010,usf.sobreda@arslvt.min-saude.pt,,Rua Movimento das Forças Armadas,2815-786,Sobreda,150314,União das freguesias de Charneca de Caparica e Sobreda,1503,Almada,15,Setúbal,PT170,AML,020709|020710|020711|020712
HC0468,USF Charneca do Sol,38.626900,-9.199320,0,0,1,0,212978710|212978711|212978712,usf.charnecasol@arslvt.min-saude.pt,,"Rua Henrique Santana, 20",2820-225,Charneca da Caparica,150314,União das freguesias de Charneca de Caparica e Sobreda,1503,Almada,15,Setúbal,PT170,AML,020163|020164|020165|020166|020186|020331|020332|020849|020850|020851|020852
HC0469,USF Nova Caparica,38.626900,-9.199320,0,0,1,0,212978700,usf.novacaparica@arslvt.min-saude.pt,,"Rua Henrique Santana, 20",2820-225,Charneca da Caparica,150314,União das freguesias de Charneca de Caparica e Sobreda,1503,Almada,15,Setúbal,PT170,AML,020163|020164|020165|020166|020186|020331|020332|020849|020850|020851|020852
HC0470,Posto de Colheita Dr. Joaquim Chaves - Charneca da Caparica,38.615400,-9.197060,0,0,1,0,214124300,geral@jcs.pt,,"Rua Marco Cabaço, 22 A",2820-644,Charneca da Caparica,150314,União das freguesias de Charneca de Caparica e Sobreda,1503,Almada,15,Setúbal,PT170,AML,020793|020794|020951|020952|021060|021061
HC0471,URAP Almada-Seixal - Polo Monte da Caparica,38.669569,-9.188159,0,0,1,0,212946960|212946961,usf.poente@arslvt.min-saude.pt,,Rua São Lourenço Poente,2825-023,Monte da Caparica,150313,União das freguesias de Caparica e Trafaria,1503,Almada,15,Setúbal,PT170,AML,020255|020256|020257|020258|020265|020266|020653|021005|021006
HC0472,USF Vista Tejo,38.669569,-9.188159,0,0,1,0,212946960/1,usf.vistatejo@arslvt.min-saude.pt,,Rua São Lourenço Poente,2825-023,Monte da Caparica,150313,União das freguesias de Caparica e Trafaria,1503,Almada,15,Setúbal,PT170,AML,020255|020256|020257|020258|020265|020266|020653|021005|021006
HC0473,USF Poente,38.669569,-9.188159,0,0,1,0,212945858,usf.poente@arslvt.min-saude.pt,,Rua São Lourenço Poente,2825-023,Monte da Caparica,150313,União das freguesias de Caparica e Trafaria,1503,Almada,15,Setúbal,PT170,AML,020255|020256|020257|020258|020265|020266|020653|021005|021006
HC0474,Posto de Colheita Affidea - Costa da Caparica,38.644800,-9.235650,0,0,1,0,212901785,hormofuncional@affidea.pt,,"Av. da República, nº 6",2825-399,Costa da Caparica,150303,Costa da Caparica,1503,Almada,15,Setúbal,PT170,AML,020437|020438|020439|020440|020639|020661|020665|020703|020733|020737
HC0475,Posto de Colheita Labocentro - Amora,38.650600,-9.233630,0,0,1,0,210129276|961773477,covid19@clarasaude.pt|geral@labocentro.pt,,"Rua Sociedade Filarmónica Operária Amorense, 28-A",2825-469,Amora,151002,Amora,1510,Seixal,15,Setúbal,PT170,AML,020451|020452|020453|020454|020455|020456|020467|029005
HC0476,USF Costa do Mar,38.644600,-9.237290,0,0,1,0,212918510,usf.costamar@arslvt.min-saude.pt,,Av. 1º Maio - Edifício Casa dos Pescadores,2829-501,Costa da Caparica,150303,Costa da Caparica,1503,Almada,15,Setúbal,PT170,AML,020005|020007|020437|020438|020439|020440|020992
HC0477,Posto de Colheita Egas Moniz - Caparica,38.643200,-9.183990,0,0,1,0,212946851|212946816|968272626,asclegasmoniz@egasmoniz.edu.pt,,"Campus Universitário, Qta da Granja, Monte de Caparica",2829-511,Caparica,150313,União das freguesias de Caparica e Trafaria,1503,Almada,15,Setúbal,PT170,AML,020141|020142|020143|020144|020589|020590
HC0478,Posto de Colheita Germano de Sousa - Barreiro Centro,38.656400,-9.068190,0,0,0,1,218243217|932189311,KX.cmlgs@germanodesousa.com,,"Av. de Santa Maria, nº 12 B",2830-007,Barreiro,150409,"União das freguesias de Alto do Seixalinho, Santo André e Verderena",1504,Barreiro,15,Setúbal,PT170,AML,040007|040077|040081|040123|040139|040140|040141|040142|040155|040202|040203
HC0479,Posto de Colheita Labocentro - Barreiro,38.657000,-9.066450,0,0,0,1,210129276|961773477,covid19@clarasaude.pt|geral@labocentro.pt,,"Rua 1º de Dezembro, 31 B",2830-089,Barreiro,150409,"União das freguesias de Alto do Seixalinho, Santo André e Verderena",1504,Barreiro,15,Setúbal,PT170,AML,040007|040077|040081|040155
HC0480,URAP Arco Ribeirinho - Barreiro (Sede),38.644072,-9.052800,0,0,0,1,212349320,urap.geral.brr@arslvt.min-saude.pt,,"Rua Jornal Heraldo, s/n - Quinta da Lomba",2830-195,Barreiro,150409,"União das freguesias de Alto do Seixalinho, Santo André e Verderena",1504,Barreiro,15,Setúbal,PT170,AML,
HC0481,USF Ribeirinha,38.654839,-9.077775,0,0,0,1,212069900,usf.ribeirinha@arslvt.min-saude.pt,,"Av. da Liberdade, Terminal Rodo-Ferro-Fluvial do Barreiro, Lote A4, 1º Piso - Edifício Pingo Doce",2830-245,Barreiro,150409,"União das freguesias de Alto do Seixalinho, Santo André e Verderena",1504,Barreiro,15,Setúbal,PT170,AML,40013
HC0482,USF Eça,38.663315,-9.079108,0,0,0,1,212069612,usf.eca@arslvt.min-saude.pt,,"Rua Eça de Queirós, 38",2830-344,Barreiro,150410,União das freguesias de Barreiro e Lavradio,1504,Barreiro,15,Setúbal,PT170,AML,040079|040080
HC0483,Posto de Colheita Labocentro - Barreiro - Santo André,39.360200,-9.386280,0,0,0,1,210129276|961773477,covid19@clarasaude.pt|geral@labocentro.pt,,"Rua Dr. Luís Sá - Quinta Francisco Rodrigues, 26 A",2830-511,Barreiro,150409,"União das freguesias de Alto do Seixalinho, Santo André e Verderena",1504,Barreiro,15,Setúbal,PT170,AML,
HC0484,Posto de Colheita Germano de Sousa - Baixa da Banheira,38.655600,-9.044280,0,0,0,1,212042685,tx.cmlgs@germanodesousa.com,,"Rua Guerra Junqueiro, 10 A",2835-128,Baixa da Banheira,150607,União das freguesias de Baixa da Banheira e Vale da Amoreira,1506,Moita,15,Setúbal,PT170,AML,040021|090235|090236|090237|090238|090239|090240
HC0485,USF Querer Mais,38.650161,-9.038274,0,0,0,1,212029045,usf.querermais@arslvt.min-saude.pt,,Rua João Villaret,2835-254,Vale da Amoreira,150607,União das freguesias de Baixa da Banheira e Vale da Amoreira,1506,Moita,15,Setúbal,PT170,AML,090219|090220|090221|090223|090224|090231|090249|090255|090261|090262|090273
HC0486,Posto de Colheita Germano de Sousa - Lavradio,38.666300,-9.053450,0,0,0,1,211367797,zu.cmlgs@germanodesousa.com,,"Av. Joaquim José Fernandes, 21 A",2835-374,Lavradio,150410,União das freguesias de Barreiro e Lavradio,1504,Barreiro,15,Setúbal,PT170,AML,
HC0487,Órgãos de Administração e Fiscalização do ACES Arco Ribeirinho,38.669539,-9.053028,0,0,0,1,212059300,aces.arcoribeirinho@arslvt.min-saude.pt,,Rua D. José Cárcomo Lobo,2835-423,Lavradio,150410,União das freguesias de Barreiro e Lavradio,1504,Barreiro,15,Setúbal,PT170,AML,
HC0488,Gabinete do Cidadão Arco Ribeirinho,38.669539,-9.053028,0,0,0,1,212059332,arcoribeirinho.gc@arslvt.min-saude.pt,,Rua D. José Cárcomo Lobo,2835-423,Lavradio,150410,União das freguesias de Barreiro e Lavradio,1504,Barreiro,15,Setúbal,PT170,AML,
HC0489,UAG do ACES Arco Ribeirinho,38.669539,-9.053028,0,0,0,1,212059300,aces.arcoribeirinho@arslvt.min-saude.pt,,Rua D. José Cárcomo Lobo,2835-423,Lavradio,150410,União das freguesias de Barreiro e Lavradio,1504,Barreiro,15,Setúbal,PT170,AML,
HC0490,CDP Arco Ribeirinho,38.669539,-9.053028,0,0,0,1,212059300,aces.arcoribeirinho@arslvt.min-saude.pt,,Rua D. José Cárcomo Lobo,2835-423,Lavradio,150410,União das freguesias de Barreiro e Lavradio,1504,Barreiro,15,Setúbal,PT170,AML,
HC0491,ECL Arco Ribeirinho,38.669539,-9.053028,0,0,0,1,212059300,ecl.arcoribeirinho@arslvt.min-saude.pt,,Rua D. José Cárcomo Lobo,2835-423,Lavradio,150410,União das freguesias de Barreiro e Lavradio,1504,Barreiro,15,Setúbal,PT170,AML,
HC0492,USF Lavradio,38.669539,-9.053028,0,0,0,1,212059310,usf.lavradio@arslvt.min-saude.pt,,Rua D. José Cárcomo Lobo,2835-423,Lavradio,150410,União das freguesias de Barreiro e Lavradio,1504,Barreiro,15,Setúbal,PT170,AML,
HC0493,USP Arco Ribeirinho - Lavradio (Sede),38.669539,-9.053028,0,0,0,1,212349320,usp.arcoribeirinho@arslvt.min-saude.pt,,Rua D. José Cárcomo Lobo,2835-423,Lavradio,150410,União das freguesias de Barreiro e Lavradio,1504,Barreiro,15,Setúbal,PT170,AML,
HC0494,USF Santo António da Charneca,38.632515,-9.033452,0,0,0,1,212410400|212410401,usf.stantonio@arslvt.min-saude.pt,,"Rua 6, s/n - Cidade do Sol - Santo António da Charneca",2835-511,Barreiro,150407,Santo António da Charneca,1504,Barreiro,15,Setúbal,PT170,AML,
HC0495,Posto de Colheita Instituto Politécnico Setúbal - Barreiro,38.651600,-9.047920,0,0,0,1,212064660|931126889,covid.lab@ips.pt,,Rua Américo da Silva Marinho,2839-001,Lavradio,150410,União das freguesias de Barreiro e Lavradio,1504,Barreiro,15,Setúbal,PT170,AML,040163|040167|090243|090275
HC0496,Posto de Colheita Labocentro - Seixal,38.642200,-9.107050,0,0,1,0,210129276|961773477,covid19@clarasaude.pt|geral@labocentro.pt,,"Rua Sociedade União Seixalense, 6",2840-125,Seixal,151007,"União das freguesias do Seixal, Arrentela e Aldeia de Paio Pires",1510,Seixal,15,Setúbal,PT170,AML,140241|140243|140285|140287|140288
HC0497,USF Pinhal de Frades,38.600800,-9.096940,0,0,1,0,212260070|212274300,usf.pinhalfrades@arslvt.min-saude.pt,,"Travessa das Pereiras, 1 - Pinhal Frades",2840-354,Seixal,151007,"União das freguesias do Seixal, Arrentela e Aldeia de Paio Pires",1510,Seixal,15,Setúbal,PT170,AML,140427|140429|140439|140441
HC0498,USF Torre da Marinha,38.618548,-9.097560,0,0,1,0,212274330,usf.torre@arslvt.min-saude.pt,,Rua Distrito Lobato - Quinta de Cima,2840-378,Seixal,151007,"União das freguesias do Seixal, Arrentela e Aldeia de Paio Pires",1510,Seixal,15,Setúbal,PT170,AML,140319|140320|140321|140322
HC0499,Posto de Colheita Labocentro - Torre da Marinha,38.617900,-9.102320,0,0,1,0,210129276|961773477,covid19@clarasaude.pt|geral@labocentro.pt,,"Rua Gil Vicente, 5-Cave",2840-437,Torre da Marinha,151007,"União das freguesias do Seixal, Arrentela e Aldeia de Paio Pires",1510,Seixal,15,Setúbal,PT170,AML,140045|140046|140047|140048|140049|140050|140317|140318|140319|140320|140321|140322
HC0500,USF Cuidar Saúde,38.640600,-9.100990,0,0,1,0,212277191,usf.cuidarsaude@arslvt.min-saude.pt,,Largo da Mundet - Bairro Novo,2840-481,Seixal,151007,"União das freguesias do Seixal, Arrentela e Aldeia de Paio Pires",1510,Seixal,15,Setúbal,PT170,AML,140065|140066|140067|140068|140069|140070|140579|140580|140671|140679
HC0501,USF CSI-Seixal,38.640600,-9.100990,0,0,1,0,212277183,usf.csiseixal@arslvt.min-saude.pt,,Largo da Mundet - Bairro Novo,2840-481,Seixal,151007,"União das freguesias do Seixal, Arrentela e Aldeia de Paio Pires",1510,Seixal,15,Setúbal,PT170,AML,140065|140066|140067|140068|140069|140070|140579|140580|140671|140679
HC0502,Posto de Colheita Germano de Sousa - Seixal,38.616100,-9.097800,0,0,1,0,931393886,---,,"Rua Quinta Nossa Senhora Monte Sião, nº 1, Torre da Marinha",2840-614,Seixal,151007,"União das freguesias do Seixal, Arrentela e Aldeia de Paio Pires",1510,Seixal,15,Setúbal,PT170,AML,140321|140322|140323|140324
HC0503,Posto de Colheita Germano de Sousa - Cruz de Pau,38.613500,-9.124720,0,0,1,0,212241552,mn.cmlgs@germanodesousa.com,,"Rua dos Foros da Amora, 6A",2845-004,Amora,151002,Amora,1510,Seixal,15,Setúbal,PT170,AML,140203|140204|140205|140206|140207|140208
HC0504,USF Rosinha,38.629700,-9.116910,0,0,1,0,212273500,usf.rosinha@arslvt.min-saude.pt,,Largo da Rosinha,2845-422,Amora,151002,Amora,1510,Seixal,15,Setúbal,PT170,AML,140143|140144|140149|140150|140153|140154|140217|140218|140297|140309|140310|140311|140345|149000
HC0505,Órgãos de Administração e Fiscalização do ACES Almada / Seixal,38.627604,-9.113684,0,0,1,0,212274203,aces.almadaseixal@arslvt.min-saude.pt,,"Rua Dona Branca Saraiva de Carvalho, 9C",2845-452,Amora,151002,Amora,1510,Seixal,15,Setúbal,PT170,AML,140145|140147|140148|140311|140345
HC0506,UAG do ACES Almada / Seixal,38.627604,-9.113684,0,0,1,0,212274203,aces.almadaseixal@arslvt.min-saude.pt,,"Rua Dona Branca Saraiva de Carvalho, 9C",2845-452,Amora,151002,Amora,1510,Seixal,15,Setúbal,PT170,AML,140145|140147|140148|140311|140345
HC0507,UCSP Amora,38.627604,-9.113684,0,0,1,0,212274200,ucsp.amora@arslvt.min-saude.pt,,"Rua Dona Branca Saraiva de Carvalho, 9C",2845-452,Amora,151002,Amora,1510,Seixal,15,Setúbal,PT170,AML,140145|140147|140148|140311|140345
HC0508,Posto de Colheita Affidea - Corroios,38.638500,-9.153760,0,0,1,0,212544862,hormofuncional@affidea.pt,,"Rua Cidade de Almada, 20 A",2855-117,Corroios,151005,Corroios,1510,Seixal,15,Setúbal,PT170,AML,140349|140350|140351|140352|140389|140689|140690|140691|140693|140694|140771|140772
HC0509,ECL Almada / Seixal,38.645431,-9.147424,0,0,1,0,212274203,almadaseixal.ecl@arslvt.min-saude.pt,,Rua dos Catos - Quinta do Brasileiro,2855-207,Corroios,151005,Corroios,1510,Seixal,15,Setúbal,PT170,AML,140721|140722|140723|140724|140725|140726|140755
HC0510,USF Servir Saúde,38.645431,-9.147424,0,0,1,0,212556400,usf.servirsaude@arslvt.min-saude.pt,,Rua dos Catos - Quinta do Brasileiro,2855-207,Corroios,151005,Corroios,1510,Seixal,15,Setúbal,PT170,AML,140721|140722|140723|140724|140725|140726|140755
HC0511,URAP Almada-Seixal - Polo Santa Marta do Pinhal,38.633066,-9.151340,0,0,1,0,212548354,usf.st.martapinhal@arslvt.min-saude.pt,,"Av. Vieira da Silva, Santa Marta do Pinhal",2855-697,Corroios,151005,Corroios,1510,Seixal,15,Setúbal,PT170,AML,140637|140638|140639|140640|140773|140774
HC0512,Via Verde Saúde Seixal | Atendimento a Utentes sem Equipa de Saúde Familiar,38.633066,-9.151340,0,0,1,0,960481185,vvsaude.seixal@arslvt.min-saude.pt,,"Av. Vieira da Silva, Santa Marta do Pinhal",2855-697,Corroios,151005,Corroios,1510,Seixal,15,Setúbal,PT170,AML,140637|140638|140639|140640|140773|140774
HC0513,USF Santa Marta do Pinhal,38.633066,-9.151340,0,0,1,0,212548354,usf.st.martapinhal@arslvt.min-saude.pt,,"Av. Vieira da Silva, Santa Marta do Pinhal",2855-697,Corroios,151005,Corroios,1510,Seixal,15,Setúbal,PT170,AML,140637|140638|140639|140640|140773|140774
HC0514,UCSP Alhos Vedros,38.657986,-9.027746,0,0,0,1,212029470,ucsp.avedros@arslvt.min-saude.pt,,Largo da Graça,2860-026,Alhos Vedros,150601,Alhos Vedros,1506,Moita,15,Setúbal,PT170,AML,090185|090203
HC0515,USP Arco Ribeirinho - Polo Moita,38.648361,-8.992523,0,0,0,1,212349320,usp.arcoribeirinho@arslvt.min-saude.pt,,"Largo Dr. Joaquim Marques Elias, 5",2860-418,Moita,150603,Moita,1506,Moita,15,Setúbal,PT170,AML,090055|090056|090097|090207|090307|090308
HC0516,Posto de Colheita Germano de Sousa - Moita,38.654900,-8.988460,0,0,0,1,933535315,xt.cmlgs@germanodesousa.com,,"Rua Dr. Miguel Bombarda, nº 92",2860-461,Moita,150603,Moita,1506,Moita,15,Setúbal,PT170,AML,090059|090060|090117
HC0517,Posto de Colheita Labocentro - Moita,38.647800,-8.991600,0,0,0,1,210129276|961773477,covid19@clarasaude.pt|geral@labocentro.pt,,"Rua Santos Silva, 61",2860-485,Moita,150603,Moita,1506,Moita,15,Setúbal,PT170,AML,090053|090054|090055|090056|090097|090113|090135|090147|090148|090207|090307|090308
HC0518,USF FF Mais,38.560800,-9.086620,0,0,1,0,212128230/8|963957089,usf.ffmais@arslvt.min-saude.pt,,"Rua da República, lote 335-337",2865-634,Fernão Ferro,151006,Fernão Ferro,1510,Seixal,15,Setúbal,PT170,AML,140393|140479|140480
HC0519,Posto de Colheita Germano de Sousa - Montijo,38.707600,-8.976720,0,0,0,1,211391291|910032713,evora@germanodesousa.com,,"Av. 25 de Abril, nº 38, r/c",2870-150,Montijo,150710,União das freguesias de Montijo e Afonsoeiro,1507,Montijo,15,Setúbal,PT170,AML,100013|100015|100016|100027|100081|100083|100093|100094|100095|100141|100143
HC0520,UCSP Montijo,38.708458,-8.978953,0,0,0,1,212307920,ucsp.montijo@arslvt.min-saude.pt,,Av. Luís de Camões nº 21,2870-161,Montijo,150710,União das freguesias de Montijo e Afonsoeiro,1507,Montijo,15,Setúbal,PT170,AML,100081|100083|100085|100091|100093|100094|100095|100119|100120|100141|100143
HC0521,USP Arco Ribeirinho - Polo Alcochete,38.748800,-8.965420,0,0,0,1,212349320,usp.arcoribeirinho@arslvt.min-saude.pt,,Rua Capitão Salgueiro Maia,2890-041,Alcochete,150201,Alcochete,1502,Alcochete,15,Setúbal,PT170,AML,010009|010011|010012|010013|010014|010015|010016|010017|010018|010043|010045|010069|010071|010081|010082
HC0522,UCSP Praça da República (Setúbal) - Polo Unidade SCM Setúbal,38.525770,-8.896580,0,0,0,1,265520964,geral@misericordiadesetubal.pt,,Passeio da Misericórdia,2900-096,Setúbal,151210,"União das freguesias de Setúbal (São Julião, Nossa Senhora da Anunciada e Santa Maria da Graça)",1512,Setúbal,15,Setúbal,PT170,AML,160099|160105|160157|160158|160251|160433|160434|160507|160508|160521|160522|160531
HC0523,UCSP São Sebastião - Polo Unidade SCM Setúbal,38.525770,-8.896580,0,0,0,1,265520964,geral@misericordiadesetubal.pt,,Passeio da Misericórdia,2900-096,Setúbal,151210,"União das freguesias de Setúbal (São Julião, Nossa Senhora da Anunciada e Santa Maria da Graça)",1512,Setúbal,15,Setúbal,PT170,AML,160099|160105|160157|160158|160251|160433|160434|160507|160508|160521|160522|160531
HC0524,Posto de Colheita Synlabhealth II - Setúbal - Alexandre Herculano,38.526200,-8.890640,0,0,0,1,265230139|300023061|913749425,posto.alexandre-herculano@synlab.pt,,"Av. Alexandre Herculano, 14 B, r/c",2900-205,Setúbal,151210,"União das freguesias de Setúbal (São Julião, Nossa Senhora da Anunciada e Santa Maria da Graça)",1512,Setúbal,15,Setúbal,PT170,AML,160097|160099|160105|160107|160119|160123|160137|160139|160223|160273|160349|160409|160411|160511|160513|160883|160961
HC0525,USF Luísa Todi,38.528088,-8.889640,0,0,0,1,265540290,usf.ltodi@arslvt.min-saude.pt,,"Av. Alexandre Herculano, 48",2900-205,Setúbal,151210,"União das freguesias de Setúbal (São Julião, Nossa Senhora da Anunciada e Santa Maria da Graça)",1512,Setúbal,15,Setúbal,PT170,AML,160093|160097|160107|160109|160119|160123|160137|160139|160141|160213|160223|160349|160409|160411|160511|160513|160883|160961
HC0526,UCSP Praça da República (Setúbal),38.522095,-8.891940,0,0,0,1,265544320,ucsp.prepublica@arslvt.min-saude.pt,,Rua Cláudio Lagranje,2900-324,Setúbal,151210,"União das freguesias de Setúbal (São Julião, Nossa Senhora da Anunciada e Santa Maria da Graça)",1512,Setúbal,15,Setúbal,PT170,AML,160101|160103|160127|160129|160135|160161|160815
HC0527,USF Beira Mar,38.522095,-8.891940,0,0,0,1,961050813,usf.beiramar@arslvt.min-saude.pt,,Rua Cláudio Lagranje,2900-324,Setúbal,151210,"União das freguesias de Setúbal (São Julião, Nossa Senhora da Anunciada e Santa Maria da Graça)",1512,Setúbal,15,Setúbal,PT170,AML,160101|160103|160127|160129|160135|160161|160815
HC0528,Posto de Colheita Synlabhealth II - Setúbal,40.689300,-8.053860,0,0,0,1,265230139|913749425,posto.rua-damao@synlab.pt,,"Rua Damão, 9",2900-340,Setúbal,151210,"União das freguesias de Setúbal (São Julião, Nossa Senhora da Anunciada e Santa Maria da Graça)",1512,Setúbal,15,Setúbal,PT170,AML,
HC0529,UAG do ACES Arrábida,38.531000,-8.887400,0,0,0,1,265420290,aces.arrabida@arslvt.min-saude.pt,,"Rua de Damão, 2, 1º esq",2900-340,Setúbal,151210,"União das freguesias de Setúbal (São Julião, Nossa Senhora da Anunciada e Santa Maria da Graça)",1512,Setúbal,15,Setúbal,PT170,AML,160067|160068|160093|160095|160111|160117|160118|160119|160513|162001|162002|162003|162004|162005|162006|162007|162008|162011
HC0530,ECSCP Arrábida,38.530800,-8.887520,0,0,0,1,265531208,paliativos.arrabida@arslvt.min-saude.pt,,"Rua de Damão, 1, 3º esq",2900-340,Setúbal,151210,"União das freguesias de Setúbal (São Julião, Nossa Senhora da Anunciada e Santa Maria da Graça)",1512,Setúbal,15,Setúbal,PT170,AML,160067|160068|160093|160095|160111|160117|160118|160119|160513|162001|162002|162003|162004|162005|162006|162007|162008|162011
HC0531,ECL Arrábida,38.530800,-8.887520,0,0,0,1,265531224,ecl.arrabida@arslvt.min-saude.pt,,"Rua de Damão, 1, 2º dto",2900-340,Setúbal,151210,"União das freguesias de Setúbal (São Julião, Nossa Senhora da Anunciada e Santa Maria da Graça)",1512,Setúbal,15,Setúbal,PT170,AML,160067|160068|160093|160095|160111|160117|160118|160119|160513|162001|162002|162003|162004|162005|162006|162007|162008|162011
HC0532,UCSP Santos Nicolau,38.523985,-8.877664,0,0,0,1,265545200,ucsp.stnicolau@arslvt.min-saude.pt,,"Rua Professor Augusto Gomes, 25",2910-123,Setúbal,151205,Setúbal (São Sebastião),1512,Setúbal,15,Setúbal,PT170,AML,160059|160060|160061|160062|160167|160168|160211|160471|160472|160473|160474|160509|160510
HC0533,USF Sado,38.522167,-8.822603,0,0,0,1,265790460,usf.sado@arslvt.min-saude.pt,,"Rua Manuel Francisco Novo, s/n - Santo Ovídeo",2910-363,Setúbal,151208,Sado,1512,Setúbal,15,Setúbal,PT170,AML,160321|160322|160677|160678
HC0534,Posto de Colheita Labocentro - Setúbal - Maxi Clínica,38.531200,-8.881890,0,0,0,1,265234199|210129276|961773477,covid19@clarasaude.pt|geral@labocentro.pt,,"Rua António José Baptista, 60 A",2910-398,Setúbal,151205,Setúbal (São Sebastião),1512,Setúbal,15,Setúbal,PT170,AML,160029|160429|160430
HC0535,Posto de Colheita Labocentro - Setúbal 2,38.525700,-8.884470,0,0,0,1,210129276|961773477,covid19@clarasaude.pt|geral@labocentro.pt,,"Rua Comediantes, 7 A",2910-468,Setúbal,151205,Setúbal (São Sebastião),1512,Setúbal,15,Setúbal,PT170,AML,160061|160062|160063|160064|160065|160066
HC0536,USP Arrábida - Setúbal - São Sebastião (Sede),38.532658,-8.864128,0,0,0,1,265708030,usp.arrabida@arslvt.min-saude.pt,,Av. das Descobertas - Urbanização Vale do Cobro,2910-711,Setúbal,151205,Setúbal (São Sebastião),1512,Setúbal,15,Setúbal,PT170,AML,160183|160184|160215|160217|160218|160239|160240|160241|160242|160401|160403|160404|160413
HC0537,UCSP São Sebastião,38.532658,-8.864128,0,0,0,1,265708010,ucsp.ssebastiao@arslvt.min-saude.pt,,Av. das Descobertas - Urbanização Vale do Cobro,2910-711,Setúbal,151205,Setúbal (São Sebastião),1512,Setúbal,15,Setúbal,PT170,AML,160183|160184|160215|160217|160218|160239|160240|160241|160242|160401|160403|160404|160413
HC0538,CDP Setúbal,38.532658,-8.864128,0,0,0,1,265708005,cdp.setubal@arslvt.min-saude.pt,,Av. das Descobertas - Urbanização Vale do Cobro,2910-711,Setúbal,151205,Setúbal (São Sebastião),1512,Setúbal,15,Setúbal,PT170,AML,160183|160184|160215|160217|160218|160239|160240|160241|160242|160401|160403|160404|160413
HC0539,USF Du Bocage,38.532658,-8.864128,0,0,0,1,265708020,usf.dubocage@arslvt.min-saude.pt,,Av. das Descobertas - Urbanização Vale do Cobro,2910-711,Setúbal,151205,Setúbal (São Sebastião),1512,Setúbal,15,Setúbal,PT170,AML,160183|160184|160215|160217|160218|160239|160240|160241|160242|160401|160403|160404|160413
HC0540,USF Baía Azul,38.532658,-8.864128,0,0,0,1,265708000,usf.baiaazul@arslvt.min-saude.pt,,Av. das Descobertas - Urbanização Vale do Cobro,2910-711,Setúbal,151205,Setúbal (São Sebastião),1512,Setúbal,15,Setúbal,PT170,AML,160183|160184|160215|160217|160218|160239|160240|160241|160242|160401|160403|160404|160413
HC0541,Posto de Colheita Instituto Politécnico Setúbal - Setúbal,38.522400,-8.838950,0,0,0,1,265790000|931126889,covid.lab@ips.pt,,Campus do IPS - Estefanilha,2910-761,Setúbal,151205,Setúbal (São Sebastião),1512,Setúbal,15,Setúbal,PT170,AML,160725|160726
HC0542,Posto de Colheita Germano de Sousa - H. N.S. Arrábida-Azeitão,38.547600,-9.028100,0,0,0,1,210495670,aces.arrabida@arslvt.min-saude.pt,,"Rua Ary dos Santos, nº 11",2925-061,Brejos de Azeitão,151209,União das freguesias de Azeitão (São Lourenço e São Simão),1512,Setúbal,15,Setúbal,PT170,AML,160933
HC0543,UCSP Azeitão,38.524326,-9.021565,0,0,0,1,212199500,ucsp.azeitao@arslvt.min-saude.pt,,"Rua Artur Horta, 18",2925-510,Azeitão,151209,União das freguesias de Azeitão (São Lourenço e São Simão),1512,Setúbal,15,Setúbal,PT170,AML,160925|160926|160927|160935|160936|160965|160981|160982
HC0544,USP Arrábida - Polo Palmela,38.570854,-8.897321,0,0,0,1,212339825,usp.palmela@arslvt.min-saude.pt,,Rua de São Filipe,2950-483,Palmela,150802,Palmela,1508,Palmela,15,Setúbal,PT170,AML,130043|130057
HC0545,USF Santiago de Palmela,38.570854,-8.897321,0,0,0,1,212339800,usf.santiago@arslvt.min-saude.pt,,Rua de São Filipe,2950-483,Palmela,150802,Palmela,1508,Palmela,15,Setúbal,PT170,AML,130043|130057
HC0546,USF Pinhal Saúde,38.626001,-8.910546,0,0,0,1,212389920,usf.pinhalsaude@arslvt.min-saude.pt,,Rua Manuel Veríssimo da Silva,2955-050,Pinhal Novo,150803,Pinhal Novo,1508,Palmela,15,Setúbal,PT170,AML,130369|130371|130373
HC0547,UCSP Pinhal Novo - Praça do Ultramar - 6,38.632744,-8.910088,0,0,0,1,212388110,ucsp.pnovo@arslvt.min-saude.pt,,Av. Zeca Afonso,2955-220,Pinhal Novo,150803,Pinhal Novo,1508,Palmela,15,Setúbal,PT170,AML,130347|130383|130385|130387|130388|130389|130391|130557|130558
HC0548,UCSP Poceirão,38.631760,-8.741530,0,0,0,1,265900060,ucsp.poceirao@arslvt.min-saude.pt,,Rua Vasco da Gama,2965-317,Poceirão,150806,União das freguesias de Poceirão e Marateca,1508,Palmela,15,Setúbal,PT170,AML,130159|130160|130161|130162|130257|130258
HC0549,Posto de Colheita Germano de Sousa - Sesimbra - Santana,38.460100,-9.105320,0,0,1,0,212681293|936546804,sd.cmlgs@germanodesousa.com,,"Av. Padre António Pereira de Almeida, 32, r/c dto - Santana",2970-002,Sesimbra,151101,Sesimbra (Castelo),1511,Sesimbra,15,Setúbal,PT170,AML,150067|150068|150070|150150|150151|150153|150154|150155|150157|150161|150407|150408
HC0550,USF Castelo,38.461334,-9.105049,0,0,1,0,212689280,usf.castelo@arslvt.min-saude.pt,,"Rua do Casalão, 12 - Santana",2970-047,Sesimbra,151101,Sesimbra (Castelo),1511,Sesimbra,15,Setúbal,PT170,AML,150065|150066|150067|150068|150070|150151|150153|150154|150155|150407|150408
HC0551,USP Arrábida - Polo Sesimbra,38.444370,-9.100890,0,0,1,0,212289630,usp.sesimbra@arslvt.min-saude.pt,,"Largo 5 Outubro, 16",2970-652,Sesimbra,151102,Sesimbra (Santiago),1511,Sesimbra,15,Setúbal,PT170,AML,150051|150052|150423|150425|150427|150451|150453|150455|150457|150461|150463|150477|150479|150481|150593|150594|150610
HC0552,USF Sesimbra,38.444370,-9.100890,0,0,1,0,212289600,usf.sesimbra@arslvt.min-saude.pt,,"Largo 5 Outubro, 16",2970-652,Sesimbra,151102,Sesimbra (Santiago),1511,Sesimbra,15,Setúbal,PT170,AML,150051|150052|150423|150425|150427|150451|150453|150455|150457|150461|150463|150477|150479|150481|150593|150594|150610
HC0553,Posto de Colheita Labocentro - Sesimbra,38.443500,-9.101410,0,0,1,0,210129276|961773477,covid19@clarasaude.pt|geral@labocentro.pt,,"Largo António Batista, 7",2970-734,Sesimbra,151102,Sesimbra (Santiago),1511,Sesimbra,15,Setúbal,PT170,AML,150051|150052|150423|150425|150427|150451|150453|150455|150457|150461|150463|150477|150481|150594|150610
HC0554,Posto de Colheita Germano de Sousa - Sesimbra,38.443900,-9.101330,0,0,1,0,212230352,fb.cmlgs@germanodesousa.com,,"Rua Dr. Aníbal Esmeriz, nº 6, r/c",2970-749,Sesimbra,151102,Sesimbra (Santiago),1511,Sesimbra,15,Setúbal,PT170,AML,150051|150052|150423|150425|150427|150451|150453|150455|150457|150461|150463|150477|150481|150593|150594|150610
HC0555,UCSP Quinta do Conde,38.557762,-9.047007,0,0,1,0,212138200,ucsp.qconde@arslvt.min-saude.pt,,"Rua Latino Coelho, lote 1664-1668",2975-326,Quinta do Conde,151103,Quinta do Conde,1511,Sesimbra,15,Setúbal,PT170,AML,150483|150484|150523|150524|150577|150578|150611|150612
HC0556,UCSP Quinta do Conde - Polo Unidade SCM Sesimbra,38.557762,-9.047007,0,0,1,0,212138200,ucsp.qconde@arslvt.min-saude.pt,,"Rua Latino Coelho, lote 1664-1668",2975-326,Quinta do Conde,151103,Quinta do Conde,1511,Sesimbra,15,Setúbal,PT170,AML,150483|150484|150523|150524|150577|150578|150611|150612
HC0557,USF Conde Saúde,38.557762,-9.047007,0,0,1,0,212138200,usf.condesaude@arslvt.min-saude.pt,,"Rua Latino Coelho, lote 1664-1668",2975-326,Quinta do Conde,151103,Quinta do Conde,1511,Sesimbra,15,Setúbal,PT170,AML,150483|150484|150523|150524|150577|150578|150611|150612
HC0558,Posto de Colheita Labocentro - Quinta do Conde 3,38.570300,-9.040830,0,0,1,0,210129276|961773477,covid19@clarasaude.pt|geral@labocentro.pt,,"Rua das Descobertas, Lote 15 A",2975-406,Quinta do Conde,151103,Quinta do Conde,1511,Sesimbra,15,Setúbal,PT170,AML,150015|150017|150018|150019|150020|150501|150503|150527|150585|150586|150613|150614
HC0559,SAC Algés,38.709711,-9.211400,1,0,0,0,210736920,aces.lxocidoeiras@arslvt.min-saude.pt,,Praça de São Francisco Xavier - Restelo,1400-015,Lisboa,110658,Belém,1106,Lisboa,11,Lisboa,PT170,AML,060089|060091|060092|060105
HC0560,SAC São João do Estoril,38.698819,-9.381513,1,0,0,0,214643725,ac.sjestoril@arslvt.min-saude.pt,,"Rua Egas Moniz, 9010",2765-618,São João do Estoril,110508,União das freguesias de Cascais e Estoril,1105,Cascais,11,Lisboa,PT170,AML,
HC0561,SAC Paço de Arcos,38.700407,-9.295015,1,0,0,0,214540800,aces.lxocidoeiras@arslvt.min-saude.pt,,Av. António Bernardo Cabral Macedo,2770-219,Paço de Arcos,111014,"União das freguesias de Oeiras e São Julião da Barra, Paço de Arcos e Caxias",1110,Oeiras,11,Lisboa,PT170,AML,120607|120608|120687|120765|120767|120768|120891|120894|121243|121310|121311
HC0562,SAC Lapa,38.711546,-9.162191,1,0,0,0,213105310,ucsp.lapa@arslvt.min-saude.pt,,"Rua de São Ciro, 36",1200-831,Lisboa,110660,Estrela,1106,Lisboa,11,Lisboa,PT170,AML,
HC0563,SAC Sete Rios,38.739567,-9.168651,1,0,0,0,217211800,aces.lxnorte@arslvt.min-saude.pt,,Largo Professor Arnaldo Sampaio,1549-010,Lisboa,110639,São Domingos de Benfica,1106,Lisboa,11,Lisboa,PT170,AML,060453|060454|060459
HC0564,SAC Almada,38.677705,-9.153872,0,0,1,0,212728800,ac.almada@arslvt.min-saude.pt,,"Av. Rainha D. Leonor, nº 2 - 4º",2809-010,Almada,150312,"União das freguesias de Almada, Cova da Piedade, Pragal e Cacilhas",1503,Almada,15,Setúbal,PT170,AML,020057|020058|020059|020109|020110|020111|020112|021065|021066
HC0565,SAC Barreiro,38.644072,-9.052800,0,0,0,1,212170840,ucsp.qlomba@arslvt.min-saude.pt,,"Rua Jornal Heraldo, s/n - Quinta da Lomba",2830-195,Barreiro,150409,"União das freguesias de Alto do Seixalinho, Santo André e Verderena",1504,Barreiro,15,Setúbal,PT170,AML,
HC0566,SAC Amora,38.627604,-9.113684,0,0,1,0,212274200,ac.amora@arslvt.min-saude.pt,,"Rua Dona Branca Saraiva de Carvalho, 9C",2845-452,Amora,151002,Amora,1510,Seixal,15,Setúbal,PT170,AML,140145|140147|140148|140311|140345
HC0567,SAC Moita,38.657986,-9.027746,0,0,0,1,212029470,ucsp.avedros@arslvt.min-saude.pt,,Largo da Graça,2860-026,Alhos Vedros,150601,Alhos Vedros,1506,Moita,15,Setúbal,PT170,AML,090185|090203
HC0568,SAC Alcochete,38.748800,-8.965420,0,0,0,1,212349320,ucsp.alcochete@arslvt.min-saude.pt,,Rua Capitão Salgueiro Maia,2890-041,Alcochete,150201,Alcochete,1502,Alcochete,15,Setúbal,PT170,AML,010009|010011|010012|010013|010014|010015|010016|010017|010018|010043|010045|010069|010071|010081|010082
HC0569,SAC São Sebastião,38.532658,-8.864128,0,0,0,1,265708090,acss.arrabida@arslvt.min-saude.pt,,Av. das Descobertas - Urbanização Vale do Cobro,2910-711,Setúbal,151205,Setúbal (São Sebastião),1512,Setúbal,15,Setúbal,PT170,AML,160183|160184|160215|160217|160218|160239|160240|160241|160242|160401|160403|160404|160413
HC0570,SAC Palmela,38.570854,-8.897321,0,0,0,1,212339808,ac.palmela@arslvt.min-saude.pt,,Rua de São Filipe,2950-483,Palmela,150802,Palmela,1508,Palmela,15,Setúbal,PT170,AML,130043|130057
HC0571,CS Sesimbra | SAC e Atendimento a Utentes sem Médico,38.444370,-9.100890,0,0,1,0,212289600,ucsp.sesimbra.sap@arslvt.min-saude.pt,,"Largo 5 Outubro, 16",2970-652,Sesimbra,151102,Sesimbra (Santiago),1511,Sesimbra,15,Setúbal,PT170,AML,150051|150052|150423|150425|150427|150451|150453|150455|150457|150461|150463|150477|150479|150481|150593|150594|150610
HC0572,Posto de Colheita Affidea - Lisboa - Olivais Norte,38.775200,-9.113820,1,0,0,0,210079600,hormofuncional@affidea.pt,,"Rua Capitão Tenente Oliveira e Carmo, Lote 144, r/c e CV - Olivais Norte",1800-050,Lisboa,110633,Olivais,1106,Lisboa,11,Lisboa,PT170,AML,
HC0573,SAC Moscavide,38.782099,-9.101415,0,1,0,0,219492402,ac.moscavide@arslvt.min-saude.pt,,Rua Adão Manuel Ramos Barata,1885-100,Moscavide,110726,União das freguesias de Moscavide e Portela,1107,Loures,11,Lisboa,PT170,AML,070585|070587|071331|071332|071501|071502
HC0574,SAC Odivelas,38.793600,-9.177698,0,1,0,0,219347470,ac.odivelas@arslvt.min-saude.pt,,"Av. Prof. Dr. Augusto Abreu Lopes, nº 36",2675-297,Odivelas,111603,Odivelas,1116,Odivelas,11,Lisboa,PT170,AML,110093|110094|110127|110128|110129|110130|110131|110132|110333|110334|110387|110405|110407|110408|110515|110627|110628|110813|110814|111016|111017
HC0575,Posto de Colheita Labocentro - Lisboa Biosurfit,38.742100,-9.144830,1,0,0,0,210129276|961773477,covid19@clarasaude.pt|geral@labocentro.pt,,"Avenida da Republica - C. Comercial Campo Pequeno, Loja 148",1000-082,Lisboa,110657,Avenidas Novas,1106,Lisboa,11,Lisboa,PT170,AML,061216|061217|061218
HC0576,Posto de Colheita Germano de Sousa - Lisboa - Largo da Estefânia,38.731700,-9.140630,1,0,0,0,800910219|910178951,covid19.estefania@germanodesousa.com,,"Largo da Estefânia, nº 12 C",1000-126,Lisboa - Arroios,110656,Arroios,1106,Lisboa,11,Lisboa,PT170,AML,
HC0577,Posto de Colheita Germano de Sousa - Lisboa - Av. Roma/Praça de Londres,38.743000,-9.138770,1,0,0,0,211321203,rq.cmlgs@germanodesousa.com,,"Av. de Roma, nº 11B",1000-261,Lisboa,110654,Alvalade,1106,Lisboa,11,Lisboa,PT170,AML,061214|061215
HC0578,Posto de Colheita Dr. Joaquim Chaves - Lisboa,38.731300,-9.147880,1,0,0,0,214124300,geral@jcs.pt,,"Rua Tomás Ribeiro, 6 C",1050-229,Lisboa,110657,Avenidas Novas,1106,Lisboa,11,Lisboa,PT170,AML,
HC0579,Posto de Colheita Synlab - Lisboa - Campolide,38.738700,-9.163440,1,0,0,0,217216060|300023061,posto.praca-espanha@synlab.pt,,Av. Columbano Bordalo Pinheiro nº 75 A - r/c - piso 1,1070-061,Lisboa,110610,Campolide,1106,Lisboa,11,Lisboa,PT170,AML,60025
HC0580,Posto de Colheita Laboratório Dr. Silva Tavares - Lisboa - Anjos,38.725600,-9.134010,1,0,0,0,241379232|217930681,covid19@stavaresgrup.com|stavares@stavaresgrup.com,,"Rua Palmira, 37 E",1170-287,Lisboa,110656,Arroios,1106,Lisboa,11,Lisboa,PT170,AML,
HC0581,Posto de Colheita Germano de Sousa - Lisboa - Rua de São Bento,38.719300,-9.155700,1,0,0,0,213861311|910789340,geral@clinicadafarma-cia.pt,,"Rua de São Bento, 365A",1250-220,LIsboa,110659,Campo de Ourique,1106,Lisboa,11,Lisboa,PT170,AML,
HC0582,Posto de Colheita Germano de Sousa - Lisboa - Av. 24 de Julho,38.703900,-9.173240,1,0,0,0,213926100,geral.cuftejo@cuf.pt,,"Av. 24 de Julho, 171 -171 C",1350-352,Lisboa,110660,Estrela,1106,Lisboa,11,Lisboa,PT170,AML,060379|060380|062002
HC0583,Posto de Colheita Dr. Joaquim Chaves - Algés,38.699300,-9.233120,1,0,0,0,214540800,geral@jcs.pt,,Alameda Hermano Patrone - Palácio dos Anjos,1495-064,Algés,111012,"União das freguesias de Algés, Linda-a-Velha e Cruz Quebrada-Dafundo",1110,Oeiras,11,Lisboa,PT170,AML,120077|120078|120079|120083|120199|120201|120263|120265|120266
HC0584,Posto de Colheita Dr. Joaquim Chaves - Algés II,38.704400,-9.228120,1,0,0,0,214124300,geral@jcs.pt,,"Rua Dom João de Castro, Gaveto com a Calçada do Rio, 2B, r/c",1495-113,Algés,111012,"União das freguesias de Algés, Linda-a-Velha e Cruz Quebrada-Dafundo",1110,Oeiras,11,Lisboa,PT170,AML,120187|120188|120189|120190|120191|120193|120195|120209|120223|120229|120231|120233|120343|120344|120401|121045|121046|121059
HC0585,Posto de Colheita Dr. Joaquim Chaves - Miraflores,38.711000,-9.227540,1,0,0,0,214124300,geral@jcs.pt,,"Rua da Piscina, 16B",1495-150,Algés,111012,"União das freguesias de Algés, Linda-a-Velha e Cruz Quebrada-Dafundo",1110,Oeiras,11,Lisboa,PT170,AML,120181|120182|120183|120184|120345|120351|120352|120399
HC0586,Posto de Colheita Synlabhealth II - Lisboa Estrada de Benfica,38.743800,-9.176790,1,0,0,0,212696398|300023061,posto.benfica@synlab.pt,,"Estrada de Benfica, 311 A, Loja B",1500-095,Lisboa,110639,São Domingos de Benfica,1106,Lisboa,11,Lisboa,PT170,AML,
HC0587,Posto de Colheita Labocentro - Benfica 2,38.747400,-9.180710,1,0,0,0,210129276|961773477,covid19@clarasaude.pt|geral@labocentro.pt,,Rua Amélia Rey Colaço nº 16 D,1500-664,Lisboa,110608,Benfica,1106,Lisboa,11,Lisboa,PT170,AML,
HC0588,Posto de Colheita Labocentro - Entrecampos,38.748300,-9.151300,1,0,0,0,210129276|961773477,covid19@clarasaude.pt|geral@labocentro.pt,,"Rua Helena Félix, 2 - Consultório 5",1600-121,Lisboa,110654,Alvalade,1106,Lisboa,11,Lisboa,PT170,AML,
HC0589,Posto de Colheita Germano de Sousa - Carnide,38.767600,-9.181280,1,0,0,0,212693530|212693534|212693531|212693532,covid19.lisboa@germanodesousa.com|recepcao.cmlgs@germanodesousa.com,,"Rua Cupertino de Miranda, 9 - lote 8 - Polo Tecnológico de Lisboa",1600-513,Lisboa,110611,Carnide,1106,Lisboa,11,Lisboa,PT170,AML,
HC0590,Posto de Colheita Synlab - Carnide,38.764100,-9.179890,1,0,0,0,217122680|300023061,posto.nacoes-unidas@synlab.pt,,"Av. Nações Unidas, nº 31 G, r/c loja 1",1600-531,Lisboa,110611,Carnide,1106,Lisboa,11,Lisboa,PT170,AML,
HC0591,Posto de Colheita Cruz Vermelha Portuguesa - Lar Militar CVP Lisboa,38.766700,-9.163980,1,0,0,0,304502525|300501900,testescovid19@cruzvermelha.org.pt,,"Av. Rainha Dona Amélia, 51 - Lar Militar da CVP",1600-676,Lisboa,110618,Lumiar,1106,Lisboa,11,Lisboa,PT170,AML,
HC0592,Posto de Colheita IMM João Lobo Antunes - Lisboa - Alvalade,38.750100,-9.161570,1,0,0,0,910128220,imm-diagnosticocovid@medicina.ulisboa.pt|imm-diagnosticocovid@medicina.ulisboa.pt,,Av Prof Egas Moniz,1649-028,Lisboa,110654,Alvalade,1106,Lisboa,11,Lisboa,PT170,AML,60393
HC0593,Posto de Colheita Lumilabo - Pontinha,38.764400,-9.202020,0,1,0,0,214795203|914501213,analises@farmaciadoaltinho.pt,,"Praça São Bartolomeu, 10 A",1675-163,Pontinha,111608,União das freguesias de Pontinha e Famões,1116,Odivelas,11,Lisboa,PT170,AML,110041|110043|110695|110859
HC0594,Posto de Colheita Synlab - Pontinha,38.763600,-9.200740,0,1,0,0,214788661|300023061,posto.pontinha@synlab.pt,,"Av. 25 de Abril, nº 27 C",1675-185,Pontinha,111608,União das freguesias de Pontinha e Famões,1116,Odivelas,11,Lisboa,PT170,AML,060077|060355|060357|110041|110043|110045|110695|110697|110859
HC0595,Posto de Colheita Laboratório Gaia - Lisboa - Lumiar,38.764800,-9.155150,1,0,0,0,211303499|223752698|960132002,covid@geneticamedica.pt|geral@geneticamedica.pt,,"Rua Embaixador Martins Janeira, 13G",1750-097,Lisboa,110618,Lumiar,1106,Lisboa,11,Lisboa,PT170,AML,060157|060343
HC0596,Posto de Colheita Labocentro - Lumiar,38.768300,-9.157720,1,0,0,0,210129276|961773477,covid19@clarasaude.pt|geral@labocentro.pt,,"Rua Silva Tavares, 3B, r/c",1750-287,Lisboa,110618,Lumiar,1106,Lisboa,11,Lisboa,PT170,AML,60157
HC0597,Posto de Colheita Labocentro - Lisboa,38.776900,-9.119120,1,0,0,0,210129276|961773477,covid19@clarasaude.pt|geral@labocentro.pt,,"Praça do Norte, 8 - 1º",1800-281,Lisboa,110633,Olivais,1106,Lisboa,11,Lisboa,PT170,AML,
HC0598,Posto de Colheita Synlabhealth II - Lisboa - Parque das Nações,39.098200,-9.260210,1,0,0,0,210496390|300023061,posto.gare-oriente@synlab.pt,,"Galeria Comercial Estação do Oriente, loja nº G 113 A",1990-999,Lisboa,110633,Olivais,1106,Lisboa,11,Lisboa,PT170,AML,
HC0599,Posto de Colheita Germano de Sousa - Alhandra,38.931400,-9.013080,0,1,0,0,216006591,qg.cmlgs@germanodesousa.com,,"Praça 7 de Março, nº 28",2600-477,Alhandra,111412,"União das freguesias de Alhandra, São João dos Montes e Calhandriz",1114,Vila Franca de Xira,11,Lisboa,PT170,AML,180003|180004|180253|180254
HC0600,Posto de Colheita Laboratório Dr. Silva Tavares - Castanheira Ribatejo,38.994500,-8.972560,0,1,0,0,241379232|263070072,covid19@stavaresgrup.com|stavares@stavaresgrup.com,,"Rua D. António Ataíde, 2A, r/c (Lt-B) B, Lj-B",2600-606,Castanheira Ribatejo,111414,União das freguesias de Castanheira do Ribatejo e Cachoeiras,1114,Vila Franca de Xira,11,Lisboa,PT170,AML,180317|180319|180343|180345|180347|180349|180389|180391|180392|180393|180413|180414|181010|182268|182271
HC0601,Posto de Colheita Germano de Sousa - Olival Basto,38.791100,-9.166200,0,1,0,0,212419502,ov.cmlgs@germanodesousa.com,,"Rua Açores, nº 9 A",2620-038,Olival Basto,111609,União das freguesias de Póvoa de Santo Adrião e Olival Basto,1116,Odivelas,11,Lisboa,PT170,AML,110547|110548|110549|110550|110551|110581|110583|110585|110589|110591|110783|110805|110809
HC0602,ECSCP Odivelas-Pontinha,38.806037,-9.163545,0,1,0,0,219380223,ecscpodivpont@arslvt.min-saude.pt,,"Rua Henrique dos Santos, s/n",2620-183,Póvoa de Santo Adrião,111609,União das freguesias de Póvoa de Santo Adrião e Olival Basto,1116,Odivelas,11,Lisboa,PT170,AML,071593|071594|110539|110541|110542|110569|110571
HC0603,Posto de Colheita Laboratório Dr. Silva Tavares - Ramada,38.802300,-9.191210,0,1,0,0,241379232|219313558,covid19@stavaresgrup.com|stavares@stavaresgrup.com,,"Rua Vasco Santana , 14A",2620-362,Ramada,111610,União das freguesias de Ramada e Caneças,1116,Odivelas,11,Lisboa,PT170,AML,110213|110215|110229|110231|110595|110597|110599|110601
HC0604,Posto de Colheita Laboratório Dr. Silva Tavares - Mafra,38.940000,-9.333620,0,1,0,0,241379232|261814072,covid19@stavaresgrup.com|stavares@stavaresgrup.com,,"Rua Ferreira Castro, 23, r/c Esq",2640-482,Mafra,110909,Mafra,1109,Mafra,11,Lisboa,PT170,AML,080202|080204|080207|080208|080817|080965|082320|082321|082322
HC0605,Posto de Colheita Germano de Sousa - Mafra,38.937100,-9.329030,0,1,0,0,261064380|930551476,covid19.mafra@germanodesousa.com,,"Rua José Elias Garcia, 1 A Loja",2640-495,Mafra,110909,Mafra,1109,Mafra,11,Lisboa,PT170,AML,080197|080199|080204|080217|080461|082307
HC0606,Posto de Colheita Germano de Sousa - Ericeira,38.969800,-9.412940,0,1,0,0,261869538,er.cmlgs@germanodesousa.com,,"Rua do Emigrante, 18C",2655-269,Ericeira,110906,Ericeira,1109,Mafra,11,Lisboa,PT170,AML,080009|080010|080763|080764|080765|080766
HC0607,Posto de Colheita Dr. Joaquim Chaves - Loures,38.810000,-9.141310,0,1,0,0,214124300,geral@jcs.pt,,"Rua da República, 77 A/B",2670-471,Loures,110707,Loures,1107,Loures,11,Lisboa,PT170,AML,070897|070898|070899|071307|071308|071370|071371|071372|071379|071380
HC0608,Posto de Colheita Synlabhealth II - Odivelas,38.787600,-9.177730,0,1,0,0,219333146|300023061,posto.bv-odivelas@synlab.pt,,"Rua dos Bombeiros Voluntários, 28 B",2675-304,Odivelas,111603,Odivelas,1116,Odivelas,11,Lisboa,PT170,AML,110089|110099|110100|110102|110109|110110|110201|110207|110411|110713|111002|111003
HC0609,Posto de Colheita Synlab - Cascais,38.745200,-9.267400,1,0,0,0,214824130,posto.cascais@synlab.pt,,"Av. Nossa Senhora do Rosário, Lote 603, 1 º andar letra I - Edifício Biarritz",2730-179,Cascais,110508,União das freguesias de Cascais e Estoril,1105,Cascais,11,Lisboa,PT170,AML,120383|120384|120385|120387|120403|120537|120538|120539|120540|121097|121099
HC0610,SAC Agualva-Cacém,38.774900,-9.294770,1,0,0,0,219146331,ucsp.agualva@arslvt.min-saude.pt,,Rua do Mercado de Agualva,2735-112,Agualva,111122,União das freguesias de Agualva e Mira-Sintra,1111,Sintra,11,Lisboa,PT170,AML,170463|170464|170465|170466|170467|170489|170627|170628|170629|170631|170632|170634|170635|170636|170637|170638|170639|170640
HC0611,Posto de Colheita Dr. Joaquim Chaves - Massamá,38.752900,-9.276420,1,0,0,0,214124300,geral@jcs.pt,,"Av. 25 de Abril, 146",2745-862,Massamá,111125,União das freguesias de Massamá e Monte Abraão,1111,Sintra,11,Lisboa,PT170,AML,170853|170855|170857|170860|170905|170939|170941|170967|170968|172553
HC0612,Posto de Colheita Cintramédica - Cascais,38.701200,-9.420640,1,0,0,0,219100080,analises@cintramedica.pt|analises@cintramedica.pt,,"Av. Costa Pinto, 30, Loja",2750-329,Cascais,110508,União das freguesias de Cascais e Estoril,1105,Cascais,11,Lisboa,PT170,AML,050205|050249|050319|050419|050424
HC0613,Posto de Colheita Dr. Joaquim Chaves - Cascais,38.698600,-9.422600,1,0,0,0,214124300,geral@jcs.pt,,"Travessa Visconde da Luz, 28",2750-413,Cascais,110508,União das freguesias de Cascais e Estoril,1105,Cascais,11,Lisboa,PT170,AML,
HC0614,Posto de Colheita Germano de Sousa - Estoril,38.707000,-9.395950,1,0,0,0,800203186,covid19.cascais@germanodesousa.com,,Av. Amaral - Centro de Congressos do Estoril,2765-192,Estoril,110508,União das freguesias de Cascais e Estoril,1105,Cascais,11,Lisboa,PT170,AML,050361|050363|050364|050365|050366|050367|050368|050407
HC0615,Posto de Colheita Laboratório Dra. Maria Leonor Barreira - Oeiras I,38.688900,-9.317020,1,0,0,0,214462150|214462154|914574438,laboratorio@topcare.pt,,"Largo Henrique de Paiva Couceiro, nº 3 r/c",2780-117,Oeiras,111014,"União das freguesias de Oeiras e São Julião da Barra, Paço de Arcos e Caxias",1110,Oeiras,11,Lisboa,PT170,AML,120729|120787|120788|120803|120804|120813|120815|120817|120829|121187|121188|121207|121235|121270|121272|121291|121297
HC0616,Posto de Colheita Dr. Joaquim Chaves - Carnaxide,38.727800,-9.239220,1,0,0,0,214124300,geral@jcs.pt,,"Rua Manuel Teixeira Gomes, 15 E - Loja A",2790-105,Carnaxide,111013,União das freguesias de Carnaxide e Queijas,1110,Oeiras,11,Lisboa,PT170,AML,120039|120040|120041|120042|120043|120044|120101|120103|120415|120435|120473|120474|120477|120479|120483
HC0617,Posto de Colheita Synlab - Almada,38.682300,-9.155760,0,0,1,0,300023061,posto.mercadoalmada@synlab.pt,,"Rua Bernardo Francisco da Costa, 62",2800-030,Almada,150312,"União das freguesias de Almada, Cova da Piedade, Pragal e Cacilhas",1503,Almada,15,Setúbal,PT170,AML,020023|020027|020028|020029|020030|020031|020043|020045|020047|020115|020199|020201|020203|020211|020213|020399|020401|021069|021072|021073|021074
HC0618,Posto de Colheita Labocentro - Almada,38.670700,-9.161480,0,0,1,0,210129276|961773477,covid19@clarasaude.pt|geral@labocentro.pt,,"Rua Cabo da Boa Esperança, 17 A",2805-109,Almada,150312,"União das freguesias de Almada, Cova da Piedade, Pragal e Cacilhas",1503,Almada,15,Setúbal,PT170,AML,020067|020069|020079|020081|020099|020100|020101|020103|020104|020119|020283|020284|020285|020286|020287|021011|029004
HC0619,Posto de Colheita Germano de Sousa - Almada - Cova da Piedade,38.668400,-9.159220,0,0,1,0,214077943,almadaseixal@arslvt.min-saude.pt,,"Av. 23 de Julho, 1 A/B",2805-256,Cova da Pidedade,150312,"União das freguesias de Almada, Cova da Piedade, Pragal e Cacilhas",1503,Almada,15,Setúbal,PT170,AML,020069|020077|020079|020101|020533|020740|020871|020957|021011|029004
HC0620,Posto de Colheita Synlab - Barreiro,38.655900,-9.061730,0,0,0,1,210545299|300023061,posto.barreiro@synlab.pt,,"Av. do Bocage, nº 27 C, loja 3 - Urbanização Quinta do Convento",2830-003,Barreiro,150409,"União das freguesias de Alto do Seixalinho, Santo André e Verderena",1504,Barreiro,15,Setúbal,PT170,AML,40006
HC0621,Posto de Colheita Germano de Sousa - Barreiro,38.592567,-9.040776,0,0,0,1,212071273|967130928,covid19.barreiro@germanodesousa.com,,Rua Real Fábrica do Vidro,2830-516,Coina,150411,União das freguesias de Palhais e Coina,1504,Barreiro,15,Setúbal,PT170,AML,
HC0622,Posto de Colheita Labocentro - Baixa da Banheira,38.656000,-9.044540,0,0,0,1,210129276|961773477,covid19@clarasaude.pt|geral@labocentro.pt,,"Rua Padre António Vieira, 2 A",2835-141,Baixa da Banheira,150607,União das freguesias de Baixa da Banheira e Vale da Amoreira,1506,Moita,15,Setúbal,PT170,AML,040021|090235|090236|090237|090238|090239|090240
HC0623,Posto de Colheita Bernardina Salgado Sancho - Baixa da Banheira,38.657100,-9.036780,0,0,0,1,212029378|212029370,geral@bernardinasancho.pt,,"Estrada Nacional, nº 196",2835-174,Baixa da Banheira,150607,União das freguesias de Baixa da Banheira e Vale da Amoreira,1506,Moita,15,Setúbal,PT170,AML,090189|090190|090191|090192|090193
HC0624,Posto de Colheita Labocentro - Amora - Cruz de Pau,38.629100,-9.124140,0,0,1,0,210129276|961773477,covid19@clarasaude.pt|geral@labocentro.pt,,"Rua de Bafatá, 11, Lojas 14 a 20",2845-050,Amora,151002,Amora,1510,Seixal,15,Setúbal,PT170,AML,140157|140158|140159|140160|140161|140162|140757|140758
HC0625,Posto de Colheita Dr. Joaquim Chaves - Corroios,38.633200,-9.154110,0,0,1,0,214124300,geral@jcs.pt,,"Praça Latino Coelho, 4 A",2855-501,Corroios,151005,Corroios,1510,Seixal,15,Setúbal,PT170,AML,140773|140774|140775|140776|140777|140785
HC0626,Posto de Colheita Labocentro - Fernão Ferro,38.563900,-9.091530,0,0,1,0,210129276|961773477,covid19@clarasaude.pt|geral@labocentro.pt,,"Rua da Igreja, Lote 893 r/c A",2865-067,Fernão Ferro,151006,Fernão Ferro,1510,Seixal,15,Setúbal,PT170,AML,140395|140447|140449|140459|140460|140481|140507|140509
HC0627,Posto de Colheita Labocentro - Alcochete,38.755700,-8.962540,0,0,0,1,218229233|939719493,geral@saojoaoclinica.pt,,"Largo São João, 24 - R/C",2890-154,Alcochete,150201,Alcochete,1502,Alcochete,15,Setúbal,PT170,AML,010001|010002|010005|010007|010008|010161
HC0628,Posto de Colheita Laboratório Dra. Maria Leonor Barreira - Setúbal,38.529000,-8.890100,0,0,0,1,265534507|914574438,rececao@clinicadafamilia.pt,,"Travessa do Bonfim, 32",2900-281,Setúbal,151210,"União das freguesias de Setúbal (São Julião, Nossa Senhora da Anunciada e Santa Maria da Graça)",1512,Setúbal,15,Setúbal,PT170,AML,160093|160109|160117|160118|160119|160123|160141|160213|160223|160409|160411|160511|160513|160883|160961
HC0629,Posto de Colheita Dr. Joaquim Chaves - Setúbal,38.526800,-8.898490,0,0,0,1,214124300,geral@jcs.pt,,"Av. General Daniel de Sousa, 42-44",2900-343,Setúbal,151210,"União das freguesias de Setúbal (São Julião, Nossa Senhora da Anunciada e Santa Maria da Graça)",1512,Setúbal,15,Setúbal,PT170,AML,160253|160254|160255|160256|160257|160433|160434|160435|160436|160507|160508
HC0630,Posto de Colheita Precilab - Setúbal,38.527300,-8.893750,0,0,0,1,265529400|910959933,laboratorio@precilab.pt,,"Rua Jorge de Sousa, nº 8",2900-428,Setúbal,151210,"União das freguesias de Setúbal (São Julião, Nossa Senhora da Anunciada e Santa Maria da Graça)",1512,Setúbal,15,Setúbal,PT170,AML,160097|160099|160105|160107|160109|160123|160137|160157|160158|160223|160251|160273|160409|160521|160522|160531|160961
HC0631,Posto de Colheita Labocentro - Setúbal,38.530000,-8.875700,0,0,0,1,210129276|961773477,covid19@clarasaude.pt|geral@labocentro.pt,,"Av. D. João II, 2-B",2910-548,Setúbal,151205,Setúbal (São Sebastião),1512,Setúbal,15,Setúbal,PT170,AML,160023|160024|160025|160026|160027|160028|160034|160221|160222|160246|160247|160249|160275|160627|160628
HC0632,Posto de Colheita Laboratório Dra. Maria Leonor Barreira - Setúbal - São Sebastião,38.530018,-8.878774,0,0,0,1,265529840|914574438,balcao@coracao.pt,,"Av. D. João II, nº 48 - C - Esc. 2A",2910-549,Setúbal,151205,Setúbal (São Sebastião),1512,Setúbal,15,Setúbal,PT170,AML,160027|160028|160029|160031|160033|160034|160245|160246|160429|160430
HC0633,Posto de Colheita Germano de Sousa - Setúbal,41.542500,-8.442440,0,0,0,1,911071244,covid19.setubal@germanodesousa.com,,"Azinhaga dos Trabalhadores, s/n",2910-686,Setúbal,151210,"União das freguesias de Setúbal (São Julião, Nossa Senhora da Anunciada e Santa Maria da Graça)",1512,Setúbal,15,Setúbal,PT170,AML,
HC0634,Posto de Colheita Laboratório Dra. Maria Leonor Barreira - Palmela,38.571300,-8.897840,0,0,0,1,212330051|914574438,laboratorio@topcare.pt,,"Rua de São Filipe, 11A, LG, Esq.",2950-483,Palmela,150802,Palmela,1508,Palmela,15,Setúbal,PT170,AML,130043|130057
HC0635,Posto de Colheita Labocentro - Pinhal Novo 2,38.635100,-8.912630,0,0,0,1,210129276|961773477,covid19@clarasaude.pt|geral@labocentro.pt,,"Rua Ferreira de Castro, Lote 12E",2955-185,Pinhal Novo,150803,Pinhal Novo,1508,Palmela,15,Setúbal,PT170,AML,130343|130345|130346|130347|130349|130451
HC0636,Posto de Colheita Labocentro - Pinhal Novo 1,38.625700,-8.917120,0,0,0,1,210129276|961773477,covid19@clarasaude.pt|geral@labocentro.pt,,"Rua Gago Coutinho e Sacadura Cabral, 136-138",2955-190,Pinhal Novo,150803,Pinhal Novo,1508,Palmela,15,Setúbal,PT170,AML,130379|130381|130453|130454|130740|130741
HC0637,Posto de Colheita Labocentro - Quinta do Conde,38.571000,-9.037100,0,0,1,0,210129276|961773477,covid19@clarasaude.pt|geral@labocentro.pt,,"Pcta. da Juventude, Lote 14 r/c",2975-339,Quinta do Conde,151103,Quinta do Conde,1511,Sesimbra,15,Setúbal,PT170,AML,150001|150009|150015|150017|150018|150501
HC0638,Posto de Colheita Lumilabo - Lisboa,38.738200,-9.162470,1,0,0,0,217210480|800200978|918613588,marcacoes@lumilabo.pt|mail@lumilabo.pt,,"Av. Columbano Bordalo Pinheiro, 71A/B",1070-061,Lisboa,110610,Campolide,1106,Lisboa,11,Lisboa,PT170,AML,060017|060025
HC0639,"Posto de Colheita Synlab - Lisboa - Rodrigo Sampaio, 2 A",38.723500,-9.147070,1,0,0,0,210539148|300023061,posto.santa-marta@synlab.pt,,"Rua Rodrigues Sampaio, 2 A",1150-278,Lisboa,110666,Santo António,1106,Lisboa,11,Lisboa,PT170,AML,
HC0640,Posto de Colheita Synlabhealth II - Lisboa Rodrigues Sampaio,38.721600,-9.145140,1,0,0,0,213587400|300023061,posto.rodrigues-sampaio@synlab.pt,,"Rua Rodrigues Sampaio, 30 B r/c",1169-067,Lisboa,110666,Santo António,1106,Lisboa,11,Lisboa,PT170,AML,
HC0641,Posto de Colheita Germano de Sousa - Lisboa - Belém,38.699800,-9.181890,1,0,0,0,213612300,geral.cblm@cuf.pt,,"Rua Manuel Maria Viana, nº 4",1300-383,Lisboa,110658,Belém,1106,Lisboa,11,Lisboa,PT170,AML,
HC0642,Posto de Colheita Germano de Sousa - Algés - Miraflores,40.273500,-8.520100,1,0,0,0,211129550,geral.cmfl@cuf.pt,,"Alameda Fernão Lopes, nº 16",1495-190,Algés,111012,"União das freguesias de Algés, Linda-a-Velha e Cruz Quebrada-Dafundo",1110,Oeiras,11,#N/A,PT170,AML,
HC0643,Posto de Colheita Medicina Laboratorial Doutor Carlos da Silva Torres - Sacavém,38.480400,-9.098250,0,1,0,0,220125001|222401401,marcacoes@unilabs.pt,,Rua Vitorino Magalhães Godinho,1990-530,Sacavém,110727,União das freguesias de Sacavém e Prior Velho,1107,Loures,15,Setúbal,PT170,AML,150245|150246|150247|150248|150249
HC0644,SAC Póvoa de Santa Iria,38.862446,-9.067648,0,1,0,0,219540121,ucsp.pstiria@arslvt.min-saude.pt,,"Av. D. Vicente Afonso Valente, 1º andar - Edifício do Centro de Saúde",2625-215,Póvoa de Santa Iria,111415,União das freguesias de Póvoa de Santa Iria e Forte da Casa,1114,Vila Franca de Xira,11,Lisboa,PT170,AML,180567|180568|180569|180570|180571|180583|180584|180617|180619|180620|180621|180637|180638|180665|180679|180753
HC0645,ECSCP Sintra - Polo Rio de Mouro,38.786181,-9.326693,1,0,0,0,219178139,sintra.paliativos@arslvt.min-saude.pt,,"Av. Infante Dom Henrique, 39/41",2635-367,Rio de Mouro,111108,Rio de Mouro,1111,Sintra,11,Lisboa,PT170,AML,170065|170066|170067|170068|170075|170077
HC0646,SAP Mafra,38.937040,-9.336359,0,1,0,0,261818100,ac.mafra@arslvt.min-saude.pt,,Largo Coronel Brito Gorjão,2640-465,Mafra,110909,Mafra,1109,Mafra,11,Lisboa,PT170,AML,080204|080205|080206|080959|080961|080973|080975|080979
HC0647,Posto de Colheita Dr. Joaquim Chaves - Amadora,38.756800,-9.221870,1,0,0,0,211951271,geral@jcs.pt,,"Rua Elias Garcia, 78 A",2700-329,Amadora,111515,Falagueira-Venda Nova,1115,Amadora,11,Lisboa,PT170,AML,030151|030152|030153|030154|030155|030607|030609|030613|030723|030724|030725|030726|030860
HC0648,SAC Amadora,38.758320,-9.234586,1,0,0,0,214930290,ac.amadora@arslvt.min-saude.pt,,"Largo Dr. Dário Granda Nunes, nº 1",2704-511,Amadora,111517,Venteira,1115,Amadora,11,Lisboa,PT170,AML,030317|030319|030467|030469|030475|030477|030479|030539|030601|030685|030821|030845|030869|030880
HC0649,SAC Queluz,38.763675,-9.259968,1,0,0,0,214309210,aces.sintra@arslvt.min-saude.pt,,"Av. da Liberdade, 36/37, 1º",2745-298,Queluz,111125,União das freguesias de Massamá e Monte Abraão,1111,Sintra,11,Lisboa,PT170,AML,170879|170881|170889|170891|170896|170897|170898|172528
HC0650,ECSCP Sintra - Massamá (Sede),38.752326,-9.274986,1,0,0,0,219178139,sintra.paliativos@arslvt.min-saude.pt,,Rua Teixeira Pascoais,2745-852,Massamá,111125,União das freguesias de Massamá e Monte Abraão,1111,Sintra,11,Lisboa,PT170,AML,170857|170859|170860|170937|170939|172553
HC0651,Posto de Colheita Germano de Sousa - Cascais,38.708800,-9.432770,1,0,0,0,211141400,geral.ccc@cuf.pt,,"Rua Fernão Lopes, 60",2750-663,Cascais,110508,União das freguesias de Cascais e Estoril,1105,Cascais,11,Lisboa,PT170,AML,050257|050259|050260
HC0652,Posto de Colheita Germano de Sousa - São Domingos de Rana,38.725800,-9.336970,1,0,0,0,214549450,geral.ccc@cuf.pt,,"Rua Afonso de Albuquerque, 195 B",2785-596,São Domingos de Rana,110506,São Domingos de Rana,1105,Cascais,11,Lisboa,PT170,AML,050129|050130|050430|050448
HC0653,ECSCP Lisboa Ocidental e Oeiras,38.715334,-9.234747,1,0,0,0,214153920|966507107,ecscp.lxooeiras@arslvt.min-saude.pt,,"Largo Prof. Fernando da Fonseca, nº 10",2799-534,Linda-a-Velha,111012,"União das freguesias de Algés, Linda-a-Velha e Cruz Quebrada-Dafundo",1110,Oeiras,11,Lisboa,PT170,AML,120176|120177|120178|120235|120237|120238|120239|120240|120359|120397|121065|121066|121067|121069|121081|121093|121257|121278
HC0654,Posto de Colheita Germano de Sousa - Almada - Monte da Caparica,38.665700,-9.197130,0,0,1,0,219019000,geral.ccal_jms@cuf.pt,,"Rua Manuel Tito Morais, nº 2 r/c",2825-146,Monte da Caparica,150313,União das freguesias de Caparica e Trafaria,1503,Almada,15,Setúbal,PT170,AML,020305|020306|020308|020309|020310|020311|020361|020367
,,,,0,0,0,0,,,,,,,,,,,,,,,
,Hospital de Nossa Senhora do Rosário - CHBM,38.655316,-9.057916,0,0,0,0,212147300,http://www.chbm.min-saude.pt/,,,,,,,,,,,,,
,,,,0,0,0,0,,,,,,,,,,,,,,,
,Hospital da Luz de Setúbal,38.533195,-8.909026,0,0,0,0,217104400,https://www.hospitaldaluz.pt/setubal/pt/,,,,,,,,,,,,,
,Hospital Nossa Senhora da Arrábida,38.547465,-9.029002,0,0,0,0,210495672,https://hnsa.pt/,,,,,,,,,,,,,
,Hospital Ortopédico Santiago do Outão,38.490787,-8.934159,0,0,0,0,265543900,http://www.chs.min-saude.pt/,,,,,,,,,,,,,
,Hospital de São Bernardo,38.529726,-8.880623,0,0,0,0,265549000,http://www.chs.min-saude.pt/como-chegar/hospital-de-sao-bernardo/,,,,,,,,,,,,,