id,name,lat,lon,A1,A2,A3,A4,phone,email,url,address,postal_code,locality,parish_id,parish_name,municipality_id,municipality_name,district_id,district_name,region_id,region_name,stops
EC0001,IEFP - Centro de Emprego e Formação Profissional da Amadora,38.753011,-9.219027,1,0,0,0, 215802360 ,,https://eportugal.gov.pt/web/guest/pesquisa/-/pesquisa/tudo/IEFP%20-%20Centro%20de%20Emprego%20e%20Forma%C3%A7%C3%A3o%20Profissional%20da%20Amadora,"R. Latino Coelho, 10",2704-503,Venda Nova,15,Falagueira-Venda Nova,1115,Amadora,11,Lisboa,PT170,AML,030283|030284|030305|030307|030405|030406|030860|030882
EC0002,"IEFP - GIP APROXIMAR, Cooperativa de Solidariedade Social, CRL",38.734213,-9.210181,1,0,0,0, 211 336 681 | 911 939 224,,"https://eportugal.gov.pt/web/guest/pesquisa/-/pesquisa/tudo/IEFP%20-%20GIP%20APROXIMAR,%20Cooperativa%20de%20Solidariedade%20Social,%20CRL","Rua do Paraíso, Loja n.º 2",2610-136,Amadora,12,Alfragide,1115,Amadora,11,Lisboa,PT170,AML,030013|030014|030015|030016|030018|030561
EC0003,IEFP - GIP Associação Cultural Moinho da Juventude,38.745088,-9.212862,1,0,0,0,214906510,,https://eportugal.gov.pt/web/guest/pesquisa/-/pesquisa/tudo/IEFP%20-%20GIP%20Associa%C3%A7%C3%A3o%20Cultural%20Moinho%20da%20Juventude,"Rua da Ilha Brava, n.º 11 - B.º do Alto da Cova da Moura",2610-222,Amadora,13,Águas Livres,1115,Amadora,11,Lisboa,PT170,AML,030037|030038|030039|030040|030051|030052|030749|030781
EC0004,IEFP - GIP Imigrante Associação de Jardins-Escolas João de Deus,38.753720,-9.218922,1,0,0,0, 916603461 ,,https://eportugal.gov.pt/web/guest/pesquisa/-/pesquisa/tudo/IEFP%20-%20GIP%20Imigrante%20Associa%C3%A7%C3%A3o%20de%20Jardins-Escolas%20Jo%C3%A3o%20de%20Deus,"Estrada da Falagueira, S/N",2700-354,Falagueira,15,Falagueira-Venda Nova,1115,Amadora,11,Lisboa,PT170,AML,030283|030284|030303|030305|030307|030405|030406|030860|030882
EC0005,IEFP - GIP Junta de Freguesia de Encosta do Sol,38.766140,-9.213719,1,0,0,0, 214 768 400 | 963 696 901 ,,https://eportugal.gov.pt/web/guest/pesquisa/-/pesquisa/tudo/IEFP%20-%20GIP%20Junta%20de%20Freguesia%20de%20Encosta%20do%20Sol,"Rua Luís Vaz de Camões, s/n",2650-197,Amadora,14,Encosta do Sol,1115,Amadora,11,Lisboa,PT170,AML,030355|030356|030373|030377|030387|030389|030390|030423|030425|030427|030695|030701|030737|030852
EC0006,IEFP - GIP Junta de Freguesia de Águas Livres,38.750690,-9.229879,1,0,0,0, 214 952 181 | 914 490 282,,https://eportugal.gov.pt/web/guest/pesquisa/-/pesquisa/tudo/IEFP%20-%20GIP%20Junta%20de%20Freguesia%20de%20%C3%81guas%20Livres,"Avenida D. José I, n.º 57",2720-176,Amadora,17,Venteira,1115,Amadora,11,Lisboa,PT170,AML,030445|030446|030453|030454|030457|030458|030459|030461|030462|030483|030485|030491|030492|030493|030495|030497|030535|030543|030865|030866|030867|030868
EC0007,IEFP - Serviço de Emprego da Amadora,38.759895,-9.240729,1,0,0,0, 215802320,,https://eportugal.gov.pt/web/guest/pesquisa/-/pesquisa/tudo/IEFP%20-%20Servi%C3%A7o%20de%20Emprego%20da%20Amadora,"Av. D. Nuno Álvares Pereira, 1-A",2700-253,Amadora,17,Venteira,1115,Amadora,11,Lisboa,PT170,AML,030319|030322|030323|030343|030344|030345|030346|030475|030620|030621|030622|030734|030880
EC0008,IEFP - Serviço de Formação Profissional da Amadora,38.753011,-9.219027,1,0,0,0, 215802360 ,,https://eportugal.gov.pt/web/guest/pesquisa/-/pesquisa/tudo/IEFP%20-%20Servi%C3%A7o%20de%20Forma%C3%A7%C3%A3o%20Profissional%20da%20Amadora,"R. Latino Coelho, 10 - Venda Nova",2704-503,Amadora,15,Falagueira-Venda Nova,1115,Amadora,11,Lisboa,PT170,AML,030283|030284|030305|030307|030405|030406|030860|030882
EC0009,IEFP - Centro de Emprego de Cascais,38.699846,-9.419194,1,0,0,0,215802520,,https://eportugal.gov.pt/web/guest/pesquisa/-/pesquisa/tudo/IEFP%20-%20Centro%20de%20Emprego%20de%20Cascais,"Av. Valbom, 17, 1.º andar, Cascais",2750-508,Cascais,8,União das freguesias de Cascais e Estoril,1105,Cascais,11,Lisboa,PT170,AML,050205|050247|050319|050419|050424
EC0010,IEFP - Centro de Formação e Reabilitação Profissional de Alcoitão,38.731925,-9.400464,1,0,0,0,215802870 ,,https://eportugal.gov.pt/web/guest/pesquisa/-/pesquisa/tudo/IEFP%20-%20Centro%20de%20Forma%C3%A7%C3%A3o%20e%20Reabilita%C3%A7%C3%A3o%20Profissional%20de%20Alcoit%C3%A3o,"Rua do Conde Barão, 317",2645-109,Alcoitão - Alcabideche,1,Alcabideche,1105,Cascais,11,Lisboa,PT170,AML,050189|050190|050191|050192|050193|050194
EC0011,IEFP - GIP CESPA - Centro Social da Paróquia de Nossa Senhora da Conceição de Abóboda,38.737538,-9.312737,1,0,0,0, 214210527 ,,https://eportugal.gov.pt/web/guest/pesquisa/-/pesquisa/tudo/IEFP%20-%20GIP%20CESPA%20-%20Centro%20Social%20da%20Par%C3%B3quia%20de%20Nossa%20Senhora%20da%20Concei%C3%A7%C3%A3o%20de%20Ab%C3%B3boda,"Estrada de Talaíde, Centro Paroquial, Largo da Igreja - Talaíde",2780-290,São Domingos de Rana,6,São Domingos de Rana,1105,Cascais,11,Lisboa,PT170,AML,050106|050107|050109|050110|050111|050113|050114|121003|121004
EC0012,IEFP - GIP Centro Comunitário da Paróquia de Carcavelos,38.693824,-9.335467,1,0,0,0, 214 578 952 | 965 747 001,,https://eportugal.gov.pt/web/guest/pesquisa/-/pesquisa/tudo/IEFP%20-%20GIP%20Centro%20Comunit%C3%A1rio%20da%20Par%C3%B3quia%20de%20Carcavelos,"Av. do Loureiro, 394, Carcavelos",2775-599,Carcavelos,7,União das freguesias de Carcavelos e Parede,1105,Cascais,11,Lisboa,PT170,AML,
EC0013,IEFP - GIP Clube Gaivotas da Torre - Associação Juvenil,38.702332,-9.440779,1,0,0,0, 214 815 366 | 932 448 673,,https://eportugal.gov.pt/web/guest/pesquisa/-/pesquisa/tudo/IEFP%20-%20GIP%20Clube%20Gaivotas%20da%20Torre%20-%20Associa%C3%A7%C3%A3o%20Juvenil,"Praça do Atlântico, Edifício Multiserviços, Polo Comunitário da Torre, Bairro da Torre",2750-615,Cascais,8,União das freguesias de Cascais e Estoril,1105,Cascais,11,Lisboa,PT170,AML,
EC0014,IEFP - GIP Cruz Vermelha Portuguesa - Delegação da Costa do Estoril,38.700345,-9.353980,1,0,0,0, 214 570 924 | 911 507 555 ,,https://eportugal.gov.pt/web/guest/pesquisa/-/pesquisa/tudo/IEFP%20-%20GIP%20Cruz%20Vermelha%20Portuguesa%20-%20Delega%C3%A7%C3%A3o%20da%20Costa%20do%20Estoril,"Rua Maria Lalande, n.º 86 - Madorna",2785-307,São Domingos de Rana,6,São Domingos de Rana,1105,Cascais,11,Lisboa,PT170,AML,050519
EC0015,IEFP - GIP Imigrante Centro Cultural Moldavo,38.737119,-9.338486,1,0,0,0, 214 480 017 | 966 730 519,,https://eportugal.gov.pt/web/guest/pesquisa/-/pesquisa/tudo/IEFP%20-%20GIP%20Imigrante%20Centro%20Cultural%20Moldavo,"Rua José Malhoa, 11 (antiga Escola Primária de Trajouce)",2785-657,São Domingos de Rana,6,São Domingos de Rana,1105,Cascais,11,Lisboa,PT170,AML,050119|050120|050171|050172
EC0016,"IEFP - GIP Inclusivo CERCICA-Cooperativa para a Educação e Reabilitação de Cidadãos Inadaptados de Cascais, CRL",38.699170,-9.423314,1,0,0,0,210 131 611 ,,"https://eportugal.gov.pt/web/guest/pesquisa/-/pesquisa/tudo/IEFP%20-%20GIP%20Inclusivo%20CERCICA-Cooperativa%20para%20a%20Educa%C3%A7%C3%A3o%20e%20Reabilita%C3%A7%C3%A3o%20de%20Cidad%C3%A3os%20Inadaptados%20de%20Cascais,%20CRL","Rua Manuel Joaquim Avelar, n.º 118",2750-642,Cascais,8,União das freguesias de Cascais e Estoril,1105,Cascais,11,Lisboa,PT170,AML,050251|050317
EC0017,"IEFP - GIP SEACOOP - Social Entrepreneurs Agency, CRL - Alcabideche",38.746323,-9.379098,1,0,0,0,21 460 50 38,,"https://eportugal.gov.pt/web/guest/pesquisa/-/pesquisa/tudo/IEFP%20-%20GIP%20SEACOOP%20-%20Social%20Entrepreneurs%20Agency,%20CRL%20-%20Alcabideche","Rua Piaget, n.º 47, R/c Esq., loja 150, Adroana",2645-626,Alcabideche,1,Alcabideche,1105,Cascais,11,Lisboa,PT170,AML,
EC0018,IEFP - GIP União das Freguesias de Cascais e Estoril,38.699858,-9.419170,1,0,0,0,214646148,,https://eportugal.gov.pt/web/guest/pesquisa/-/pesquisa/tudo/IEFP%20-%20GIP%20Uni%C3%A3o%20das%20Freguesias%20de%20Cascais%20e%20Estoril,Rua de Santa Rita n.º 45,2765-281,Estoril,8,União das freguesias de Cascais e Estoril,1105,Cascais,11,Lisboa,PT170,AML,050205|050247|050319|050419|050424
EC0019,IEFP - Polo de Formaçao Profissional da Guia,38.701942,-9.440563,1,0,0,0,214836474 ,,https://eportugal.gov.pt/web/guest/pesquisa/-/pesquisa/tudo/IEFP%20-%20Polo%20de%20Forma%C3%A7ao%20Profissional%20da%20Guia,"Rua das Carcavelas, Praça do Atlantico",2750-615,Torre,8,União das freguesias de Cascais e Estoril,1105,Cascais,11,Lisboa,PT170,AML,
EC0020,IEFP - ANEME - Associação Nacional das Empresas Metalúrgicas e Eletromecânicas,38.765243,-9.184001,1,0,0,0, 217 112 740,,https://eportugal.gov.pt/web/guest/pesquisa/-/pesquisa/tudo/IEFP%20-%20ANEME%20-%20Associa%C3%A7%C3%A3o%20Nacional%20das%20Empresas%20Metal%C3%BArgicas%20e%20Eletromec%C3%A2nicas,Rua Francisco Cortês Pinto,1600-602,Lisboa,11,Carnide,1106,Lisboa,11,Lisboa,PT170,AML,
EC0021,IEFP - CEFOSAP - Centro de Formação Sindical e Aperfeiçoamento Profissional,38.739374,-9.124570,1,0,0,0, 218 626 040,,https://eportugal.gov.pt/web/guest/pesquisa/-/pesquisa/tudo/IEFP%20-%20CEFOSAP%20-%20Centro%20de%20Forma%C3%A7%C3%A3o%20Sindical%20e%20Aperfei%C3%A7oamento%20Profissional,"Avenida Eng.º Arantes e Oliveira, 7",1900-221,Lisboa,55,Areeiro,1106,Lisboa,11,Lisboa,PT170,AML,
EC0022,IEFP - CENFIM - Centro de Formação Profissional da Industria Metalurgica e Metalomecânica,38.736260,-9.104186,1,0,0,0,21 861 01 50 ,,https://eportugal.gov.pt/web/guest/pesquisa/-/pesquisa/tudo/IEFP%20-%20CENFIM%20-%20Centro%20de%20Forma%C3%A7%C3%A3o%20Profissional%20da%20Industria%20Metalurgica%20e%20Metalomec%C3%A2nica,"Rua do Açúcar, 88",1950-010,Lisboa,7,Beato,1106,Lisboa,11,Lisboa,PT170,AML,
EC0023,"IEFP - CINEL - Centro de Formação Profissional da Indústria Electrónica, Energia, Telecomunicações e Tecnologias da Informação",38.702143,-9.188154,1,0,0,0,214967700,,"https://eportugal.gov.pt/web/guest/pesquisa/-/pesquisa/tudo/IEFP%20-%20CINEL%20-%20Centro%20de%20Forma%C3%A7%C3%A3o%20Profissional%20da%20Ind%C3%BAstria%20Electr%C3%B3nica,%20Energia,%20Telecomunica%C3%A7%C3%B5es%20e%20Tecnologias%20da%20Informa%C3%A7%C3%A3o",Rua Jau - Alto de Santo Amaro,1300-312,Lisboa,2,Alcântara,1106,Lisboa,11,Lisboa,PT170,AML,
EC0024,IEFP - Centro Protocolar de Formação Profissional para Jornalistas (CENJOR),38.699644,-9.194440,1,0,0,0, 21 885 50 00,,https://eportugal.gov.pt/web/guest/pesquisa/-/pesquisa/tudo/IEFP%20-%20Centro%20Protocolar%20de%20Forma%C3%A7%C3%A3o%20Profissional%20para%20Jornalistas%20(CENJOR),Rua Alexandre de Sá Pinto,1349-064,Lisboa,58,Belém,1106,Lisboa,11,Lisboa,PT170,AML,
EC0025,IEFP - Centro Protocolar de Formação Profissional para o Sector da Justiça (CP JUSTIÇA),38.742946,-9.176022,1,0,0,0, 21 771 17 50 ,,https://eportugal.gov.pt/web/guest/pesquisa/-/pesquisa/tudo/IEFP%20-%20Centro%20Protocolar%20de%20Forma%C3%A7%C3%A3o%20Profissional%20para%20o%20Sector%20da%20Justi%C3%A7a%20(CP%20JUSTI%C3%87A),Rua S. Domingos de Benfica Nº16,1500-559,Lisboa,39,São Domingos de Benfica,1106,Lisboa,11,Lisboa,PT170,AML,
EC0026,IEFP - Centro de Emprego e Formação Profissional de Lisboa,38.734606,-9.146965,1,0,0,0, 215802100,,https://eportugal.gov.pt/web/guest/pesquisa/-/pesquisa/tudo/IEFP%20-%20Centro%20de%20Emprego%20e%20Forma%C3%A7%C3%A3o%20Profissional%20de%20Lisboa,"Av 5 de Outubro, 24 R/CH",1050-057,São Sebastião da Pedreira,57,Avenidas Novas,1106,Lisboa,11,Lisboa,PT170,AML,
EC0027,IEFP - Centro de Formação Profissional da Indústria Metalúrgica e Metalomecânica (CENFIM) - Lisboa,38.736260,-9.104186,1,0,0,0, 21 715 08 90 ,,https://eportugal.gov.pt/web/guest/pesquisa/-/pesquisa/tudo/IEFP%20-%20Centro%20de%20Forma%C3%A7%C3%A3o%20Profissional%20da%20Ind%C3%BAstria%20Metal%C3%BArgica%20e%20Metalomec%C3%A2nica%20(CENFIM)%20-%20Lisboa,"Rua Cesina Adães Bermudes, N.º 1",1600-604,Lisboa,7,Beato,1106,Lisboa,11,Lisboa,PT170,AML,
EC0028,IEFP - Centro de Formação Profissional da Indústria Metalúrgica e Metalomecânica (CENFIM) - Lisboa,38.736260,-9.104186,1,0,0,0,21 861 01 51,,https://eportugal.gov.pt/web/guest/pesquisa/-/pesquisa/tudo/IEFP%20-%20Centro%20de%20Forma%C3%A7%C3%A3o%20Profissional%20da%20Ind%C3%BAstria%20Metal%C3%BArgica%20e%20Metalomec%C3%A2nica%20(CENFIM)%20-%20Lisboa,"Rua dos Amigos de Lisboa, S/N.º",1950-30,Lisboa,7,Beato,1106,Lisboa,11,Lisboa,PT170,AML,
EC0029,"IEFP - Centro de Formação Profissional da Indústria Têxtil, Vestuário, Confecção e Lanifícios (MODATEX) - Lisboa",38.748397,-9.188044,1,0,0,0, 217 713 100,,"https://eportugal.gov.pt/web/guest/pesquisa/-/pesquisa/tudo/IEFP%20-%20Centro%20de%20Forma%C3%A7%C3%A3o%20Profissional%20da%20Ind%C3%BAstria%20T%C3%AAxtil,%20Vestu%C3%A1rio,%20Confec%C3%A7%C3%A3o%20e%20Lanif%C3%ADcios%20(MODATEX)%20-%20Lisboa",R Prof Reinaldo dos Santos Lte 1510,1500-505,Lisboa,39,São Domingos de Benfica,1106,Lisboa,11,Lisboa,PT170,AML,
EC0030,IEFP - Centro de Formação Profissional das Pescas e do Mar (FOR-MAR) - Lisboa,38.695718,-9.224190,1,0,0,0,213037100,,https://eportugal.gov.pt/web/guest/pesquisa/-/pesquisa/tudo/IEFP%20-%20Centro%20de%20Forma%C3%A7%C3%A3o%20Profissional%20das%20Pescas%20e%20do%20Mar%20(FOR-MAR)%20-%20Lisboa,Av. Brasília - Ed. FOR-MAR - Pedrouços,1400-038,Lisboa,58,Belém,1106,Lisboa,11,Lisboa,PT170,AML,
EC0031,"IEFP - Citeforma - Centro de Formação Profissional dos Trabalhadores de Escritório, Comércio, Serviços e Novas Tecnologias",38.738353,-9.150049,1,0,0,0,21 799 45 60,,"https://eportugal.gov.pt/web/guest/pesquisa/-/pesquisa/tudo/IEFP%20-%20Citeforma%20-%20Centro%20de%20Forma%C3%A7%C3%A3o%20Profissional%20dos%20Trabalhadores%20de%20Escrit%C3%B3rio,%20Com%C3%A9rcio,%20Servi%C3%A7os%20e%20Novas%20Tecnologias","Avenida Marquês de Tomar, 91",1069-181,Lisboa,57,Avenidas Novas,1106,Lisboa,11,Lisboa,PT170,AML,061219|061220
EC0032,IEFP - Delegação Regional de Lisboa e Vale do Tejo do IEFP,38.734555,-9.146969,1,0,0,0,213307400,,https://eportugal.gov.pt/web/guest/pesquisa/-/pesquisa/tudo/IEFP%20-%20Delega%C3%A7%C3%A3o%20Regional%20de%20Lisboa%20e%20Vale%20do%20Tejo%20do%20IEFP,"Rua de Picoas, 14",1069-003,Lisboa,57,Avenidas Novas,1106,Lisboa,11,Lisboa,PT170,AML,
EC0033,IEFP - GIP AGIR XXI - Associação Inclusão Social,38.745910,-9.103880,1,0,0,0,218380003,,https://eportugal.gov.pt/web/guest/pesquisa/-/pesquisa/tudo/IEFP%20-%20GIP%20AGIR%20XXI%20-%20Associa%C3%A7%C3%A3o%20Inclus%C3%A3o%20Social,"Rua Vale Formoso de Cima, n.º 47",1950-263,Lisboa,21,Marvila,1106,Lisboa,11,Lisboa,PT170,AML,
EC0034,IEFP - GIP Centro Social da Musgueira,38.777100,-9.154575,1,0,0,0,217 560 395,,https://eportugal.gov.pt/web/guest/pesquisa/-/pesquisa/tudo/IEFP%20-%20GIP%20Centro%20Social%20da%20Musgueira,"Rua Maria Margarida, n.º 6",1750-186,Lisboa,18,Lumiar,1106,Lisboa,11,Lisboa,PT170,AML,
EC0035,IEFP - GIP Freguesia São Domingos de Benfica,38.746356,-9.187993,1,0,0,0,217 248 610,,https://eportugal.gov.pt/web/guest/pesquisa/-/pesquisa/tudo/IEFP%20-%20GIP%20Freguesia%20S%C3%A3o%20Domingos%20de%20Benfica,"Rua António Saúde, n.º 11-13",1500-048,Lisboa,39,São Domingos de Benfica,1106,Lisboa,11,Lisboa,PT170,AML,
EC0036,IEFP - GIP Freguesia de Belém,38.705595,-9.206785,1,0,0,0,210132330,,https://eportugal.gov.pt/web/guest/pesquisa/-/pesquisa/tudo/IEFP%20-%20GIP%20Freguesia%20de%20Bel%C3%A9m,"Rua João de Paiva, n.º 11",1400-225,Lisboa,58,Belém,1106,Lisboa,11,Lisboa,PT170,AML,060093|060094|060095|060096
EC0037,IEFP - GIP Freguesia de Olivais - Espaço Juventude,38.761677,-9.109517,1,0,0,0,218 533 231,,https://eportugal.gov.pt/web/guest/pesquisa/-/pesquisa/tudo/IEFP%20-%20GIP%20Freguesia%20de%20Olivais%20-%20Espa%C3%A7o%20Juventude,"Rua Eurico da Fonseca, Loja 1 C",1800-421,Lisboa,33,Olivais,1106,Lisboa,11,Lisboa,PT170,AML,
EC0038,IEFP - GIP Freguesia de Parque das Nações,38.772266,-9.102183,1,0,0,0,211379673 ,,https://eportugal.gov.pt/web/guest/pesquisa/-/pesquisa/tudo/IEFP%20-%20GIP%20Freguesia%20de%20Parque%20das%20Na%C3%A7%C3%B5es,"Rua Padre Joaquim Alves Correia, Lote 23 A/B/C",1800-292,Lisboa,62,Parque das Nações,1106,Lisboa,11,Lisboa,PT170,AML,060007|060221|060331
EC0039,IEFP - GIP Imigrante ALCC - Associação Lusofonia Cultura e Cidadania,38.786042,-9.158783,1,0,0,0,21803192,,https://eportugal.gov.pt/web/guest/pesquisa/-/pesquisa/tudo/IEFP%20-%20GIP%20Imigrante%20ALCC%20-%20Associa%C3%A7%C3%A3o%20Lusofonia%20Cultura%20e%20Cidadania,"Rua Varela Silva, Lote 10, Loja B",1750-403,Lisboa,64,Santa Clara,1106,Lisboa,11,Lisboa,PT170,AML,060175|060183|060185
EC0040,IEFP - GIP Imigrante Aguinenso - Associação Guineense de Solidariedade Social,38.747078,-9.112454,1,0,0,0,210522580,,https://eportugal.gov.pt/web/guest/pesquisa/-/pesquisa/tudo/IEFP%20-%20GIP%20Imigrante%20Aguinenso%20-%20Associa%C3%A7%C3%A3o%20Guineense%20de%20Solidariedade%20Social,"Av.ª João Paulo II, Lote 528, 2.º A",1950-430,Lisboa,21,Marvila,1106,Lisboa,11,Lisboa,PT170,AML,
EC0041,IEFP - GIP Junta de Freguesia da Ajuda,38.705779,-9.199104,1,0,0,0,924057224 ,,https://eportugal.gov.pt/web/guest/pesquisa/-/pesquisa/tudo/IEFP%20-%20GIP%20Junta%20de%20Freguesia%20da%20Ajuda,"Rua das Açucenas, Lote 1, Loja B",1300-003,Lisboa,1,Ajuda,1106,Lisboa,11,Lisboa,PT170,AML,
EC0042,IEFP - GIP Junta de Freguesia de Penha de França,38.732557,-9.121902,1,0,0,0,968830031 ,,https://eportugal.gov.pt/web/guest/pesquisa/-/pesquisa/tudo/IEFP%20-%20GIP%20Junta%20de%20Freguesia%20de%20Penha%20de%20Fran%C3%A7a,"Avenida Marechal Costa Gomes, n.º 13",1900-456,Lisboa,63,Penha de França,1106,Lisboa,11,Lisboa,PT170,AML,
EC0043,IEFP - GIP Junta de Freguesia de Santa Clara,38.786713,-9.143194,1,0,0,0,211 163 305/6,,https://eportugal.gov.pt/web/guest/pesquisa/-/pesquisa/tudo/IEFP%20-%20GIP%20Junta%20de%20Freguesia%20de%20Santa%20Clara,"Campo das Amoreiras, Charneca",1750-025,Lisboa,64,Santa Clara,1106,Lisboa,11,Lisboa,PT170,AML,060229|060231|060245|060246|070877|070878|071377|071378
EC0044,IEFP - GIP Junta de Freguesia de Santa Maria Maior,38.714016,-9.136310,1,0,0,0,218 872 199 | 962 312 303,,https://eportugal.gov.pt/web/guest/pesquisa/-/pesquisa/tudo/IEFP%20-%20GIP%20Junta%20de%20Freguesia%20de%20Santa%20Maria%20Maior,"Poço do Borratém, n.º 25, 2.º",1100-408,Lisboa,65,Santa Maria Maior,1106,Lisboa,11,Lisboa,PT170,AML,
EC0045,IEFP - GIP RECOMEÇAR - Associação para o Desenvolvimento de Acções de Inserção Social e Profissional,38.712431,-9.152255,1,0,0,0,213 957 550 | 929 110 612,,https://eportugal.gov.pt/web/guest/pesquisa/-/pesquisa/tudo/IEFP%20-%20GIP%20RECOME%C3%87AR%20-%20Associa%C3%A7%C3%A3o%20para%20o%20Desenvolvimento%20de%20Ac%C3%A7%C3%B5es%20de%20Inser%C3%A7%C3%A3o%20Social%20e%20Profissional,"Tr. da Arrochela, 52-S. Bento",1200-033,Lisboa,61,Misericórdia,1106,Lisboa,11,Lisboa,PT170,AML,
EC0046,IEFP - GIP SISEP - Sindicato dos Profissionais de Seguros de Portugal - Lisboa,38.762639,-9.161578,1,0,0,0,213 103 630 | 937 515 826,,https://eportugal.gov.pt/web/guest/pesquisa/-/pesquisa/tudo/IEFP%20-%20GIP%20SISEP%20-%20Sindicato%20dos%20Profissionais%20de%20Seguros%20de%20Portugal%20-%20Lisboa,Rua Professor Fernando da Fonseca,1600-618,Lisboa,18,Lumiar,1106,Lisboa,11,Lisboa,PT170,AML,
EC0047,IEFP - INOVINTER - Centro de Formação e de Inovação Tecnológica,38.724312,-9.135319,1,0,0,0,218 163 010,,https://eportugal.gov.pt/web/guest/pesquisa/-/pesquisa/tudo/IEFP%20-%20INOVINTER%20-%20Centro%20de%20Forma%C3%A7%C3%A3o%20e%20de%20Inova%C3%A7%C3%A3o%20Tecnol%C3%B3gica,"Av. Almirante Reis, 45, R/C Dt",1150-010,Lisboa,56,Arroios,1106,Lisboa,11,Lisboa,PT170,AML,
EC0048,IEFP - Serviço de Emprego de Benfica,38.754175,-9.205612,1,0,0,0,215802190,,https://eportugal.gov.pt/web/guest/pesquisa/-/pesquisa/tudo/IEFP%20-%20Servi%C3%A7o%20de%20Emprego%20de%20Benfica,"R. das Pedralvas, 15-A",1500-487,Lisboa,8,Benfica,1106,Lisboa,11,Lisboa,PT170,AML,060043|060044|060426|060427|060435
EC0049,IEFP - Serviço de Emprego de Picoas,38.734606,-9.146965,1,0,0,0,215802100,,https://eportugal.gov.pt/web/guest/pesquisa/-/pesquisa/tudo/IEFP%20-%20Servi%C3%A7o%20de%20Emprego%20de%20Picoas,"Av. 5 de Outubro, nº 24 - R/c",1050-057,Lisboa,57,Avenidas Novas,1106,Lisboa,11,Lisboa,PT170,AML,
EC0050,IEFP - Serviço de Formação Profissional de Lisboa,38.705895,-9.176321,1,0,0,0,215802230,,https://eportugal.gov.pt/web/guest/pesquisa/-/pesquisa/tudo/IEFP%20-%20Servi%C3%A7o%20de%20Forma%C3%A7%C3%A3o%20Profissional%20de%20Lisboa,"Rua dos Lusíadas, nº 1",1300-364,Lisboa,2,Alcântara,1106,Lisboa,11,Lisboa,PT170,AML,060021|060380
EC0051,IEFP - Serviços Centrais,38.726919,-9.111188,1,0,0,0,215803000,,https://eportugal.gov.pt/web/guest/pesquisa/-/pesquisa/tudo/IEFP%20-%20Servi%C3%A7os%20Centrais,"Rua de Xabregas, n.º 52",1949-003,Lisboa,7,Beato,1106,Lisboa,11,Lisboa,PT170,AML,
EC0052,IEFP - GIP Centro Social Paroquial de Barcarena,38.746137,-9.265525,1,0,0,0, 214 352 617 | 967 128 629,,https://eportugal.gov.pt/web/guest/pesquisa/-/pesquisa/tudo/IEFP%20-%20GIP%20Centro%20Social%20Paroquial%20de%20Barcarena,"Estrada Consiglieri Pedroso (antiga escola primária), Barcarena",2730-054,Queluz de Baixo,2,Barcarena,1110,Oeiras,11,Lisboa,PT170,AML,120385|120387|120403|120537|120538|121097|121099
EC0053,IEFP - GIP Câmara Municipal de Oeiras - Algés,38.692831,-9.314088,1,0,0,0, 21 411 40 02,,https://eportugal.gov.pt/web/guest/pesquisa/-/pesquisa/tudo/IEFP%20-%20GIP%20C%C3%A2mara%20Municipal%20de%20Oeiras%20-%20Alg%C3%A9s,"Rua de Olivença, Loja 11 B, Algés",1495-099,Algés,14,"União das freguesias de Oeiras e São Julião da Barra, Paço de Arcos e Caxias",1110,Oeiras,11,Lisboa,PT170,AML,120731|120733|120781|120783|120817
EC0054,IEFP - GIP Câmara Municipal de Oeiras - Centro Cívico de Carnaxide,38.726621,-9.241395,1,0,0,0, 21 193 04 52,,https://eportugal.gov.pt/web/guest/pesquisa/-/pesquisa/tudo/IEFP%20-%20GIP%20C%C3%A2mara%20Municipal%20de%20Oeiras%20-%20Centro%20C%C3%ADvico%20de%20Carnaxide,"Rua Cesário Verde, Centro Cívico de Carnaxide",2790-047,Carnaxide,13,União das freguesias de Carnaxide e Queijas,1110,Oeiras,11,Lisboa,PT170,AML,120041|120042|120047|120101|120103|120277|120415|120435|120473|120474|120475|120476|120477|120479|120481|120483
EC0055,IEFP - GIP Câmara Municipal de Oeiras - Centro de Juventude de Oeiras,38.693340,-9.323893,1,0,0,0, 214467577 ,,https://eportugal.gov.pt/web/guest/pesquisa/-/pesquisa/tudo/IEFP%20-%20GIP%20C%C3%A2mara%20Municipal%20de%20Oeiras%20-%20Centro%20de%20Juventude%20de%20Oeiras,"Centro da Juventude da CMO, Rua Monsenhor Ferreira de Melo, Oeiras",2780-141,Oeiras,14,"União das freguesias de Oeiras e São Julião da Barra, Paço de Arcos e Caxias",1110,Oeiras,11,Lisboa,PT170,AML,120823|120825|120827|120875|121197|121198|121233|121234|121237|121239|121305
EC0056,"IEFP - GIP Freguesia de Oeiras e S. Julião, Paço de Arcos e Caxias",38.687377,-9.319190,1,0,0,0, 211 344 942 | 912 175 553 ,,"https://eportugal.gov.pt/web/guest/pesquisa/-/pesquisa/tudo/IEFP%20-%20GIP%20Freguesia%20de%20Oeiras%20e%20S.%20Juli%C3%A3o,%20Pa%C3%A7o%20de%20Arcos%20e%20Caxias",Rua Dr. Manuel Rodrigues - Edifício União das Juntas,2760-042,Caxias,14,"União das freguesias de Oeiras e São Julião da Barra, Paço de Arcos e Caxias",1110,Oeiras,11,Lisboa,PT170,AML,120729|120787|120788|120803|120804|120813|120879|121187|121188|121207|121235|121270|121272|121291|121297|121322|121323
EC0057,IEFP - Polo de Formaçao Profissional Oeiras,38.688759,-9.317894,1,0,0,0, 214430311,,https://eportugal.gov.pt/web/guest/pesquisa/-/pesquisa/tudo/IEFP%20-%20Polo%20de%20Forma%C3%A7ao%20Profissional%20Oeiras,"Largo Henrique de Paiva Couceiro, nº 46",2780-117,Oeiras,14,"União das freguesias de Oeiras e São Julião da Barra, Paço de Arcos e Caxias",1110,Oeiras,11,Lisboa,PT170,AML,120729|120787|120788|120803|120804|120813|120815|120817|120829|120830|120879|121187|121188|121207|121235|121270|121272|121291|121297
EC0058,IEFP - GIP ACAS - Associação Luso Caboverdeana de Sintra,38.787152,-9.332497,1,0,0,0, 219203371 ,,https://eportugal.gov.pt/web/guest/pesquisa/-/pesquisa/tudo/IEFP%20-%20GIP%20ACAS%20-%20Associa%C3%A7%C3%A3o%20Luso%20Caboverdeana%20de%20Sintra,"Rua João XXIII, Bloco A, Lote 1- Traseiras, Serra das Minas",2635-184,Serra das Minas,8,Rio de Mouro,1111,Sintra,11,Lisboa,PT170,AML,170083|170084|170085|170086|170087|170088|170157|170158|170159|170160
EC0059,IEFP - GIP Centro Social Paroquial de S. João das Lampas,38.875229,-9.398356,1,0,0,0, 219618241,,https://eportugal.gov.pt/web/guest/pesquisa/-/pesquisa/tudo/IEFP%20-%20GIP%20Centro%20Social%20Paroquial%20de%20S.%20Jo%C3%A3o%20das%20Lampas,"Avª. Central, nº 56",2705-737,S. João das Lampas,27,União das freguesias de São João das Lampas e Terrugem,1111,Sintra,11,Lisboa,PT170,AML,171661|171662|171663|171664|171665|171666|172660
EC0060,IEFP - GIP Câmara Municipal de Sintra,38.801094,-9.378550,1,0,0,0, 219239016,,https://eportugal.gov.pt/web/guest/pesquisa/-/pesquisa/tudo/IEFP%20-%20GIP%20C%C3%A2mara%20Municipal%20de%20Sintra,"Avenida Dr. Álvaro Vasconcelos, Lote 2 - 1º Portela de Sintra",2710-543,Sintra,28,"União das freguesias de Sintra (Santa Maria e São Miguel, São Martinho e São Pedro de Penaferrim)",1111,Sintra,11,Lisboa,PT170,AML,170307|170391|170821|171313|171314|171383|171384|171875|171877|171878|171919|171921|172481|172482|172483|172485|172533|172534
EC0061,IEFP - GIP Junta de Freguesia de Queluz e Belas,38.754937,-9.254981,1,0,0,0, 214 346 610 | 967 268 099,,https://eportugal.gov.pt/web/guest/pesquisa/-/pesquisa/tudo/IEFP%20-%20GIP%20Junta%20de%20Freguesia%20de%20Queluz%20e%20Belas,"Rua Conde Almeida Araújo, n.º 44",2745-061,Queluz,26,União das freguesias de Queluz e Belas,1111,Sintra,11,Lisboa,PT170,AML,170927|170928|172059|172061|172063|172067|172069|172071|172073|172476|172495|172499
EC0062,IEFP - GIP Município de Rio de Mouro,38.787229,-9.318014,1,0,0,0, 212404529 ,,https://eportugal.gov.pt/web/guest/pesquisa/-/pesquisa/tudo/IEFP%20-%20GIP%20Munic%C3%ADpio%20de%20Rio%20de%20Mouro,"Estrada Marquês de Pombal - Centro Comercial Fitares Shopping, Piso 2",2635-304,Rio de Mouro,8,Rio de Mouro,1111,Sintra,11,Lisboa,PT170,AML,170183|170185|170187|170506|172573|172576
EC0063,"IEFP - GIP Olho Vivo - Associação Defesa Património, Ambiente e Direitos Humanos",38.758097,-9.256289,1,0,0,0, 214 353 810 | 912 344 079,,"https://eportugal.gov.pt/web/guest/pesquisa/-/pesquisa/tudo/IEFP%20-%20GIP%20Olho%20Vivo%20-%20Associa%C3%A7%C3%A3o%20Defesa%20Patrim%C3%B3nio,%20Ambiente%20e%20Direitos%20Humanos","Avª. António Enes, 31, Centro Comercail de Queluz - Sala F-16",2745-068,Queluz,26,União das freguesias de Queluz e Belas,1111,Sintra,11,Lisboa,PT170,AML,170925|170926|170927|170928|171033|171034|172476|172477|172495|172499|172536
EC0064,"IEFP - GIP SEACOOP - Social Entrepreneurs Agency, CRL - Algueirão-Mem Martins",38.795177,-9.330312,1,0,0,0,219167208,,"https://eportugal.gov.pt/web/guest/pesquisa/-/pesquisa/tudo/IEFP%20-%20GIP%20SEACOOP%20-%20Social%20Entrepreneurs%20Agency,%20CRL%20-%20Algueir%C3%A3o-Mem%20Martins","Praceta Francisco Ramos da Costa, n.º 13-A",2725-556,Algueirão-Mem Martins,2,Algueirão-Mem Martins,1111,Sintra,11,Lisboa,PT170,AML,170263|170269|170271|170273|170275
EC0065,"IEFP - GIP União Freguesia de Almargem do Bispo, Pêro Pinheiro e Montelavar",38.842796,-9.272325,1,0,0,0, 219628160 ,,"https://eportugal.gov.pt/web/guest/pesquisa/-/pesquisa/tudo/IEFP%20-%20GIP%20Uni%C3%A3o%20Freguesia%20de%20Almargem%20do%20Bispo,%20P%C3%AAro%20Pinheiro%20e%20Montelavar","Avenida D. Afonso Henriques, 2",2715-214,Almargem do Bispo,23,"União das freguesias de Almargem do Bispo, Pêro Pinheiro e Montelavar",1111,Sintra,11,Lisboa,PT170,AML,170329|170331|170332|170333|170334|170397
EC0066,IEFP - GIP União das Freguesias do Cacém e São Marcos,38.760784,-9.297978,1,0,0,0,214 261 974 | 938 540 269 ,,https://eportugal.gov.pt/web/guest/pesquisa/-/pesquisa/tudo/IEFP%20-%20GIP%20Uni%C3%A3o%20das%20Freguesias%20do%20Cac%C3%A9m%20e%20S%C3%A3o%20Marcos,"Avenida Cidade de Lisboa, n.º 67 A",2735-006,Cacém e São Marcos,24,União das freguesias do Cacém e São Marcos,1111,Sintra,11,Lisboa,PT170,AML,170693|170695|170696|170699|170703|170741
EC0067,IEFP - GIP União de Freguesias de Massamá e Monte Abrãao,38.759074,-9.280963,1,0,0,0,210 135 492 | 931 780 635 ,,https://eportugal.gov.pt/web/guest/pesquisa/-/pesquisa/tudo/IEFP%20-%20GIP%20Uni%C3%A3o%20de%20Freguesias%20de%20Massam%C3%A1%20e%20Monte%20Abr%C3%A3ao,"Rua Dr. Francisco Ribeiro de Spínola, s/n, anexo R/c",2745-872,Queluz,25,União das freguesias de Massamá e Monte Abraão,1111,Sintra,11,Lisboa,PT170,AML,170915|170933|170935|170963|171015|171023|171024|171025|172548|172609
EC0068,IEFP - GiP União de Freguesias de Agualva e Mira Sintra,38.769312,-9.298750,1,0,0,0,219 145 487 | 967 066 299,,https://eportugal.gov.pt/web/guest/pesquisa/-/pesquisa/tudo/IEFP%20-%20GiP%20Uni%C3%A3o%20de%20Freguesias%20de%20Agualva%20e%20Mira%20Sintra,"Rua António Nunes Sequeira, n.º 16 B",2735-054,Agualva-Cacém,22,União das freguesias de Agualva e Mira-Sintra,1111,Sintra,11,Lisboa,PT170,AML,170457|170459|170460|170643|170647|170649|172486|172490|172500|172526|172532|172535|172551|172555|172556|172621
EC0069,IEFP - Serviço de Emprego de Sintra,38.803371,-9.381409,1,0,0,0,215802830,,https://eportugal.gov.pt/web/guest/pesquisa/-/pesquisa/tudo/IEFP%20-%20Servi%C3%A7o%20de%20Emprego%20de%20Sintra,Avenida Heliodoro Salgado nº 58-A e C,2710-573,Sintra,28,"União das freguesias de Sintra (Santa Maria e São Miguel, São Martinho e São Pedro de Penaferrim)",1111,Sintra,11,Lisboa,PT170,AML,171311|171313|171314|171315|171316|171381|171382|171383|171384|171917
EC0070,IEFP - Serviço de Formação Profissional de Sintra,38.782586,-9.369372,1,0,0,0,215802770,,https://eportugal.gov.pt/web/guest/pesquisa/-/pesquisa/tudo/IEFP%20-%20Servi%C3%A7o%20de%20Forma%C3%A7%C3%A3o%20Profissional%20de%20Sintra,Quinta da Bela Vista - Ranholas,2710-691,Sintra,28,"União das freguesias de Sintra (Santa Maria e São Miguel, São Martinho e São Pedro de Penaferrim)",1111,Sintra,11,Lisboa,PT170,AML,171159|171160|171887|171889
EC0071,IEFP - CENFIC - Centro de Formação Profissional da Indústria da Construção Civil e Obras Públicas do Sul,38.790193,-9.125948,0,1,0,0, 21 940 63 00,,https://eportugal.gov.pt/web/guest/pesquisa/-/pesquisa/tudo/IEFP%20-%20CENFIC%20-%20Centro%20de%20Forma%C3%A7%C3%A3o%20Profissional%20da%20Ind%C3%BAstria%20da%20Constru%C3%A7%C3%A3o%20Civil%20e%20Obras%20P%C3%BAblicas%20do%20Sul,Av. Severiano Falcão,2689-516,Prior Velho,27,União das freguesias de Sacavém e Prior Velho,1107,Loures,11,Lisboa,PT170,AML,071431|071432|071511|071512|071537|071539|071541|071542
EC0072,IEFP - CEPRA - CENTRO DE FORMAÇÃO PROFISSIONAL DA REPARAÇÃO AUTOMÓVEL,38.787084,-9.127539,0,1,0,0, 219 427 870 ,,https://eportugal.gov.pt/web/guest/pesquisa/-/pesquisa/tudo/IEFP%20-%20CEPRA%20-%20CENTRO%20DE%20FORMA%C3%87%C3%83O%20PROFISSIONAL%20DA%20REPARA%C3%87%C3%83O%20AUTOM%C3%93VEL,"Rua Francisco Salgado Zenha, 3",2685-332,Prior Velho,27,União das freguesias de Sacavém e Prior Velho,1107,Loures,11,Lisboa,PT170,AML,071429|071430|071441
EC0073,IEFP - GIP AESS - Associação Economia Solidária e Sustentável,38.840213,-9.160346,0,1,0,0,219834310 | 965062276 ,,https://eportugal.gov.pt/web/guest/pesquisa/-/pesquisa/tudo/IEFP%20-%20GIP%20AESS%20-%20Associa%C3%A7%C3%A3o%20Economia%20Solid%C3%A1ria%20e%20Sustent%C3%A1vel,"Rua Pedro Álvares Cabral, n.º 24",2670-391,Loures,7,Loures,1107,Loures,11,Lisboa,PT170,AML,070377|070379|070381|070439|070441|070443|070537|070538|071425
EC0074,IEFP - GIP Centro Paroquial de Bem Estar Social de Fernão Ferro,38.563516,-9.089790,0,1,0,0, 212 124 884 | 938 741 584 ,,https://eportugal.gov.pt/web/guest/pesquisa/-/pesquisa/tudo/IEFP%20-%20GIP%20Centro%20Paroquial%20de%20Bem%20Estar%20Social%20de%20Fern%C3%A3o%20Ferro,"Rua da Igreja, n.º 7",2685-061,Fernão Ferro,6,Fernão Ferro,1510,Loures,15,Setúbal,PT170,AML,140395|140397|140447|140449|140459|140460|140481|140507|140509
EC0075,IEFP - GIP Junta de Freguesia de Lousa,38.828124,-9.169811,0,1,0,0,219 751 445 | 964 226 107,,https://eportugal.gov.pt/web/guest/pesquisa/-/pesquisa/tudo/IEFP%20-%20GIP%20Junta%20de%20Freguesia%20de%20Lousa,"Rua Heróis do Ultramar, n.º 39 C",2670-759,Lousa,7,Loures,1107,Loures,11,Lisboa,PT170,AML,070029|070037|070361|070362|070475|070476|070477|070478|070479|070527|070529|070551
EC0076,"IEFP - GIP União das Freguesias de Santa Iria de Azóia, São João da Talha e Bobadela",38.846103,-9.086778,0,1,0,0,219568085 ,,"https://eportugal.gov.pt/web/guest/pesquisa/-/pesquisa/tudo/IEFP%20-%20GIP%20Uni%C3%A3o%20das%20Freguesias%20de%20Santa%20Iria%20de%20Az%C3%B3ia,%20S%C3%A3o%20Jo%C3%A3o%20da%20Talha%20e%20Bobadela","Rua de Angola, nº 28 A, Edifício Juvenet",2690-344,Santa Iria da Azóia,28,"União das freguesias de Santa Iria de Azoia, São João da Talha e Bobadela",1107,Loures,11,Lisboa,PT170,AML,070715|070717|070718|070771|071237|071238
EC0077,IEFP - Serviço de Emprego de Loures,38.828124,-9.169811,0,1,0,0, 215802570,,https://eportugal.gov.pt/web/guest/pesquisa/-/pesquisa/tudo/IEFP%20-%20Servi%C3%A7o%20de%20Emprego%20de%20Loures,"Rua de Goa, n.º 9 e 9 A",2670-437,Loures,7,Loures,1107,Loures,11,Lisboa,PT170,AML,070029|070037|070361|070362|070475|070476|070477|070478|070479|070527|070529|070551
EC0078,IEFP - Serviço de Emprego de Loures - Balcão de Atendimento Sacavém,38.790111,-9.107536,0,1,0,0, 215802570,,https://eportugal.gov.pt/web/guest/pesquisa/-/pesquisa/tudo/IEFP%20-%20Servi%C3%A7o%20de%20Emprego%20de%20Loures%20-%20Balc%C3%A3o%20de%20Atendimento%20Sacav%C3%A9m,"Rua da Cooperativa ""A Sacavenense, n.º 20 C (antigo lote 13), r/c B, Quinta do Património e Galego Meirinho",2685-00,Sacavém,27,União das freguesias de Sacavém e Prior Velho,1107,Loures,11,Lisboa,PT170,AML,070687|070688|071275|071276|071407|071415|071505
EC0079,IEFP - GIP Câmara Municipal de Mafra,38.940711,-9.331835,0,1,0,0, 261 102 639,,https://eportugal.gov.pt/web/guest/pesquisa/-/pesquisa/tudo/IEFP%20-%20GIP%20C%C3%A2mara%20Municipal%20de%20Mafra,"Rua Serpa Pinto, n.º 34 E",2640-534,Mafra,9,Mafra,1109,Mafra,11,Lisboa,PT170,AML,080197|080198|080202|080204|080208|080211|080817|080965|082322
EC0080,IEFP - Serviço de Emprego de Loures - Balcão de Atendimento de Mafra,38.828124,-9.169811,0,1,0,0, 215802570 ,,https://eportugal.gov.pt/web/guest/pesquisa/-/pesquisa/tudo/IEFP%20-%20Servi%C3%A7o%20de%20Emprego%20de%20Loures%20-%20Balc%C3%A3o%20de%20Atendimento%20de%20Mafra,Rua Serpa Pinto nº 34 E,2640-007,Mafra,7,Loures,1107,Mafra,11,Lisboa,PT170,AML,070029|070037|070361|070362|070475|070476|070477|070478|070479|070527|070529|070551
EC0081,IEFP - CFPSA - Centro de Formação Profissional para o Sector Alimentar,38.763749,-9.200301,0,1,0,0, 214 789 500 ,,https://eportugal.gov.pt/web/guest/pesquisa/-/pesquisa/tudo/IEFP%20-%20CFPSA%20-%20Centro%20de%20Forma%C3%A7%C3%A3o%20Profissional%20para%20o%20Sector%20Alimentar,"Av. 25 de Abril, 22",1675-183,Pontinha,8,União das freguesias de Pontinha e Famões,1116,Odivelas,11,Lisboa,PT170,AML,060062|060077|060355|060357|110043|110045|110695|110697|110859
EC0082,IEFP - GIP Centro Social Paroquial da Póvoa de Santo Adrião,38.802051,-9.164100,0,1,0,0, 219 389 635 | 927 864 418,,https://eportugal.gov.pt/web/guest/pesquisa/-/pesquisa/tudo/IEFP%20-%20GIP%20Centro%20Social%20Paroquial%20da%20P%C3%B3voa%20de%20Santo%20Adri%C3%A3o,"Rua Major Mouzinho de Albuquerque, n.º 11",2620-153,Póvoa de Santo Adrião,9,União das freguesias de Póvoa de Santo Adrião e Olival Basto,1116,Odivelas,11,Lisboa,PT170,AML,110459|110461|110463|110464|110465|110466|110467|110533|110535|110536|110537|110541|110542|110543|110561|110563|110565|110567|110571|110659|110660
EC0083,IEFP - GIP Junta de Freguesia de Freguesia de Pontinha e Famões,38.791341,-9.210879,0,1,0,0, 214 787 280,,https://eportugal.gov.pt/web/guest/pesquisa/-/pesquisa/tudo/IEFP%20-%20GIP%20Junta%20de%20Freguesia%20de%20Freguesia%20de%20Pontinha%20e%20Fam%C3%B5es,"Avenida 25 de Abril, n.º 22 A",1675-183,Pontinha,8,União das freguesias de Pontinha e Famões,1116,Odivelas,11,Lisboa,PT170,AML,110677|110709|110710|110733|110734|110735|110736|110769|110770|110848|110849
EC0084,IEFP - GIP Junta de Freguesia de Odivelas,38.792951,-9.175160,0,1,0,0, 219 319 000 | 969 662 03,,https://eportugal.gov.pt/web/guest/pesquisa/-/pesquisa/tudo/IEFP%20-%20GIP%20Junta%20de%20Freguesia%20de%20Odivelas,"Alameda do Poder Local, n.º 4",2675-427,Odivelas,3,Odivelas,1116,Odivelas,11,Lisboa,PT170,AML,110093|110094|110097|110129|110130|110131|110132|110391|110393|110395|110403|110405|110407|110408|110409|110410|110857|111016|111025|111026
EC0085,IEFP - Serviço de Emprego de Odivelas,38.786991,-9.181422,0,1,0,0, 215802610 ,,https://eportugal.gov.pt/web/guest/pesquisa/-/pesquisa/tudo/IEFP%20-%20Servi%C3%A7o%20de%20Emprego%20de%20Odivelas,"Av. D. Dinis, nº 74 A",2675-328,Odivelas,3,Odivelas,1116,Odivelas,11,Lisboa,PT170,AML,110085|110087|110088|110089|110102|110199|110200|110201|110207|110295|110297|111001|111002
EC0086,IEFP - Centro de Emprego e Formação Profissional de Vila Franca de Xira,38.891947,-9.035118,0,1,0,0, 215802920 ,,https://eportugal.gov.pt/web/guest/pesquisa/-/pesquisa/tudo/IEFP%20-%20Centro%20de%20Emprego%20e%20Forma%C3%A7%C3%A3o%20Profissional%20de%20Vila%20Franca%20de%20Xira,Av Infante D. Pedro,2615-151,Vila Franca de Xira,13,União das freguesias de Alverca do Ribatejo e Sobralinho,1114,Vila Franca de Xira,11,Lisboa,PT170,AML,180041|180043|180101|180102|182200|182255|182257|182258
EC0087,IEFP - GIP Imigrante Associação Proabraçar,38.954882,-8.987779,0,1,0,0,,,https://eportugal.gov.pt/web/guest/pesquisa/-/pesquisa/tudo/IEFP%20-%20GIP%20Imigrante%20Associa%C3%A7%C3%A3o%20Proabra%C3%A7ar,Rua Antero de Quental,2625-690,Vialonga,9,Vila Franca de Xira,1114,Vila Franca de Xira,11,Lisboa,PT170,AML,180077|180079|180081|180291|180359|180765
EC0088,"IEFP - GIP Junta de Freguesia de Alhandra, São João dos Montes e Calhandriz",38.927088,-9.008529,0,1,0,0,219519050 ,,"https://eportugal.gov.pt/web/guest/pesquisa/-/pesquisa/tudo/IEFP%20-%20GIP%20Junta%20de%20Freguesia%20de%20Alhandra,%20S%C3%A3o%20Jo%C3%A3o%20dos%20Montes%20e%20Calhandriz","Praça 7 de Março, nº 20",2600-513,Alhandra,12,"União das freguesias de Alhandra, São João dos Montes e Calhandriz",1114,Vila Franca de Xira,11,Lisboa,PT170,AML,180067|180068|180228|180230|180231
EC0089,IEFP - GIP Junta de Freguesia de Alverca do Ribatejo e Sobralinho,38.903587,-9.045989,0,1,0,0, 219570118,,https://eportugal.gov.pt/web/guest/pesquisa/-/pesquisa/tudo/IEFP%20-%20GIP%20Junta%20de%20Freguesia%20de%20Alverca%20do%20Ribatejo%20e%20Sobralinho,"Rua General Humberto Delgado, n.º 9, Loja 10",2615-308,Alverca do Ribatejo,13,União das freguesias de Alverca do Ribatejo e Sobralinho,1114,Vila Franca de Xira,11,Lisboa,PT170,AML,180111|180112|180113|180115|180121|180123|180125|180135|180136|180137|180140|182201|182259
EC0090,IEFP - GIP Junta de Freguesia de Póvoa de Santa Iria e Forte da Casa,38.867940,-9.060240,0,1,0,0, 912248952 ,,https://eportugal.gov.pt/web/guest/pesquisa/-/pesquisa/tudo/IEFP%20-%20GIP%20Junta%20de%20Freguesia%20de%20P%C3%B3voa%20de%20Santa%20Iria%20e%20Forte%20da%20Casa,"Rua Batista Pereira, 11 - Piscinas Municipais",2625-067,Póvoa de Santa Iria,15,União das freguesias de Póvoa de Santa Iria e Forte da Casa,1114,Vila Franca de Xira,11,Lisboa,PT170,AML,180497|180498|180531|180533|180534|180553|180555|180751|180752
EC0091,IEFP - GIP Município de Vila Franca de Xira -Vialonga,38.954882,-8.987779,0,1,0,0, 219 527 806 | 969 800 053 ,,https://eportugal.gov.pt/locais-de-atendimento-de-servicos-publicos/-/pesquisa/search_stores?_searchresults_formDate=1697476031273&_searchresults_keywords=&_searchresults_keywords2=&_searchresults_portalCategoryTypesId=&_searchresults_LojasEspacos+47584869=on&_searchresults_Distritos+238422=on&_searchresults_Concelhos+50156286=on&_searchresults_checkboxNames=LojasEspacos+47584869%2CDistritos+238422%2CConcelhos+50156271%2CConcelhos+50156272%2CConcelhos+50156273%2CConcelhos+50156274%2CConcelhos+50156275%2CConcelhos+50156276%2CConcelhos+50156277%2CConcelhos+50156278%2CConcelhos+50156279%2CConcelhos+50156280%2CConcelhos+50156281%2CConcelhos+50156282%2CConcelhos+50156283%2CConcelhos+50156284%2CConcelhos+50156285%2CConcelhos+50156286%2CPaises+25291018&pageSequenceNumber=2,Rua Antero de Quental,2625-690,Vialonga,9,Vila Franca de Xira,1114,Vila Franca de Xira,11,Lisboa,PT170,AML,180077|180079|180081|180291|180359|180765
EC0092,IEFP - Serviço de Emprego de Vila Franca de Xira,38.954882,-8.987779,0,1,0,0,263146930 ,,https://eportugal.gov.pt/web/guest/pesquisa/-/pesquisa/tudo/IEFP%20-%20Servi%C3%A7o%20de%20Emprego%20de%20Vila%20Franca%20de%20Xira,Rua Dr Manuel de Arriaga nº 33,2600-186,Vila Franca de Xira,9,Vila Franca de Xira,1114,Vila Franca de Xira,11,Lisboa,PT170,AML,180077|180079|180081|180291|180359|180765
EC0093,IEFP - Serviço de Formação Profissional de Alverca,38.891947,-9.035118,0,1,0,0,215802964 ,,https://eportugal.gov.pt/web/guest/pesquisa/-/pesquisa/tudo/IEFP%20-%20Servi%C3%A7o%20de%20Forma%C3%A7%C3%A3o%20Profissional%20de%20Alverca,Avenida Infante D. Pedro,2615-151,Alverca do Ribatejo,13,União das freguesias de Alverca do Ribatejo e Sobralinho,1114,Vila Franca de Xira,11,Lisboa,PT170,AML,180041|180043|180101|180102|182200|182255|182257|182258
EC0094,IEFP - Centro de Emprego de Almada,38.678933,-9.153360,0,0,1,0, 218368160 ,,https://eportugal.gov.pt/web/guest/pesquisa/-/pesquisa/tudo/IEFP%20-%20Centro%20de%20Emprego%20de%20Almada,"Rua D. João IV, 18-A",2804-538,Almada,12,"União das freguesias de Almada, Cova da Piedade, Pragal e Cacilhas",1503,Almada,15,Setúbal,PT170,AML,020045|020057|020058|020109|020110|020111|020112|020115|020401|021065|021066
EC0095,IEFP - GIP Associação MIMO,38.656768,-9.155490,0,0,1,0, 212 593 515 | 917 162 152,,https://eportugal.gov.pt/web/guest/pesquisa/-/pesquisa/tudo/IEFP%20-%20GIP%20Associa%C3%A7%C3%A3o%20MIMO,"Rua Frei Domingos, n.º 3 B",2810-198,Laranjeiro,15,União das freguesias de Laranjeiro e Feijó,1503,Almada,15,Setúbal,PT170,AML,020507|020508|020679|020680|020681|020682|020859|020945
EC0096,IEFP - GIP Centro Social Paroquial da Sobreda,38.647308,-9.193373,0,0,1,0, 212 953 120 | 962 103 053,,https://eportugal.gov.pt/web/guest/pesquisa/-/pesquisa/tudo/IEFP%20-%20GIP%20Centro%20Social%20Paroquial%20da%20Sobreda,Rua Jaime Ferreira Dias,2815-776,Sobreda,14,União das freguesias de Charneca de Caparica e Sobreda,1503,Almada,15,Setúbal,PT170,AML,020585|020586|020587|020588|020605|020606|020921|020922
EC0097,IEFP - GIP Santa Casa da Misericórdia de Almada - Centro Infantil da Trafaria,38.669564,-9.239105,0,0,1,0, 212 919 506 | 932 020 900 ,,https://eportugal.gov.pt/web/guest/pesquisa/-/pesquisa/tudo/IEFP%20-%20GIP%20Santa%20Casa%20da%20Miseric%C3%B3rdia%20de%20Almada%20-%20Centro%20Infantil%20da%20Trafaria,"Avª. 25 de Abril, n.º 78",2825-893,Trafaria,13,União das freguesias de Caparica e Trafaria,1503,Almada,15,Setúbal,PT170,AML,020561
EC0098,IEFP - GIP Santa Casa da Misericórdia de Almada - Pia II - Monte da Caparica,38.671515,-9.189536,0,0,1,0,212 946 945 | 963 214 494 ,,https://eportugal.gov.pt/web/guest/pesquisa/-/pesquisa/tudo/IEFP%20-%20GIP%20Santa%20Casa%20da%20Miseric%C3%B3rdia%20de%20Almada%20-%20Pia%20II%20-%20Monte%20da%20Caparica,"Rua do Moinho, n.º 7, 9 e 11",2825-016,Caparica,13,União das freguesias de Caparica e Trafaria,1503,Almada,15,Setúbal,PT170,AML,020259|020260|020261|020262|020263|020264
EC0099,IEFP - GIP União das Freguesias de Charneca de Caparica e Sobreda,38.617434,-9.191348,0,0,1,0,210 532 807 | 967 081 846,,https://eportugal.gov.pt/web/guest/pesquisa/-/pesquisa/tudo/IEFP%20-%20GIP%20Uni%C3%A3o%20das%20Freguesias%20de%20Charneca%20de%20Caparica%20e%20Sobreda,"Rua Marco Cabaço, n.º 17",2820-001,Almada,14,União das freguesias de Charneca de Caparica e Sobreda,1503,Almada,15,Setúbal,PT170,AML,020337|020338|020339|020340|020417|020418|020785|020786
EC0100,IEFP - Centro de Emprego e Formação Profissional de Seixal,38.627890,-9.125987,0,0,1,0,215802736,,https://eportugal.gov.pt/web/guest/pesquisa/-/pesquisa/tudo/IEFP%20-%20Centro%20de%20Emprego%20e%20Forma%C3%A7%C3%A3o%20Profissional%20de%20Seixal,R. Infante D. Augusto,2845-115,Amora,2,Amora,1510,Seixal,15,Setúbal,PT170,AML,140159|140160|140161|140162|140163|140164|140757|140758|140759
EC0101,IEFP - GIP CRIAR-T - Associação de Solidariedade,38.621533,-9.101260,0,0,1,0,212 222 600 | 967 880 928,,https://eportugal.gov.pt/web/guest/pesquisa/-/pesquisa/tudo/IEFP%20-%20GIP%20CRIAR-T%20-%20Associa%C3%A7%C3%A3o%20de%20Solidariedade,"RUA 25 ABRIL, LOTE 18 A - FOGUETEIRO",2845-166,Fogueteiro,7,"União das freguesias do Seixal, Arrentela e Aldeia de Paio Pires",1510,Seixal,15,Setúbal,PT170,AML,140051|140052|140053|140054
EC0102,IEFP - GIP Centro Paroquial de Bem Estar Social de Arrentela,38.624890,-9.101417,0,0,1,0, 212 223 051 | 913 905 82,,https://eportugal.gov.pt/web/guest/pesquisa/-/pesquisa/tudo/IEFP%20-%20GIP%20Centro%20Paroquial%20de%20Bem%20Estar%20Social%20de%20Arrentela,"Praceta Gregório Crispim Oliveira, n.º 1, Loja A",2840-358,Arrentela,7,"União das freguesias do Seixal, Arrentela e Aldeia de Paio Pires",1510,Seixal,15,Setúbal,PT170,AML,140051|140052|140053|140054|140055|140081
EC0103,IEFP - GIP RATO - Associação para a Divulgação Cultural e Científica,38.649901,-9.142964,0,0,1,0,12 275 684 | 933 778 414 ,,https://eportugal.gov.pt/web/guest/pesquisa/-/pesquisa/tudo/IEFP%20-%20GIP%20RATO%20-%20Associa%C3%A7%C3%A3o%20para%20a%20Divulga%C3%A7%C3%A3o%20Cultural%20e%20Cient%C3%ADfica,"Rua Adriano Correia de Oliveira, n.º 8, 1.º - Miratejo",2855-227,Corroios,5,Corroios,1510,Seixal,15,Setúbal,PT170,AML,140711|140713|140714|140727|140729
EC0104,IEFP - Serviço de Emprego do Seixal,38.632763,-9.129603,0,0,1,0, 215802740 ,,https://eportugal.gov.pt/web/guest/pesquisa/-/pesquisa/tudo/IEFP%20-%20Servi%C3%A7o%20de%20Emprego%20do%20Seixal,"AV. MARCOS DE PORTUGAL, 90",2845-545,Amora,2,Amora,1510,Seixal,15,Setúbal,PT170,AML,140761|140762|140763|140765
EC0105,IEFP - Serviço de Formação Profissional do Seixal,38.627890,-9.125987,0,0,1,0,215802670 ,,https://eportugal.gov.pt/web/guest/pesquisa/-/pesquisa/tudo/IEFP%20-%20Servi%C3%A7o%20de%20Forma%C3%A7%C3%A3o%20Profissional%20do%20Seixal,R. Infante D. Augusto - Cruz de Pau,2845-115,Amora,2,Amora,1510,Seixal,15,Setúbal,PT170,AML,140159|140160|140161|140162|140163|140164|140757|140758|140759
EC0106,IEFP - Centro de Formação Profissional das Pescas e do Mar (FOR-MAR) - Sesimbra,38.443850,-9.095825,0,0,1,0, 212280760 ,,https://eportugal.gov.pt/web/guest/pesquisa/-/pesquisa/tudo/IEFP%20-%20Centro%20de%20Forma%C3%A7%C3%A3o%20Profissional%20das%20Pescas%20e%20do%20Mar%20(FOR-MAR)%20-%20Sesimbra,Vila Pinto Argéis,2970-676,Sesimbra,2,Sesimbra (Santiago),1511,Sesimbra,15,Setúbal,PT170,AML,150465|150467|150469|150475|150477|150479|150610
EC0107,IEFP - GIP Junta Freguesia da Quinta do Conde,38.565653,-9.041842,0,0,1,0,212 108 373 | 936 626 159,,https://eportugal.gov.pt/web/guest/pesquisa/-/pesquisa/tudo/IEFP%20-%20GIP%20Junta%20Freguesia%20da%20Quinta%20do%20Conde,Rotundo Cova dos Vidros,2975-333,Quinta do Conde,3,Quinta do Conde,1511,Sesimbra,15,Setúbal,PT170,AML,150517|150518|150519|150520|150551|150552|150583|150584|150587|150588
EC0108,IEFP - GIP Município de Sesimbra,38.443850,-9.095825,0,0,1,0,212 281 027 | 916 591 452 ,,https://eportugal.gov.pt/web/guest/pesquisa/-/pesquisa/tudo/IEFP%20-%20GIP%20Munic%C3%ADpio%20de%20Sesimbra,"Bairro de Argéis, Vila Pinto",2970-676,Sesimbra,2,Sesimbra (Santiago),1511,Sesimbra,15,Setúbal,PT170,AML,150465|150467|150469|150475|150477|150479|150610
EC0109,IEFP - GIP Centro Social de Santo António,38.635035,-9.039637,0,0,0,1, 212 141 010 | 914 055 955,,https://eportugal.gov.pt/web/guest/pesquisa/-/pesquisa/tudo/IEFP%20-%20GIP%20Centro%20Social%20de%20Santo%20Ant%C3%B3nio,"Rua António Aleixo, n.º 1 - Vila Chã",2835-691,Santo António da Charneca,7,Santo António da Charneca,1504,Barreiro,15,Setúbal,PT170,AML,
EC0110,IEFP - GIP NÓS - Associação de Pais e Técnicos para Integração do Deficiente,38.650718,-9.055288,0,0,0,1, 212 149 000 ,,https://eportugal.gov.pt/web/guest/pesquisa/-/pesquisa/tudo/IEFP%20-%20GIP%20N%C3%93S%20-%20Associa%C3%A7%C3%A3o%20de%20Pais%20e%20T%C3%A9cnicos%20para%20Integra%C3%A7%C3%A3o%20do%20Deficiente,"Rua Aquiles de Almeida, n.º 1",2830-226,Barreiro,9,"União das freguesias de Alto do Seixalinho, Santo André e Verderena",1504,Barreiro,15,Setúbal,PT170,AML,
EC0112,IEFP - Serviço de Emprego do Barreiro,38.661569,-9.076129,0,0,0,1, 215802430 ,,https://eportugal.gov.pt/web/guest/pesquisa/-/pesquisa/tudo/IEFP%20-%20Servi%C3%A7o%20de%20Emprego%20do%20Barreiro,"Rua Elias Garcia, nº 35",2830-349,Barreiro,10,União das freguesias de Barreiro e Lavradio,1504,Barreiro,15,Setúbal,PT170,AML,040080|040137|040179
EC0113,IEFP - GIP CRIVA - Centro de Reformados e Idosos do Vale Amoreira,38.642306,-9.037464,0,0,0,1, 212049163,,https://eportugal.gov.pt/web/guest/pesquisa/-/pesquisa/tudo/IEFP%20-%20GIP%20CRIVA%20-%20Centro%20de%20Reformados%20e%20Idosos%20do%20Vale%20Amoreira,"Avenida José Almada Negreiros, Edifício Multiusos do Vale da Amoreira, Piso 1",2835-009,Vale da Amoreira,7,União das freguesias de Baixa da Banheira e Vale da Amoreira,1506,Moita,15,Setúbal,PT170,AML,090225|090226|090227|090228
EC0115,IEFP - GIP Fundação Santa Rafaela Maria,38.653655,-9.006252,0,0,0,1,212 897 217 | 967 135 249 ,,https://eportugal.gov.pt/web/guest/pesquisa/-/pesquisa/tudo/IEFP%20-%20GIP%20Funda%C3%A7%C3%A3o%20Santa%20Rafaela%20Maria,"Rua Eça de Queiroz, Bloco H, nº 10 - Quinta Fonte da Prata",2860-270,Alhos Vedros,1,Alhos Vedros,1506,Moita,15,Setúbal,PT170,AML,090007|090008|090009|090010
EC0116,IEFP - GIP Associação para a Formação Profissional e Desenvolvimento do Montijo,38.702666,-8.949297,0,0,0,1, 212313862 ,,https://eportugal.gov.pt/web/guest/pesquisa/-/pesquisa/tudo/IEFP%20-%20GIP%20Associa%C3%A7%C3%A3o%20para%20a%20Forma%C3%A7%C3%A3o%20Profissional%20e%20Desenvolvimento%20do%20Montijo,"Rua José de Almada Negreiros, 217, Afonsoeiro",2870-442,Montijo,10,União das freguesias de Montijo e Afonsoeiro,1507,Montijo,15,Setúbal,PT170,AML,100038|100039|100040|100041|100042|100423|100425
EC0117,IEFP - Serviço de Emprego do Montijo,38.709634,-8.973185,0,0,0,1, 215802480,,https://eportugal.gov.pt/web/guest/pesquisa/-/pesquisa/tudo/IEFP%20-%20Servi%C3%A7o%20de%20Emprego%20do%20Montijo,RUA D.JORGE MESTRE DE SANTIAGO N.º4,2870-310,Montijo,10,União das freguesias de Montijo e Afonsoeiro,1507,Montijo,15,Setúbal,PT170,AML,
EC0118,IEFP - GIP Centro Social da Quinta do Anjo,38.567240,-8.939399,0,0,0,1, 212880548 ,,https://eportugal.gov.pt/web/guest/pesquisa/-/pesquisa/tudo/IEFP%20-%20GIP%20Centro%20Social%20da%20Quinta%20do%20Anjo,"Rua Venâncio da Costa Lima, nº 138",2950-701,Quinta do Anjo,4,Quinta do Anjo,1508,Palmela,15,Setúbal,PT170,AML,130077|130078|130079|130080|130081|130082
EC0119,IEFP - GIP IDSET - Associação Portuguesa para a Inovação e Desenvolvimento,38.536348,-8.868516,0,0,0,1,265 102 941 ,,https://eportugal.gov.pt/web/guest/pesquisa/-/pesquisa/tudo/IEFP%20-%20GIP%20IDSET%20-%20Associa%C3%A7%C3%A3o%20Portuguesa%20para%20a%20Inova%C3%A7%C3%A3o%20e%20Desenvolvimento,"Rua Gonçalves Zarco, n.º 3, R/C A",2910-279,Setúbal,5,Setúbal (São Sebastião),1512,Setúbal,15,Setúbal,PT170,AML,160183|160184|160191|160689|160690
EC0120,IEFP - GIP Imigrante Fábrica da Igreja de Nossa Sr.ª da Conceição,38.525467,-8.870943,0,0,0,1,265741468 ,,https://eportugal.gov.pt/web/guest/pesquisa/-/pesquisa/tudo/IEFP%20-%20GIP%20Imigrante%20F%C3%A1brica%20da%20Igreja%20de%20Nossa%20Sr.%C2%AA%20da%20Concei%C3%A7%C3%A3o,Av. Bento Jesus Caraça nº77,2910-430,Setúbal,5,Setúbal (São Sebastião),1512,Setúbal,15,Setúbal,PT170,AML,160035|160037|160057|160169|160170|160171|160172|160179|160509|160510|160623|160624|160964
EC0122,"IEFP - GIP SEIES - Soc. Estudos e Intervenção em Engenharia Social, CRL",38.524451,-8.898374,0,0,0,1,265 547 450 | 918 041 197 ,,"https://eportugal.gov.pt/web/guest/pesquisa/-/pesquisa/tudo/IEFP%20-%20GIP%20SEIES%20-%20Soc.%20Estudos%20e%20Interven%C3%A7%C3%A3o%20em%20Engenharia%20Social,%20CRL","Rua João Eloy do Amaral, 140",2900-414,Setúbal,10,"União das freguesias de Setúbal (São Julião, Nossa Senhora da Anunciada e Santa Maria da Graça)",1512,Setúbal,15,Setúbal,PT170,AML,160157|160158|160159|160199|160225|160255|160256|160351|160407|160433|160434|160507|160508
EC0123,IEFP - GIP UGT – União Geral dos Trabalhadores - Setúbal,38.525590,-8.892769,0,0,0,1,265509100 | 969038769,,https://eportugal.gov.pt/locais-de-atendimento-de-servicos-publicos/-/pesquisa/search_stores?_searchresults_formDate=1697475984853&_searchresults_keywords=&_searchresults_keywords2=&_searchresults_portalCategoryTypesId=&_searchresults_LojasEspacos+47584869=on&_searchresults_Distritos+238426=on&_searchresults_Concelhos+50156352=on&_searchresults_checkboxNames=LojasEspacos+47584869%2CDistritos+238426%2CConcelhos+50156342%2CConcelhos+50156343%2CConcelhos+50156344%2CConcelhos+50156345%2CConcelhos+50156346%2CConcelhos+50156347%2CConcelhos+50156348%2CConcelhos+50156349%2CConcelhos+50156350%2CConcelhos+50156351%2CConcelhos+50156352%2CConcelhos+50156353%2CPaises+25291018&pageSequenceNumber=2,"Rua Joaquim Brandão, 13, 1.º Andar",2900-422,Setúbal,10,"União das freguesias de Setúbal (São Julião, Nossa Senhora da Anunciada e Santa Maria da Graça)",1512,Setúbal,15,Setúbal,PT170,AML,160097|160099|160105|160107|160123|160135|160137|160139|160157|160158|160223|160225|160251|160273|160349|160409|160507|160508|160531|160883|160961
EC0124,IEFP - Serviço de Emprego de Setúbal,38.531175,-8.882193,0,0,0,1,265146870 ,,https://eportugal.gov.pt/web/guest/pesquisa/-/pesquisa/tudo/IEFP%20-%20Servi%C3%A7o%20de%20Emprego%20de%20Set%C3%BAbal,"Rua António José Batista, 88 - A",2910-397,Setúbal,5,Setúbal (São Sebastião),1512,Setúbal,15,Setúbal,PT170,AML,160029|160031|160429|160430
EC0125,IEFP - Serviço de Formação Profissional de Setúbal,38.531375,-8.881478,0,0,0,1, 265146800,,https://eportugal.gov.pt/web/guest/pesquisa/-/pesquisa/tudo/IEFP%20-%20Servi%C3%A7o%20de%20Forma%C3%A7%C3%A3o%20Profissional%20de%20Set%C3%BAbal,"R. António José Batista, 86",2910-397,Setúbal (São Sebastião),5,Setúbal (São Sebastião),1512,Setúbal,15,Setúbal,PT170,AML,160429|160430